{"province":"Cagayan","cities":[{"city":"Tuguegarao","zipcodes":[{"area":"Tuguegarao","zipcode":"3500"}]},{"city":"Abulug","zipcodes":[{"area":"Abulug","zipcode":"3515"}]},{"city":"Alcala","zipcodes":[{"area":"Alcala","zipcode":"3507"}]},{"city":"Allacapan","zipcodes":[{"area":"Allacapan","zipcode":"3523"}]},{"city":"Amulung","zipcodes":[{"area":"Amulung","zipcode":"3505"}]},{"city":"Aparri","zipcodes":[{"area":"Aparri","zipcode":"3515"}]},{"city":"Baggao","zipcodes":[{"area":"Baggao","zipcode":"3506"}]},{"city":"Ballesteros","zipcodes":[{"area":"Ballesteros","zipcode":"3516"}]},{"city":"Buguey","zipcodes":[{"area":"Buguey","zipcode":"3511"}]},{"city":"Calayan","zipcodes":[{"area":"Calayan","zipcode":"3520"}]},{"city":"Camalaniugan","zipcodes":[{"area":"Camalaniugan","zipcode":"3510"}]},{"city":"Claveria","zipcodes":[{"area":"Claveria","zipcode":"3519"}]},{"city":"Enrile","zipcodes":[{"area":"Enrile","zipcode":"3501"}]},{"city":"Gattaran","zipcodes":[{"area":"Gattaran","zipcode":"3508"}]},{"city":"Gonzaga","zipcodes":[{"area":"Gonzaga","zipcode":"3513"}]},{"city":"Iguig","zipcodes":[{"area":"Iguig","zipcode":"3504"}]},{"city":"Lal-lo","zipcodes":[{"area":"Lal-lo","zipcode":"3509"}]},{"city":"Lasam","zipcodes":[{"area":"Lasam","zipcode":"3524"}]},{"city":"Pamplona","zipcodes":[{"area":"Pamplona","zipcode":"3522"}]},{"city":"Pe単ablanca","zipcodes":[{"area":"Pe単ablanca","zipcode":"3502"}]},{"city":"Piat","zipcodes":[{"area":"Piat","zipcode":"3527"}]},{"city":"Rizal","zipcodes":[{"area":"Rizal","zipcode":"3526"}]},{"city":"Sanchez-Mira","zipcodes":[{"area":"Sanchez-Mira","zipcode":"3518"}]},{"city":"Sta. Ana","zipcodes":[{"area":"Sta. Ana","zipcode":"3514"}]},{"city":"Sta. Praxedes","zipcodes":[{"area":"Sta. Praxedes","zipcode":"3521"}]},{"city":"Sta. Teresita","zipcodes":[{"area":"Sta. Teresita","zipcode":"3512"}]},{"city":"Sto. Ni単o","zipcodes":[{"area":"Sto. Ni単o","zipcode":"3525"}]},{"city":"Solana","zipcodes":[{"area":"Solana","zipcode":"3503"}]},{"city":"Tuao","zipcodes":[{"area":"Tuao","zipcode":"3528"}]}]}
