{"province":"Cavite","cities":[{"city":"Cavite","zipcodes":[{"area":"Cavite","zipcode":"4100"}]},{"city":"Tagaytay","zipcodes":[{"area":"Tagaytay","zipcode":"4120"}]},{"city":"Trece Martires","zipcodes":[{"area":"Trece Martires","zipcode":"4109"}]},{"city":"Alfonso","zipcodes":[{"area":"Alfonso","zipcode":"4123"}]},{"city":"Amadeo","zipcodes":[{"area":"Amadeo","zipcode":"4119"}]},{"city":"Bacoor","zipcodes":[{"area":"Bacoor","zipcode":"4102"}]},{"city":"Carmona","zipcodes":[{"area":"Carmona","zipcode":"4116"}]},{"city":"Dasmariñas","zipcodes":[{"area":"Dasmariñas","zipcode":"4115"}]},{"city":"Gen. Mariano Alvarez","zipcodes":[{"area":"Gen. Mariano Alvarez","zipcode":"4117"}]},{"city":"Gen. Emilio Aguinaldo","zipcodes":[{"area":"Gen. Emilio Aguinaldo","zipcode":"4124"}]},{"city":"Gen. Trias","zipcodes":[{"area":"Gen. Trias","zipcode":"4107"}]},{"city":"Imus","zipcodes":[{"area":"Imus","zipcode":"4103"}]},{"city":"Indang","zipcodes":[{"area":"Indang","zipcode":"4122"}]},{"city":"Kawit","zipcodes":[{"area":"Kawit","zipcode":"4104"}]},{"city":"Magallanes","zipcodes":[{"area":"Magallanes","zipcode":"4113"}]},{"city":"Maragondon","zipcodes":[{"area":"Maragondon","zipcode":"4112"}]},{"city":"Mendez","zipcodes":[{"area":"Mendez","zipcode":"4121"}]},{"city":"Naic","zipcodes":[{"area":"Naic","zipcode":"4110"}]},{"city":"Noveleta","zipcodes":[{"area":"Noveleta","zipcode":"4105"}]},{"city":"Rosario","zipcodes":[{"area":"Rosario","zipcode":"4106"}]},{"city":"Silang","zipcodes":[{"area":"Silang","zipcode":"4118"}]},{"city":"Tanza","zipcodes":[{"area":"Tanza","zipcode":"4108"}]},{"city":"Ternate","zipcodes":[{"area":"Ternate","zipcode":"4111"}]}]}
