{"province":"Lanao del Sur","cities":[{"city":"Marawi","zipcodes":[{"area":"Marawi","zipcode":"9700"}]},{"city":"Bacolod-Grande","zipcodes":[{"area":"Bacolod-Grande","zipcode":"9316"}]},{"city":"Balabagan","zipcodes":[{"area":"Balabagan","zipcode":"9302"}]},{"city":"Balindong","zipcodes":[{"area":"Balindong","zipcode":"9318"}]},{"city":"Bayang","zipcodes":[{"area":"Bayang","zipcode":"9309"}]},{"city":"Binindayan","zipcodes":[{"area":"Binindayan","zipcode":"9310"}]},{"city":"Buadiposo-Buntong","zipcodes":[{"area":"Buadiposo-Buntong","zipcode":"9714"}]},{"city":"Bubong","zipcodes":[{"area":"Bubong","zipcode":"9708"}]},{"city":"Bumbaran","zipcodes":[{"area":"Bumbaran","zipcode":"9320"}]},{"city":"Butig","zipcodes":[{"area":"Butig","zipcode":"9305"}]},{"city":"Calanogas","zipcodes":[{"area":"Calanogas","zipcode":"9319"}]},{"city":"Ditsaan-Ramain","zipcodes":[{"area":"Ditsaan-Ramain","zipcode":"9713"}]},{"city":"Ganassi","zipcodes":[{"area":"Ganassi","zipcode":"9311"}]},{"city":"Kapai","zipcodes":[{"area":"Kapai","zipcode":"9709"}]},{"city":"Kapatagan","zipcodes":[{"area":"Kapatagan","zipcode":"9214"}]},{"city":"Lumba-Bayabao","zipcodes":[{"area":"Lumba-Bayabao","zipcode":"9703"}]},{"city":"Lumbayanague","zipcodes":[{"area":"Lumbayanague","zipcode":"9306"}]},{"city":"Lumbatan","zipcodes":[{"area":"Lumbatan","zipcode":"9307"}]},{"city":"Lumbayanague","zipcodes":[{"area":"Lumbayanague","zipcode":"9306"}]},{"city":"Madalum","zipcodes":[{"area":"Madalum","zipcode":"9315"}]},{"city":"Madamba","zipcodes":[{"area":"Madamba","zipcode":"9314"}]},{"city":"Maguing","zipcodes":[{"area":"Maguing","zipcode":"9715"}]},{"city":"Malabang","zipcodes":[{"area":"Malabang","zipcode":"9300"}]},{"city":"Marantao","zipcodes":[{"area":"Marantao","zipcode":"9711"}]},{"city":"Maragong","zipcodes":[{"area":"Maragong","zipcode":"9303"}]},{"city":"Masiu","zipcodes":[{"area":"Masiu","zipcode":"9706"}]},{"city":"Mulondo","zipcodes":[{"area":"Mulondo","zipcode":"9702"}]},{"city":"Pagayawan","zipcodes":[{"area":"Pagayawan","zipcode":"9312"}]},{"city":"Piagapo","zipcodes":[{"area":"Piagapo","zipcode":"9204"}]},{"city":"Poona Bayabao","zipcodes":[{"area":"Poona Bayabao","zipcode":"9705"}]},{"city":"Pualas","zipcodes":[{"area":"Pualas","zipcode":"9313"}]},{"city":"Saguiaran","zipcodes":[{"area":"Saguiaran","zipcode":"9701"}]},{"city":"Tagoloan II","zipcodes":[{"area":"Tagoloan II","zipcode":"9321"}]},{"city":"Tamparan","zipcodes":[{"area":"Tamparan","zipcode":"9704"}]},{"city":"Taraka","zipcodes":[{"area":"Taraka","zipcode":"9712"}]},{"city":"Tubaran","zipcodes":[{"area":"Tubaran","zipcode":"9304"}]},{"city":"Tugaya","zipcodes":[{"area":"Tugaya","zipcode":"9317"}]},{"city":"Wao","zipcodes":[{"area":"Wao","zipcode":"9716"}]}]}
