{"province":"Negros Oriental","cities":[{"city":"Bais","zipcodes":[{"area":"Bais","zipcode":"6206"}]},{"city":"Bayawan","zipcodes":[{"area":"Bayawan","zipcode":"6221"}]},{"city":"Canlaon","zipcodes":[{"area":"Canlaon","zipcode":"6223"}]},{"city":"Dumaguete","zipcodes":[{"area":"Dumaguete","zipcode":"6200"}]},{"city":"Guihulngan","zipcodes":[{"area":"Guihulngan","zipcode":"6214"}]},{"city":"Tanjay","zipcodes":[{"area":"Tanjay","zipcode":"6204"}]},{"city":"Amlan","zipcodes":[{"area":"Amlan","zipcode":"6203"}]},{"city":"Ayungon","zipcodes":[{"area":"Ayungon","zipcode":"6210"}]},{"city":"Bacong","zipcodes":[{"area":"Bacong","zipcode":"6216"}]},{"city":"Basay","zipcodes":[{"area":"Basay","zipcode":"6222"}]},{"city":"Bindoy","zipcodes":[{"area":"Bindoy","zipcode":"6209"}]},{"city":"Dauin","zipcodes":[{"area":"Dauin","zipcode":"6217"}]},{"city":"Jimalalud","zipcodes":[{"area":"Jimalalud","zipcode":"6212"}]},{"city":"La Libertad","zipcodes":[{"area":"La Libertad","zipcode":"6213"}]},{"city":"Mabinay","zipcodes":[{"area":"Mabinay","zipcode":"6207"}]},{"city":"Manjuyod","zipcodes":[{"area":"Manjuyod","zipcode":"8208"}]},{"city":"Pamplona","zipcodes":[{"area":"Pamplona","zipcode":"6205"}]},{"city":"San Jose","zipcodes":[{"area":"San Jose","zipcode":"6202"}]},{"city":"Sta. Catalina","zipcodes":[{"area":"Sta. Catalina","zipcode":"6220"}]},{"city":"Siaton","zipcodes":[{"area":"Siaton","zipcode":"6219"}]},{"city":"Sibulan","zipcodes":[{"area":"Sibulan","zipcode":"6201"}]},{"city":"Tayasan","zipcodes":[{"area":"Tayasan","zipcode":"6211"}]},{"city":"Valencia","zipcodes":[{"area":"Valencia","zipcode":"6215"}]},{"city":"Valle Hermoso","zipcodes":[{"area":"Valle Hermoso","zipcode":"6224"}]},{"city":"Zamboanguita","zipcodes":[{"area":"Zamboanguita","zipcode":"6218"}]}]}
