{"province":"Oriental Mindoro","cities":[{"city":"Calapan","zipcodes":[{"area":"Calapan","zipcode":"5200"}]},{"city":"Baco","zipcodes":[{"area":"Baco","zipcode":"5201"}]},{"city":"Bansud","zipcodes":[{"area":"Bansud","zipcode":"5210"}]},{"city":"Bongabong","zipcodes":[{"area":"Bongabong","zipcode":"5211"}]},{"city":"Bulalacao","zipcodes":[{"area":"Bulalacao","zipcode":"5214"}]},{"city":"Gloria","zipcodes":[{"area":"Gloria","zipcode":"5209"}]},{"city":"Mansalay","zipcodes":[{"area":"Mansalay","zipcode":"5213"}]},{"city":"Naujan","zipcodes":[{"area":"Naujan","zipcode":"5204"}]},{"city":"Pinamalayan","zipcodes":[{"area":"Pinamalayan","zipcode":"5208"}]},{"city":"Pola","zipcodes":[{"area":"Pola","zipcode":"5206"}]},{"city":"Puerto Galera","zipcodes":[{"area":"Puerto Galera","zipcode":"5203"}]},{"city":"Roxas","zipcodes":[{"area":"Roxas","zipcode":"5212"}]},{"city":"San Teodoro","zipcodes":[{"area":"San Teodoro","zipcode":"5202"}]},{"city":"Socorro","zipcodes":[{"area":"Socorro","zipcode":"5207"}]},{"city":"Victoria","zipcodes":[{"area":"Victoria","zipcode":"5205"}]}]}
