{"province":"Quezon","cities":[{"city":"Lucena","zipcodes":[{"area":"Lucena","zipcode":"4301"}]},{"city":"Tayabas","zipcodes":[{"area":"Tayabas","zipcode":"4327"}]},{"city":"Agdangan","zipcodes":[{"area":"Agdangan","zipcode":"___"}]},{"city":"Alabat","zipcodes":[{"area":"Alabat","zipcode":"4333"}]},{"city":"Atimonan","zipcodes":[{"area":"Atimonan","zipcode":"4331"}]},{"city":"Buenavista","zipcodes":[{"area":"Buenavista","zipcode":"4320"}]},{"city":"Burdeos","zipcodes":[{"area":"Burdeos","zipcode":"4340"}]},{"city":"Calauag","zipcodes":[{"area":"Calauag","zipcode":"4318"}]},{"city":"Candelaria","zipcodes":[{"area":"Candelaria","zipcode":"4323"}]},{"city":"Catanauan","zipcodes":[{"area":"Catanauan","zipcode":"4311"}]},{"city":"Dolores","zipcodes":[{"area":"Dolores","zipcode":"4326"}]},{"city":"Gen. Luna","zipcodes":[{"area":"Gen. Luna","zipcode":"4310"}]},{"city":"Gen. Nakar","zipcodes":[{"area":"Gen. Nakar","zipcode":"4338"}]},{"city":"Guinayangan","zipcodes":[{"area":"Guinayangan","zipcode":"4319"}]},{"city":"Gumaca","zipcodes":[{"area":"Gumaca","zipcode":"4307"}]},{"city":"Infanta","zipcodes":[{"area":"Infanta","zipcode":"4336"}]},{"city":"Jomalig","zipcodes":[{"area":"Jomalig","zipcode":"4342"}]},{"city":"Lopez","zipcodes":[{"area":"Lopez","zipcode":"4316"}]},{"city":"Lucban","zipcodes":[{"area":"Lucban","zipcode":"4328"}]},{"city":"Macalelon","zipcodes":[{"area":"Macalelon","zipcode":"4309"}]},{"city":"Mauban","zipcodes":[{"area":"Mauban","zipcode":"4330"}]},{"city":"Mulanay","zipcodes":[{"area":"Mulanay","zipcode":"4312"}]},{"city":"Padre Burgos","zipcodes":[{"area":"Padre Burgos","zipcode":"4303"}]},{"city":"Pagbilao","zipcodes":[{"area":"Pagbilao","zipcode":"4302"}]},{"city":"Panukulan","zipcodes":[{"area":"Panukulan","zipcode":"4337"}]},{"city":"Patnanungan","zipcodes":[{"area":"Patnanungan","zipcode":"4341"}]},{"city":"Perez","zipcodes":[{"area":"Perez","zipcode":"4334"}]},{"city":"Pitogo","zipcodes":[{"area":"Pitogo","zipcode":"4308"}]},{"city":"Plaridel","zipcodes":[{"area":"Plaridel","zipcode":"4306"}]},{"city":"Polillo","zipcodes":[{"area":"Polillo","zipcode":"4339"}]},{"city":"Quezon","zipcodes":[{"area":"Quezon","zipcode":"1100"}]},{"city":"Real","zipcodes":[{"area":"Real","zipcode":"4335"}]},{"city":"Sampaloc","zipcodes":[{"area":"Sampaloc","zipcode":"4329"}]},{"city":"San Andres","zipcodes":[{"area":"San Andres","zipcode":"4314"}]},{"city":"San Antonio","zipcodes":[{"area":"San Antonio","zipcode":"1105"}]},{"city":"San Francisco","zipcodes":[{"area":"San Francisco","zipcode":"4315"}]},{"city":"San Narciso","zipcodes":[{"area":"San Narciso","zipcode":"4313"}]},{"city":"Sariaya","zipcodes":[{"area":"Sariaya","zipcode":"4322"}]},{"city":"Tagkawayan","zipcodes":[{"area":"Tagkawayan","zipcode":"4321"}]},{"city":"Tiaong","zipcodes":[{"area":"Tiaong","zipcode":"4325"}]},{"city":"Unisan","zipcodes":[{"area":"Unisan","zipcode":"4305"}]}]}
