{"province":"Zamboanga del Norte","cities":[{"city":"Dapitan","zipcodes":[{"area":"Dapitan","zipcode":"7101"}]},{"city":"Dipolog","zipcodes":[{"area":"Dipolog","zipcode":"7100"}]},{"city":"Bacungan","zipcodes":[{"area":"Bacungan","zipcode":"___"}]},{"city":"Baliguian","zipcodes":[{"area":"Baliguian","zipcode":"7123"}]},{"city":"Godod","zipcodes":[{"area":"Godod","zipcode":"___"}]},{"city":"Gutalac","zipcodes":[{"area":"Gutalac","zipcode":"7118"}]},{"city":"Jose Dalman","zipcodes":[{"area":"Jose Dalman","zipcode":"7111"}]},{"city":"Kalawit","zipcodes":[{"area":"Kalawit","zipcode":"7124"}]},{"city":"Katipunan","zipcodes":[{"area":"Katipunan","zipcode":"7109"}]},{"city":"La Libertad","zipcodes":[{"area":"La Libertad","zipcode":"7119"}]},{"city":"Labason","zipcodes":[{"area":"Labason","zipcode":"7117"}]},{"city":"Liloy","zipcodes":[{"area":"Liloy","zipcode":"7115"}]},{"city":"Manukan","zipcodes":[{"area":"Manukan","zipcode":"7110"}]},{"city":"Mutia","zipcodes":[{"area":"Mutia","zipcode":"7107"}]},{"city":"Pi単an","zipcodes":[{"area":"Pi単an","zipcode":"7105"}]},{"city":"Polanco","zipcodes":[{"area":"Polanco","zipcode":"7106"}]},{"city":"Manuel A. Roxas","zipcodes":[{"area":"Manuel A. Roxas","zipcode":"7102"}]},{"city":"Rizal","zipcodes":[{"area":"Rizal","zipcode":"7104"}]},{"city":"Rizal","zipcodes":[{"area":"Rizal","zipcode":"7104"}]},{"city":"Sergio Osme単a Sr.","zipcodes":[{"area":"Sergio Osme単a Sr.","zipcode":"7108"}]},{"city":"Siayan","zipcodes":[{"area":"Siayan","zipcode":"7113"}]},{"city":"Sibuco","zipcodes":[{"area":"Sibuco","zipcode":"7122"}]},{"city":"Sibutad","zipcodes":[{"area":"Sibutad","zipcode":"7103"}]},{"city":"Sindangan","zipcodes":[{"area":"Sindangan","zipcode":"7112"}]},{"city":"Siocon","zipcodes":[{"area":"Siocon","zipcode":"7120"}]},{"city":"Sirawai","zipcodes":[{"area":"Sirawai","zipcode":"7121"}]},{"city":"Tampilisan","zipcodes":[{"area":"Tampilisan","zipcode":"7116"}]}]}
