{"province":"Metro Manila","cities":[{"city":"Makati","zipcodes":[{"area":"makati","zipcode":"1228"},{"area":"Ayala-Paseo de Roxas","zipcode":"1226"},{"area":"Bangkal","zipcode":"1233"},{"area":"Bel-air","zipcode":"1209"},{"area":"Cembo","zipcode":"1214"},{"area":"Comembo","zipcode":"1217"},{"area":"Dasmarinas Village North","zipcode":"1221"},{"area":"Dasmarinas Village South","zipcode":"1222"},{"area":"Forbes Park North","zipcode":"1219"},{"area":"Forbes Park South","zipcode":"1220"},{"area":"Fort Bonifacio Naval Stn.","zipcode":"1202"},{"area":"Fort Bonifacio (Camp)","zipcode":"1201"},{"area":"Greenbelt","zipcode":"1228"},{"area":"Guadalupe Nuevo","zipcode":"1212"},{"area":"Guadalupe Viejo","zipcode":"1211"},{"area":"Kasilawan","zipcode":"1206"},{"area":"La Paz-Singkamas-Tejeros","zipcode":"1204"},{"area":"Legaspi Village","zipcode":"1229"},{"area":"Magallanes Village","zipcode":"1232"},{"area":"Makati Commercial Ctr.","zipcode":"1224"},{"area":"Makati CPO & Buendia Ave","zipcode":"1200"},{"area":"Olympia & Carmona","zipcode":"1207"},{"area":"Palanan","zipcode":"1235"},{"area":"Pasong Tamo & Ecology Vill","zipcode":"1231"},{"area":"Pembo","zipcode":"1218"},{"area":"Pinagkaisahan-Pitogo","zipcode":"1213"},{"area":"Pio del Pilar","zipcode":"1230"},{"area":"Poblacion","zipcode":"1210"},{"area":"Rembo (East)","zipcode":"1216"},{"area":"Rembo (West)","zipcode":"1215"},{"area":"Salcedo Village","zipcode":"1227"},{"area":"San Antonio Village","zipcode":"1203"},{"area":"San Isidro","zipcode":"1234"},{"area":"San Lorenzo Village","zipcode":"1223"},{"area":"Sta. Cruz","zipcode":"1205"},{"area":"Urdaneta Village","zipcode":"1225"},{"area":"Valenzuela, Santiago, Rizal","zipcode":"1208"}]},{"city":"Manila","zipcodes":[{"area":"manila","zipcode":"1226"},{"area":"Binondo","zipcode":"1006"},{"area":"Intramuros","zipcode":"1002"},{"area":"Malate","zipcode":"1004"},{"area":"Ermita","zipcode":"1000"},{"area":"Paco","zipcode":"1007"},{"area":"Pandacan","zipcode":"1011"},{"area":"aaaa","zipcode":"0000"},{"area":"Port Area (South)","zipcode":"1018"},{"area":"Quiapo","zipcode":"1001"},{"area":"Sampaloc East","zipcode":"1008"},{"area":"Sampaloc West","zipcode":"1015"},{"area":"San Andres Bukid","zipcode":"1017"},{"area":"San Miguel","zipcode":"1005"},{"area":"San Nicolas","zipcode":"1010"},{"area":"Sta. Ana","zipcode":"1009"},{"area":"Sta. Cruz North","zipcode":"1014"},{"area":"Sta. Cruz South","zipcode":"1003"},{"area":"Sta. Mesa","zipcode":"1016"},{"area":"Tondo North","zipcode":"1013"},{"area":"Tondo South","zipcode":"1012"}]},{"city":"Caloocan","zipcodes":[{"area":"Amparo Subdivision","zipcode":"1425"},{"area":"Bagong Silang","zipcode":"1428"},{"area":"Bagumbong/Pag-asa","zipcode":"1421"},{"area":"Bankers Village","zipcode":"1426"},{"area":"Capitol Parkland Subd.","zipcode":"1424"},{"area":"Kaybiga/Deparo","zipcode":"1420"},{"area":"Lilles Ville Subd.","zipcode":"1423"},{"area":"Novaliches North","zipcode":"1422"},{"area":"Tala Leprosarium","zipcode":"1427"},{"area":"Victory Heights","zipcode":"1427"},{"area":"1st to 7th Ave. West","zipcode":"1405"},{"area":"Baesa","zipcode":"1401"},{"area":"Fish Market","zipcode":"1411"},{"area":"Grace Park East","zipcode":"1403"},{"area":"Grace Park West","zipcode":"1406"},{"area":"Isla de Cocomo","zipcode":"1412"},{"area":"Kaloocan City CPO","zipcode":"1400"},{"area":"Kapitbahayan East","zipcode":"1413"},{"area":"Kanluran Village","zipcode":"1409"},{"area":"Maypajo","zipcode":"1410"},{"area":"San Jose","zipcode":"1404"},{"area":"Sangandaan","zipcode":"1408"},{"area":"Sta. Quiteria","zipcode":"1402"},{"area":"University Hills","zipcode":"1407"}]},{"city":"Las Piñas","zipcodes":[{"area":"","zipcode":""}]},{"city":"Mandaluyong","zipcodes":[{"area":"","zipcode":""}]},{"city":"Malabon","zipcodes":[{"area":"","zipcode":""}]},{"city":"Marikina","zipcodes":[{"area":"","zipcode":""}]},{"city":"Muntinlupa","zipcodes":[{"area":"","zipcode":""}]},{"city":"Navotas","zipcodes":[{"area":"","zipcode":""}]},{"city":"Parañaque","zipcodes":[{"area":"","zipcode":""}]},{"city":"Pasay","zipcodes":[{"area":"","zipcode":""}]},{"city":"Pasig","zipcodes":[{"area":"","zipcode":""}]},{"city":"Pateros","zipcodes":[{"area":"","zipcode":""}]},{"city":"Quezon City","zipcodes":[{"area":"","zipcode":""}]},{"city":"San Juan","zipcodes":[{"area":"","zipcode":""}]},{"city":"Taguig","zipcodes":[{"area":"","zipcode":""}]},{"city":"Valenzuela","zipcodes":[{"area":"","zipcode":""}]}]}
{"province":"Abra","cities":[{"city":"Bangued","zipcodes":[{"area":"","zipcode":""}]},{"city":"Boliney","zipcodes":[{"area":"","zipcode":""}]},{"city":"Bucay","zipcodes":[{"area":"","zipcode":""}]},{"city":"Bucloc","zipcodes":[{"area":"","zipcode":""}]},{"city":"Daguioman","zipcodes":[{"area":"","zipcode":""}]},{"city":"Danglas","zipcodes":[{"area":"","zipcode":""}]},{"city":"Dolores","zipcodes":[{"area":"","zipcode":""}]},{"city":"La Paz","zipcodes":[{"area":"","zipcode":""}]},{"city":"Lacub","zipcodes":[{"area":"","zipcode":""}]},{"city":"Lagangilang","zipcodes":[{"area":"","zipcode":""}]},{"city":"Lagayan","zipcodes":[{"area":"","zipcode":""}]},{"city":"Langiden","zipcodes":[{"area":"","zipcode":""}]},{"city":"Licuan-Baay","zipcodes":[{"area":"","zipcode":""}]},{"city":"Luba","zipcodes":[{"area":"","zipcode":""}]},{"city":"Malibcong","zipcodes":[{"area":"","zipcode":""}]},{"city":"Manabo","zipcodes":[{"area":"","zipcode":""}]},{"city":"Peñarrubia","zipcodes":[{"area":"","zipcode":""}]},{"city":"Pidigan","zipcodes":[{"area":"","zipcode":""}]},{"city":"Pilar","zipcodes":[{"area":"","zipcode":""}]},{"city":"Sallapadan","zipcodes":[{"area":"","zipcode":""}]},{"city":"San Isidro","zipcodes":[{"area":"","zipcode":""}]},{"city":"SanJuan","zipcodes":[{"area":"","zipcode":""}]},{"city":"San Quintin","zipcodes":[{"area":"","zipcode":""}]},{"city":"Tayum","zipcodes":[{"area":"","zipcode":""}]},{"city":"Tineg","zipcodes":[{"area":"","zipcode":""}]},{"city":"Tubo","zipcodes":[{"area":"","zipcode":""}]},{"city":"Villaviciosa","zipcodes":[{"area":"","zipcode":""}]}]}
{"province":"Agusan del Norte","cities":[{"city":"Butuan","zipcodes":[{"area":"","zipcode":""}]},{"city":"Cabadbaran","zipcodes":[{"area":"","zipcode":""}]},{"city":"Buenavista","zipcodes":[{"area":"","zipcode":""}]},{"city":"Carmen","zipcodes":[{"area":"","zipcode":""}]},{"city":"Jabonga","zipcodes":[{"area":"","zipcode":""}]},{"city":"Kitcharao","zipcodes":[{"area":"","zipcode":""}]},{"city":"Las Nieves","zipcodes":[{"area":"","zipcode":""}]},{"city":"Magallanes","zipcodes":[{"area":"","zipcode":""}]},{"city":"Nasipit","zipcodes":[{"area":"","zipcode":""}]},{"city":"Remedios T. Romualdez","zipcodes":[{"area":"","zipcode":""}]},{"city":"Santiago","zipcodes":[{"area":"","zipcode":""}]},{"city":"Tubay","zipcodes":[{"area":"","zipcode":""}]}]}
{"province":"Agusan del Sur","cities":[{"city":"Bayugan","zipcodes":[{"area":"","zipcode":""}]},{"city":"Bunawan","zipcodes":[{"area":"","zipcode":""}]},{"city":"Esperanza","zipcodes":[{"area":"","zipcode":""}]},{"city":"LaPaz","zipcodes":[{"area":"","zipcode":""}]},{"city":"Loreto","zipcodes":[{"area":"","zipcode":""}]},{"city":"Prosperidad","zipcodes":[{"area":"","zipcode":""}]},{"city":"Rosario","zipcodes":[{"area":"","zipcode":""}]},{"city":"San Francisco","zipcodes":[{"area":"","zipcode":""}]},{"city":"SanLuis","zipcodes":[{"area":"","zipcode":""}]},{"city":"Santa Josefa","zipcodes":[{"area":"","zipcode":""}]},{"city":"Sibagat","zipcodes":[{"area":"","zipcode":""}]},{"city":"Talacogon","zipcodes":[{"area":"","zipcode":""}]},{"city":"Trento","zipcodes":[{"area":"","zipcode":""}]},{"city":"Veruela","zipcodes":[{"area":"","zipcode":""}]}]}
{"province":"Aklan","cities":[{"city":"Altavas","zipcodes":[{"area":"","zipcode":""}]},{"city":"Balete","zipcodes":[{"area":"","zipcode":""}]},{"city":"Banga","zipcodes":[{"area":"","zipcode":""}]},{"city":"Batan","zipcodes":[{"area":"","zipcode":""}]},{"city":"Buruanga","zipcodes":[{"area":"","zipcode":""}]},{"city":"Ibajay","zipcodes":[{"area":"","zipcode":""}]},{"city":"Kalibo","zipcodes":[{"area":"","zipcode":""}]},{"city":"Lezo","zipcodes":[{"area":"","zipcode":""}]},{"city":"Libacao","zipcodes":[{"area":"","zipcode":""}]},{"city":"Madalag","zipcodes":[{"area":"","zipcode":""}]},{"city":"Makato","zipcodes":[{"area":"","zipcode":""}]},{"city":"Malay","zipcodes":[{"area":"","zipcode":""}]},{"city":"Malinao","zipcodes":[{"area":"","zipcode":""}]},{"city":"Nabas","zipcodes":[{"area":"","zipcode":""}]},{"city":"New Washington","zipcodes":[{"area":"","zipcode":""}]},{"city":"Numancia","zipcodes":[{"area":"","zipcode":""}]},{"city":"Tangalan","zipcodes":[{"area":"","zipcode":""}]}]}
{"province":"Albay","cities":[{"city":"Ligao","zipcodes":[{"area":"","zipcode":""}]},{"city":"Tabaco","zipcodes":[{"area":"","zipcode":""}]},{"city":"Bacacay","zipcodes":[{"area":"","zipcode":""}]},{"city":"Camalig","zipcodes":[{"area":"","zipcode":""}]},{"city":"Daraga","zipcodes":[{"area":"","zipcode":""}]},{"city":"Guinobatan","zipcodes":[{"area":"","zipcode":""}]},{"city":"Jovellar","zipcodes":[{"area":"","zipcode":""}]},{"city":"Libon","zipcodes":[{"area":"","zipcode":""}]},{"city":"Malilipot","zipcodes":[{"area":"","zipcode":""}]},{"city":"Malinao","zipcodes":[{"area":"","zipcode":""}]},{"city":"Manito","zipcodes":[{"area":"","zipcode":""}]},{"city":"Oas","zipcodes":[{"area":"","zipcode":""}]},{"city":"Pio Duran","zipcodes":[{"area":"","zipcode":""}]},{"city":"Polangui","zipcodes":[{"area":"","zipcode":""}]},{"city":"Rapu-Rapu","zipcodes":[{"area":"","zipcode":""}]},{"city":"Santo Domingo","zipcodes":[{"area":"","zipcode":""}]},{"city":"Tiwi","zipcodes":[{"area":"","zipcode":""}]}]}
{"province":"Antique","cities":[{"city":"Anini-y","zipcodes":[{"area":"","zipcode":""}]},{"city":"Barbaza","zipcodes":[{"area":"","zipcode":""}]},{"city":"Belison","zipcodes":[{"area":"","zipcode":""}]},{"city":"Bugasong","zipcodes":[{"area":"","zipcode":""}]},{"city":"Caluya","zipcodes":[{"area":"","zipcode":""}]},{"city":"Culasi","zipcodes":[{"area":"","zipcode":""}]},{"city":"Hamtic","zipcodes":[{"area":"","zipcode":""}]},{"city":"Laua-an","zipcodes":[{"area":"","zipcode":""}]},{"city":"Libertad","zipcodes":[{"area":"","zipcode":""}]},{"city":"Pandan","zipcodes":[{"area":"","zipcode":""}]},{"city":"Patnongon","zipcodes":[{"area":"","zipcode":""}]},{"city":"SanJose","zipcodes":[{"area":"","zipcode":""}]},{"city":"San Remigio","zipcodes":[{"area":"","zipcode":""}]},{"city":"Sebaste","zipcodes":[{"area":"","zipcode":""}]},{"city":"Sibalom","zipcodes":[{"area":"","zipcode":""}]},{"city":"Tibiao","zipcodes":[{"area":"","zipcode":""}]},{"city":"Tobias Fornier","zipcodes":[{"area":"","zipcode":""}]},{"city":"Valderrama","zipcodes":[{"area":"","zipcode":""}]}]}
{"province":"Apayao","cities":[{"city":"Calanasan","zipcodes":[{"area":"","zipcode":""}]},{"city":"Conner","zipcodes":[{"area":"","zipcode":""}]},{"city":"Flora","zipcodes":[{"area":"","zipcode":""}]},{"city":"Kabugao","zipcodes":[{"area":"","zipcode":""}]},{"city":"Luna","zipcodes":[{"area":"","zipcode":""}]},{"city":"Pudtol","zipcodes":[{"area":"","zipcode":""}]},{"city":"Santa Marcela","zipcodes":[{"area":"","zipcode":""}]}]}
{"province":"Aurora","cities":[{"city":"Baler","zipcodes":[{"area":"","zipcode":""}]},{"city":"Casiguran","zipcodes":[{"area":"","zipcode":""}]},{"city":"Dilasag","zipcodes":[{"area":"","zipcode":""}]},{"city":"Dinalungan","zipcodes":[{"area":"","zipcode":""}]},{"city":"Dingalan","zipcodes":[{"area":"","zipcode":""}]},{"city":"Dipaculao","zipcodes":[{"area":"","zipcode":""}]},{"city":"Maria Aurora","zipcodes":[{"area":"","zipcode":""}]},{"city":"San Luis","zipcodes":[{"area":"","zipcode":""}]}]}
{"province":"Basilan","cities":[{"city":"Isabela","zipcodes":[{"area":"","zipcode":""}]},{"city":"Lamitan","zipcodes":[{"area":"","zipcode":""}]},{"city":"Akbar","zipcodes":[{"area":"","zipcode":""}]},{"city":"Al-Barka","zipcodes":[{"area":"","zipcode":""}]},{"city":"Hadji Mohammad Aju","zipcodes":[{"area":"","zipcode":""}]},{"city":"Lantawan","zipcodes":[{"area":"","zipcode":""}]},{"city":"Maluso","zipcodes":[{"area":"","zipcode":""}]},{"city":"Sumisip","zipcodes":[{"area":"","zipcode":""}]},{"city":"Tipo-Tipo","zipcodes":[{"area":"","zipcode":""}]},{"city":"Tuburan","zipcodes":[{"area":"","zipcode":""}]},{"city":"UngkayaPukan","zipcodes":[{"area":"","zipcode":""}]}]}
{"province":"Bataan","cities":[{"city":"Balanga","zipcodes":[{"area":"","zipcode":""}]},{"city":"Abucay","zipcodes":[{"area":"","zipcode":""}]},{"city":"Bagac","zipcodes":[{"area":"","zipcode":""}]},{"city":"Dinalupihan","zipcodes":[{"area":"","zipcode":""}]},{"city":"Hermosa","zipcodes":[{"area":"","zipcode":""}]},{"city":"Limay","zipcodes":[{"area":"","zipcode":""}]},{"city":"Mariveles","zipcodes":[{"area":"","zipcode":""}]},{"city":"Morong","zipcodes":[{"area":"","zipcode":""}]},{"city":"Orani","zipcodes":[{"area":"","zipcode":""}]},{"city":"Orion","zipcodes":[{"area":"","zipcode":""}]},{"city":"Pilar","zipcodes":[{"area":"","zipcode":""}]},{"city":"Samal","zipcodes":[{"area":"","zipcode":""}]}]}
{"province":"Batanes","cities":[{"city":"Basco","zipcodes":[{"area":"","zipcode":""}]},{"city":"Itbayat","zipcodes":[{"area":"","zipcode":""}]},{"city":"Ivana","zipcodes":[{"area":"","zipcode":""}]},{"city":"Mahatao","zipcodes":[{"area":"","zipcode":""}]},{"city":"Sabtang","zipcodes":[{"area":"","zipcode":""}]},{"city":"Uyugan","zipcodes":[{"area":"","zipcode":""}]}]}
{"province":"Batangas","cities":[{"city":"Batangas","zipcodes":[{"area":"","zipcode":""}]},{"city":"Lipa","zipcodes":[{"area":"","zipcode":""}]},{"city":"Tanauan","zipcodes":[{"area":"","zipcode":""}]},{"city":"Agoncillo","zipcodes":[{"area":"","zipcode":""}]},{"city":"Alitagtag","zipcodes":[{"area":"","zipcode":""}]},{"city":"Balayan","zipcodes":[{"area":"","zipcode":""}]},{"city":"Balete","zipcodes":[{"area":"","zipcode":""}]},{"city":"Bauan","zipcodes":[{"area":"","zipcode":""}]},{"city":"Calaca","zipcodes":[{"area":"","zipcode":""}]},{"city":"Calatagan","zipcodes":[{"area":"","zipcode":""}]},{"city":"Cuenca","zipcodes":[{"area":"","zipcode":""}]},{"city":"Ibaan","zipcodes":[{"area":"","zipcode":""}]},{"city":"Laurel","zipcodes":[{"area":"","zipcode":""}]},{"city":"Lemery","zipcodes":[{"area":"","zipcode":""}]},{"city":"Lian","zipcodes":[{"area":"","zipcode":""}]},{"city":"Lobo","zipcodes":[{"area":"","zipcode":""}]},{"city":"Mabini","zipcodes":[{"area":"","zipcode":""}]},{"city":"Malvar","zipcodes":[{"area":"","zipcode":""}]},{"city":"MataasnaKahoy","zipcodes":[{"area":"","zipcode":""}]},{"city":"Nasugbu","zipcodes":[{"area":"","zipcode":""}]},{"city":"PadreGarcia","zipcodes":[{"area":"","zipcode":""}]},{"city":"Rosario","zipcodes":[{"area":"","zipcode":""}]},{"city":"SanJose","zipcodes":[{"area":"","zipcode":""}]},{"city":"SanJuan","zipcodes":[{"area":"","zipcode":""}]},{"city":"San Luis","zipcodes":[{"area":"","zipcode":""}]},{"city":"SanNicolas","zipcodes":[{"area":"","zipcode":""}]},{"city":"San Pascual","zipcodes":[{"area":"","zipcode":""}]},{"city":"Santa Teresita","zipcodes":[{"area":"","zipcode":""}]},{"city":"SantoTomas","zipcodes":[{"area":"","zipcode":""}]},{"city":"Taal","zipcodes":[{"area":"","zipcode":""}]},{"city":"Talisay","zipcodes":[{"area":"","zipcode":""}]},{"city":"Taysan","zipcodes":[{"area":"","zipcode":""}]},{"city":"Tingloy","zipcodes":[{"area":"","zipcode":""}]},{"city":"Tuy","zipcodes":[{"area":"","zipcode":""}]}]}
{"province":"Benguet","cities":[{"city":"Atok","zipcodes":[{"area":"","zipcode":""}]},{"city":"Bakun","zipcodes":[{"area":"","zipcode":""}]},{"city":"Bokod","zipcodes":[{"area":"","zipcode":""}]},{"city":"Buguias","zipcodes":[{"area":"","zipcode":""}]},{"city":"Itogon","zipcodes":[{"area":"","zipcode":""}]},{"city":"Kabayan","zipcodes":[{"area":"","zipcode":""}]},{"city":"Kapangan","zipcodes":[{"area":"","zipcode":""}]},{"city":"Kibungan","zipcodes":[{"area":"","zipcode":""}]},{"city":"LaTrinidad","zipcodes":[{"area":"","zipcode":""}]},{"city":"Mankayan","zipcodes":[{"area":"","zipcode":""}]},{"city":"Sablan","zipcodes":[{"area":"","zipcode":""}]},{"city":"Tuba","zipcodes":[{"area":"","zipcode":""}]},{"city":"Tublay","zipcodes":[{"area":"","zipcode":""}]}]}
{"province":"Biliran","cities":[{"city":"Almeria","zipcodes":[{"area":"","zipcode":""}]},{"city":"Biliran","zipcodes":[{"area":"","zipcode":""}]},{"city":"Cabucgayan","zipcodes":[{"area":"","zipcode":""}]},{"city":"Caibiran","zipcodes":[{"area":"","zipcode":""}]},{"city":"Culaba","zipcodes":[{"area":"","zipcode":""}]},{"city":"Kawayan","zipcodes":[{"area":"","zipcode":""}]},{"city":"Maripipi","zipcodes":[{"area":"","zipcode":""}]},{"city":"Naval","zipcodes":[{"area":"","zipcode":""}]}]}
{"province":"Bohol","cities":[{"city":"Tagbilaran","zipcodes":[{"area":"","zipcode":""}]},{"city":"Alburquerque","zipcodes":[{"area":"","zipcode":""}]},{"city":"Alicia","zipcodes":[{"area":"","zipcode":""}]},{"city":"Anda","zipcodes":[{"area":"","zipcode":""}]},{"city":"Antequera","zipcodes":[{"area":"","zipcode":""}]},{"city":"Baclayon","zipcodes":[{"area":"","zipcode":""}]},{"city":"Balilihan","zipcodes":[{"area":"","zipcode":""}]},{"city":"Batuan","zipcodes":[{"area":"","zipcode":""}]},{"city":"BienUnido","zipcodes":[{"area":"","zipcode":""}]},{"city":"Bilar","zipcodes":[{"area":"","zipcode":""}]},{"city":"Buenavista","zipcodes":[{"area":"","zipcode":""}]},{"city":"Calape","zipcodes":[{"area":"","zipcode":""}]},{"city":"Candijay","zipcodes":[{"area":"","zipcode":""}]},{"city":"Carmen","zipcodes":[{"area":"","zipcode":""}]},{"city":"Catigbian","zipcodes":[{"area":"","zipcode":""}]},{"city":"Clarin","zipcodes":[{"area":"","zipcode":""}]},{"city":"Corella","zipcodes":[{"area":"","zipcode":""}]},{"city":"Cortes","zipcodes":[{"area":"","zipcode":""}]},{"city":"Dagohoy","zipcodes":[{"area":"","zipcode":""}]},{"city":"Danao","zipcodes":[{"area":"","zipcode":""}]},{"city":"Dauis","zipcodes":[{"area":"","zipcode":""}]},{"city":"Dimiao","zipcodes":[{"area":"","zipcode":""}]},{"city":"Duero","zipcodes":[{"area":"","zipcode":""}]},{"city":"Garcia Hernandez","zipcodes":[{"area":"","zipcode":""}]},{"city":"Guindulman","zipcodes":[{"area":"","zipcode":""}]},{"city":"Inabanga","zipcodes":[{"area":"","zipcode":""}]},{"city":"Jagna","zipcodes":[{"area":"","zipcode":""}]},{"city":"Jetafe","zipcodes":[{"area":"","zipcode":""}]},{"city":"Lila","zipcodes":[{"area":"","zipcode":""}]},{"city":"Loay","zipcodes":[{"area":"","zipcode":""}]},{"city":"Loboc","zipcodes":[{"area":"","zipcode":""}]},{"city":"Loon","zipcodes":[{"area":"","zipcode":""}]},{"city":"Mabini","zipcodes":[{"area":"","zipcode":""}]},{"city":"Maribojoc","zipcodes":[{"area":"","zipcode":""}]},{"city":"Panglao","zipcodes":[{"area":"","zipcode":""}]},{"city":"Pilar","zipcodes":[{"area":"","zipcode":""}]},{"city":"Pres.CarlosP.Garcia","zipcodes":[{"area":"","zipcode":""}]},{"city":"Sagbayan","zipcodes":[{"area":"","zipcode":""}]},{"city":"SanIsidro","zipcodes":[{"area":"","zipcode":""}]},{"city":"SanMiguel","zipcodes":[{"area":"","zipcode":""}]},{"city":"Sevilla","zipcodes":[{"area":"","zipcode":""}]},{"city":"SierraBullones","zipcodes":[{"area":"","zipcode":""}]},{"city":"Sikatuna","zipcodes":[{"area":"","zipcode":""}]},{"city":"Talibon","zipcodes":[{"area":"","zipcode":""}]},{"city":"Trinidad","zipcodes":[{"area":"","zipcode":""}]},{"city":"Tubigon","zipcodes":[{"area":"","zipcode":""}]},{"city":"Ubay","zipcodes":[{"area":"","zipcode":""}]},{"city":"Valencia","zipcodes":[{"area":"","zipcode":""}]}]}
{"province":"Bukidnon","cities":[{"city":"Malaybalay","zipcodes":[{"area":"","zipcode":""}]},{"city":"Valencia","zipcodes":[{"area":"","zipcode":""}]},{"city":"Baungon","zipcodes":[{"area":"","zipcode":""}]},{"city":"Cabanglasan","zipcodes":[{"area":"","zipcode":""}]},{"city":"Damulog","zipcodes":[{"area":"","zipcode":""}]},{"city":"Dangcagan","zipcodes":[{"area":"","zipcode":""}]},{"city":"DonCarlos","zipcodes":[{"area":"","zipcode":""}]},{"city":"Impasug-Ong","zipcodes":[{"area":"","zipcode":""}]},{"city":"Kadingilan","zipcodes":[{"area":"","zipcode":""}]},{"city":"Kalilangan","zipcodes":[{"area":"","zipcode":""}]},{"city":"Kibawe","zipcodes":[{"area":"","zipcode":""}]},{"city":"Kitaotao","zipcodes":[{"area":"","zipcode":""}]},{"city":"Lantapan","zipcodes":[{"area":"","zipcode":""}]},{"city":"Libona","zipcodes":[{"area":"","zipcode":""}]},{"city":"Malitbog","zipcodes":[{"area":"","zipcode":""}]},{"city":"Manolo Fortich","zipcodes":[{"area":"","zipcode":""}]},{"city":"Maramag","zipcodes":[{"area":"","zipcode":""}]},{"city":"Pangantucan","zipcodes":[{"area":"","zipcode":""}]},{"city":"Quezon","zipcodes":[{"area":"","zipcode":""}]},{"city":"SanFernando","zipcodes":[{"area":"","zipcode":""}]},{"city":"Sumilao","zipcodes":[{"area":"","zipcode":""}]},{"city":"Talakag","zipcodes":[{"area":"","zipcode":""}]}]}
{"province":"Bulacan","cities":[{"city":"Malolos","zipcodes":[{"area":"","zipcode":""}]},{"city":"Meycauayan","zipcodes":[{"area":"","zipcode":""}]},{"city":"SanJosedelMonte","zipcodes":[{"area":"","zipcode":""}]},{"city":"Angat","zipcodes":[{"area":"","zipcode":""}]},{"city":"Balagtas","zipcodes":[{"area":"","zipcode":""}]},{"city":"Baliuag","zipcodes":[{"area":"","zipcode":""}]},{"city":"Bocaue","zipcodes":[{"area":"","zipcode":""}]},{"city":"Bulacan","zipcodes":[{"area":"","zipcode":""}]},{"city":"Bustos","zipcodes":[{"area":"","zipcode":""}]},{"city":"Calumpit","zipcodes":[{"area":"","zipcode":""}]},{"city":"Doña Remedios Trinidad","zipcodes":[{"area":"","zipcode":""}]},{"city":"Guiguinto","zipcodes":[{"area":"","zipcode":""}]},{"city":"Hagonoy","zipcodes":[{"area":"","zipcode":""}]},{"city":"Marilao","zipcodes":[{"area":"","zipcode":""}]},{"city":"Norzagaray","zipcodes":[{"area":"","zipcode":""}]},{"city":"Obando","zipcodes":[{"area":"","zipcode":""}]},{"city":"Pandi","zipcodes":[{"area":"","zipcode":""}]},{"city":"Paombong","zipcodes":[{"area":"","zipcode":""}]},{"city":"Plaridel","zipcodes":[{"area":"","zipcode":""}]},{"city":"Pulilan","zipcodes":[{"area":"","zipcode":""}]},{"city":"San Ildefonso","zipcodes":[{"area":"","zipcode":""}]},{"city":"SanMiguel","zipcodes":[{"area":"","zipcode":""}]},{"city":"San Rafael","zipcodes":[{"area":"","zipcode":""}]},{"city":"Santa Maria","zipcodes":[{"area":"","zipcode":""}]}]}
{"province":"Cagayan","cities":[{"city":"Tuguegarao","zipcodes":[{"area":"","zipcode":""}]},{"city":"Abulug","zipcodes":[{"area":"","zipcode":""}]},{"city":"Alcala","zipcodes":[{"area":"","zipcode":""}]},{"city":"Allacapan","zipcodes":[{"area":"","zipcode":""}]},{"city":"Amulung","zipcodes":[{"area":"","zipcode":""}]},{"city":"Aparri","zipcodes":[{"area":"","zipcode":""}]},{"city":"Baggao","zipcodes":[{"area":"","zipcode":""}]},{"city":"Ballesteros","zipcodes":[{"area":"","zipcode":""}]},{"city":"Buguey","zipcodes":[{"area":"","zipcode":""}]},{"city":"Calayan","zipcodes":[{"area":"","zipcode":""}]},{"city":"Camalaniugan","zipcodes":[{"area":"","zipcode":""}]},{"city":"Claveria","zipcodes":[{"area":"","zipcode":""}]},{"city":"Enrile","zipcodes":[{"area":"","zipcode":""}]},{"city":"Gattaran","zipcodes":[{"area":"","zipcode":""}]},{"city":"Gonzaga","zipcodes":[{"area":"","zipcode":""}]},{"city":"Iguig","zipcodes":[{"area":"","zipcode":""}]},{"city":"Lal-Lo","zipcodes":[{"area":"","zipcode":""}]},{"city":"Lasam","zipcodes":[{"area":"","zipcode":""}]},{"city":"Pamplona","zipcodes":[{"area":"","zipcode":""}]},{"city":"Peñablanca","zipcodes":[{"area":"","zipcode":""}]},{"city":"Piat","zipcodes":[{"area":"","zipcode":""}]},{"city":"Rizal","zipcodes":[{"area":"","zipcode":""}]},{"city":"Sanchez-Mira","zipcodes":[{"area":"","zipcode":""}]},{"city":"Santa Ana","zipcodes":[{"area":"","zipcode":""}]},{"city":"Santa Praxedes","zipcodes":[{"area":"","zipcode":""}]},{"city":"SantaTeresita","zipcodes":[{"area":"","zipcode":""}]},{"city":"Santo Niño","zipcodes":[{"area":"","zipcode":""}]},{"city":"Solana","zipcodes":[{"area":"","zipcode":""}]},{"city":"Tuao","zipcodes":[{"area":"","zipcode":""}]}]}
{"province":"Camarines Norte","cities":[{"city":"Basud","zipcodes":[{"area":"","zipcode":""}]},{"city":"Capalonga","zipcodes":[{"area":"","zipcode":""}]},{"city":"Daet","zipcodes":[{"area":"","zipcode":""}]},{"city":"JosePanganiban","zipcodes":[{"area":"","zipcode":""}]},{"city":"Labo","zipcodes":[{"area":"","zipcode":""}]},{"city":"Mercedes","zipcodes":[{"area":"","zipcode":""}]},{"city":"Paracale","zipcodes":[{"area":"","zipcode":""}]},{"city":"SanLorenzoRuiz","zipcodes":[{"area":"","zipcode":""}]},{"city":"SanVicente","zipcodes":[{"area":"","zipcode":""}]},{"city":"Santa Elena","zipcodes":[{"area":"","zipcode":""}]},{"city":"Talisay","zipcodes":[{"area":"","zipcode":""}]},{"city":"Vinzons","zipcodes":[{"area":"","zipcode":""}]}]}
{"province":"Camarines Sur","cities":[{"city":"Iriga","zipcodes":[{"area":"","zipcode":""}]},{"city":"Naga","zipcodes":[{"area":"","zipcode":""}]},{"city":"Baao","zipcodes":[{"area":"","zipcode":""}]},{"city":"Balatan","zipcodes":[{"area":"","zipcode":""}]},{"city":"Bato","zipcodes":[{"area":"","zipcode":""}]},{"city":"Bombon","zipcodes":[{"area":"","zipcode":""}]},{"city":"Buhi","zipcodes":[{"area":"","zipcode":""}]},{"city":"Bula","zipcodes":[{"area":"","zipcode":""}]},{"city":"Cabusao","zipcodes":[{"area":"","zipcode":""}]},{"city":"Calabanga","zipcodes":[{"area":"","zipcode":""}]},{"city":"Camaligan","zipcodes":[{"area":"","zipcode":""}]},{"city":"Canaman","zipcodes":[{"area":"","zipcode":""}]},{"city":"Caramoan","zipcodes":[{"area":"","zipcode":""}]},{"city":"Del Gallego","zipcodes":[{"area":"","zipcode":""}]},{"city":"Gainza","zipcodes":[{"area":"","zipcode":""}]},{"city":"Garchitorena","zipcodes":[{"area":"","zipcode":""}]},{"city":"Goa","zipcodes":[{"area":"","zipcode":""}]},{"city":"Lagonoy","zipcodes":[{"area":"","zipcode":""}]},{"city":"Libmanan","zipcodes":[{"area":"","zipcode":""}]},{"city":"Lupi","zipcodes":[{"area":"","zipcode":""}]},{"city":"Magarao","zipcodes":[{"area":"","zipcode":""}]},{"city":"Milaor","zipcodes":[{"area":"","zipcode":""}]},{"city":"Minalabac","zipcodes":[{"area":"","zipcode":""}]},{"city":"Nabua","zipcodes":[{"area":"","zipcode":""}]},{"city":"Ocampo","zipcodes":[{"area":"","zipcode":""}]},{"city":"Pamplona","zipcodes":[{"area":"","zipcode":""}]},{"city":"Pasacao","zipcodes":[{"area":"","zipcode":""}]},{"city":"Pili","zipcodes":[{"area":"","zipcode":""}]},{"city":"Presentacion","zipcodes":[{"area":"","zipcode":""}]},{"city":"Ragay","zipcodes":[{"area":"","zipcode":""}]},{"city":"Sagñay","zipcodes":[{"area":"","zipcode":""}]},{"city":"San Fernando","zipcodes":[{"area":"","zipcode":""}]},{"city":"San Jose","zipcodes":[{"area":"","zipcode":""}]},{"city":"Sipocot","zipcodes":[{"area":"","zipcode":""}]},{"city":"Siruma","zipcodes":[{"area":"","zipcode":""}]},{"city":"Tigaon","zipcodes":[{"area":"","zipcode":""}]},{"city":"Tinambac","zipcodes":[{"area":"","zipcode":""}]}]}
{"province":"Camiguin","cities":[{"city":"Catarman","zipcodes":[{"area":"","zipcode":""}]},{"city":"Guinsiliban","zipcodes":[{"area":"","zipcode":""}]},{"city":"Mahinog","zipcodes":[{"area":"","zipcode":""}]},{"city":"Mambajao","zipcodes":[{"area":"","zipcode":""}]},{"city":"Sagay","zipcodes":[{"area":"","zipcode":""}]}]}
{"province":"Capiz","cities":[{"city":"Roxas","zipcodes":[{"area":"","zipcode":""}]},{"city":"Cuartero","zipcodes":[{"area":"","zipcode":""}]},{"city":"Dao","zipcodes":[{"area":"","zipcode":""}]},{"city":"Dumalag","zipcodes":[{"area":"","zipcode":""}]},{"city":"Dumarao","zipcodes":[{"area":"","zipcode":""}]},{"city":"Ivisan","zipcodes":[{"area":"","zipcode":""}]},{"city":"Jamindan","zipcodes":[{"area":"","zipcode":""}]},{"city":"Ma-ayon","zipcodes":[{"area":"","zipcode":""}]},{"city":"Mambusao","zipcodes":[{"area":"","zipcode":""}]},{"city":"Panay","zipcodes":[{"area":"","zipcode":""}]},{"city":"Panitan","zipcodes":[{"area":"","zipcode":""}]},{"city":"Pilar","zipcodes":[{"area":"","zipcode":""}]},{"city":"Pontevedra","zipcodes":[{"area":"","zipcode":""}]},{"city":"President Roxas","zipcodes":[{"area":"","zipcode":""}]},{"city":"Sapi-an","zipcodes":[{"area":"","zipcode":""}]},{"city":"Sigma","zipcodes":[{"area":"","zipcode":""}]},{"city":"Tapaz","zipcodes":[{"area":"","zipcode":""}]}]}
{"province":"Catanduanes","cities":[{"city":"Bagamanoc","zipcodes":[{"area":"","zipcode":""}]},{"city":"Baras","zipcodes":[{"area":"","zipcode":""}]},{"city":"Bato","zipcodes":[{"area":"","zipcode":""}]},{"city":"Caramoran","zipcodes":[{"area":"","zipcode":""}]},{"city":"Gigmoto","zipcodes":[{"area":"","zipcode":""}]},{"city":"Pandan","zipcodes":[{"area":"","zipcode":""}]},{"city":"Panganiban","zipcodes":[{"area":"","zipcode":""}]},{"city":"SanAndres","zipcodes":[{"area":"","zipcode":""}]},{"city":"SanMiguel","zipcodes":[{"area":"","zipcode":""}]},{"city":"Viga","zipcodes":[{"area":"","zipcode":""}]},{"city":"Virac","zipcodes":[{"area":"","zipcode":""}]}]}
{"province":"Cavite","cities":[{"city":"Cavite","zipcodes":[{"area":"","zipcode":""}]},{"city":"Tagaytay","zipcodes":[{"area":"","zipcode":""}]},{"city":"TreceMartires","zipcodes":[{"area":"","zipcode":""}]},{"city":"Alfonso","zipcodes":[{"area":"","zipcode":""}]},{"city":"Amadeo","zipcodes":[{"area":"","zipcode":""}]},{"city":"Bacoor","zipcodes":[{"area":"","zipcode":""}]},{"city":"Carmona","zipcodes":[{"area":"","zipcode":""}]},{"city":"Dasmariñas","zipcodes":[{"area":"","zipcode":""}]},{"city":"Gen.MarianoAlvarez","zipcodes":[{"area":"","zipcode":""}]},{"city":"Gen.EmilioAguinaldo","zipcodes":[{"area":"","zipcode":""}]},{"city":"Gen.Trias","zipcodes":[{"area":"","zipcode":""}]},{"city":"Imus","zipcodes":[{"area":"","zipcode":""}]},{"city":"Indang","zipcodes":[{"area":"","zipcode":""}]},{"city":"Kawit","zipcodes":[{"area":"","zipcode":""}]},{"city":"Magallanes","zipcodes":[{"area":"","zipcode":""}]},{"city":"Maragondon","zipcodes":[{"area":"","zipcode":""}]},{"city":"Mendez","zipcodes":[{"area":"","zipcode":""}]},{"city":"Naic","zipcodes":[{"area":"","zipcode":""}]},{"city":"Noveleta","zipcodes":[{"area":"","zipcode":""}]},{"city":"Rosario","zipcodes":[{"area":"","zipcode":""}]},{"city":"Silang","zipcodes":[{"area":"","zipcode":""}]},{"city":"Tanza","zipcodes":[{"area":"","zipcode":""}]},{"city":"Ternate","zipcodes":[{"area":"","zipcode":""}]}]}
{"province":"Cebu","cities":[{"city":"Argao","zipcodes":[{"area":"","zipcode":""}]},{"city":"Bogo","zipcodes":[{"area":"","zipcode":""}]},{"city":"Carcar","zipcodes":[{"area":"","zipcode":""}]},{"city":"Cebu","zipcodes":[{"area":"","zipcode":""}]},{"city":"Danao","zipcodes":[{"area":"","zipcode":""}]},{"city":"Lapu-Lapu","zipcodes":[{"area":"","zipcode":""}]},{"city":"Mandaue","zipcodes":[{"area":"","zipcode":""}]},{"city":"Talisay","zipcodes":[{"area":"","zipcode":""}]},{"city":"Toledo","zipcodes":[{"area":"","zipcode":""}]},{"city":"Naga","zipcodes":[{"area":"","zipcode":""}]},{"city":"Alcantara","zipcodes":[{"area":"","zipcode":""}]},{"city":"Alcoy","zipcodes":[{"area":"","zipcode":""}]},{"city":"Alegria","zipcodes":[{"area":"","zipcode":""}]},{"city":"Aloguinsan","zipcodes":[{"area":"","zipcode":""}]},{"city":"Argao","zipcodes":[{"area":"","zipcode":""}]},{"city":"Asturias","zipcodes":[{"area":"","zipcode":""}]},{"city":"Badian","zipcodes":[{"area":"","zipcode":""}]},{"city":"Balamban","zipcodes":[{"area":"","zipcode":""}]},{"city":"Bantayan","zipcodes":[{"area":"","zipcode":""}]},{"city":"Barili","zipcodes":[{"area":"","zipcode":""}]},{"city":"Boljoon","zipcodes":[{"area":"","zipcode":""}]},{"city":"Borbon","zipcodes":[{"area":"","zipcode":""}]},{"city":"Carmen","zipcodes":[{"area":"","zipcode":""}]},{"city":"Catmon","zipcodes":[{"area":"","zipcode":""}]},{"city":"Compostela","zipcodes":[{"area":"","zipcode":""}]},{"city":"Consolacion","zipcodes":[{"area":"","zipcode":""}]},{"city":"Cordoba","zipcodes":[{"area":"","zipcode":""}]},{"city":"Daanbantayan","zipcodes":[{"area":"","zipcode":""}]},{"city":"Dalaguete","zipcodes":[{"area":"","zipcode":""}]},{"city":"Dumanjug","zipcodes":[{"area":"","zipcode":""}]},{"city":"Ginatilan","zipcodes":[{"area":"","zipcode":""}]},{"city":"Liloan","zipcodes":[{"area":"","zipcode":""}]},{"city":"Madridejos","zipcodes":[{"area":"","zipcode":""}]},{"city":"Malabuyoc","zipcodes":[{"area":"","zipcode":""}]},{"city":"Medellin","zipcodes":[{"area":"","zipcode":""}]},{"city":"Minglanilla","zipcodes":[{"area":"","zipcode":""}]},{"city":"Moalboal","zipcodes":[{"area":"","zipcode":""}]},{"city":"Oslob","zipcodes":[{"area":"","zipcode":""}]},{"city":"Pilar","zipcodes":[{"area":"","zipcode":""}]},{"city":"Pinamungahan","zipcodes":[{"area":"","zipcode":""}]},{"city":"Poro","zipcodes":[{"area":"","zipcode":""}]},{"city":"Ronda","zipcodes":[{"area":"","zipcode":""}]},{"city":"Samboan","zipcodes":[{"area":"","zipcode":""}]},{"city":"SanFernando","zipcodes":[{"area":"","zipcode":""}]},{"city":"SanFrancisco","zipcodes":[{"area":"","zipcode":""}]},{"city":"SanRemigio","zipcodes":[{"area":"","zipcode":""}]},{"city":"SantaFe","zipcodes":[{"area":"","zipcode":""}]},{"city":"Santander","zipcodes":[{"area":"","zipcode":""}]},{"city":"Sibonga","zipcodes":[{"area":"","zipcode":""}]},{"city":"Sogod","zipcodes":[{"area":"","zipcode":""}]},{"city":"Tabogon","zipcodes":[{"area":"","zipcode":""}]},{"city":"Tabuelan","zipcodes":[{"area":"","zipcode":""}]},{"city":"Tuburan","zipcodes":[{"area":"","zipcode":""}]},{"city":"Tudela","zipcodes":[{"area":"","zipcode":""}]}]}
{"province":"Compostella Valley","cities":[{"city":"Compostela","zipcodes":[{"area":"","zipcode":""}]},{"city":"Laak","zipcodes":[{"area":"","zipcode":""}]},{"city":"Mabini","zipcodes":[{"area":"","zipcode":""}]},{"city":"Maco","zipcodes":[{"area":"","zipcode":""}]},{"city":"Maragusan","zipcodes":[{"area":"","zipcode":""}]},{"city":"Mawab","zipcodes":[{"area":"","zipcode":""}]},{"city":"Monkayo","zipcodes":[{"area":"","zipcode":""}]},{"city":"Montevista","zipcodes":[{"area":"","zipcode":""}]},{"city":"Nabunturan","zipcodes":[{"area":"","zipcode":""}]},{"city":"NewBataan","zipcodes":[{"area":"","zipcode":""}]},{"city":"Pantukan","zipcodes":[{"area":"","zipcode":""}]}]}
{"province":"Cotabato","cities":[{"city":"Kidapawan","zipcodes":[{"area":"","zipcode":""}]},{"city":"Alamada","zipcodes":[{"area":"","zipcode":""}]},{"city":"Aleosan","zipcodes":[{"area":"","zipcode":""}]},{"city":"Antipas","zipcodes":[{"area":"","zipcode":""}]},{"city":"Arakan","zipcodes":[{"area":"","zipcode":""}]},{"city":"Banisilan","zipcodes":[{"area":"","zipcode":""}]},{"city":"Carmen","zipcodes":[{"area":"","zipcode":""}]},{"city":"Kabacan","zipcodes":[{"area":"","zipcode":""}]},{"city":"Libungan","zipcodes":[{"area":"","zipcode":""}]},{"city":"M'Lang","zipcodes":[{"area":"","zipcode":""}]},{"city":"Magpet","zipcodes":[{"area":"","zipcode":""}]},{"city":"Makilala","zipcodes":[{"area":"","zipcode":""}]},{"city":"Matalam","zipcodes":[{"area":"","zipcode":""}]},{"city":"Midsayap","zipcodes":[{"area":"","zipcode":""}]},{"city":"Pigkawayan","zipcodes":[{"area":"","zipcode":""}]},{"city":"Pikit","zipcodes":[{"area":"","zipcode":""}]},{"city":"PresidentRoxas","zipcodes":[{"area":"","zipcode":""}]},{"city":"Tulunan","zipcodes":[{"area":"","zipcode":""}]}]}
{"province":"Davao del Norte","cities":[{"city":"IslandGardenCityofSamal","zipcodes":[{"area":"","zipcode":""}]},{"city":"Panabo","zipcodes":[{"area":"","zipcode":""}]},{"city":"Tagum","zipcodes":[{"area":"","zipcode":""}]},{"city":"Asuncion","zipcodes":[{"area":"","zipcode":""}]},{"city":"BraulioE.Dujali","zipcodes":[{"area":"","zipcode":""}]},{"city":"Carmen","zipcodes":[{"area":"","zipcode":""}]},{"city":"Kapalong","zipcodes":[{"area":"","zipcode":""}]},{"city":"NewCorella","zipcodes":[{"area":"","zipcode":""}]},{"city":"SanIsidro","zipcodes":[{"area":"","zipcode":""}]},{"city":"SantoTomas","zipcodes":[{"area":"","zipcode":""}]},{"city":"Talaingod","zipcodes":[{"area":"","zipcode":""}]}]}
{"province":"Davao del Sur","cities":[{"city":"Davao","zipcodes":[{"area":"","zipcode":""}]},{"city":"Digos","zipcodes":[{"area":"","zipcode":""}]},{"city":"Bansalan","zipcodes":[{"area":"","zipcode":""}]},{"city":"DonMarcelino","zipcodes":[{"area":"","zipcode":""}]},{"city":"Hagonoy","zipcodes":[{"area":"","zipcode":""}]},{"city":"JoseAbadSantos","zipcodes":[{"area":"","zipcode":""}]},{"city":"Kiblawan","zipcodes":[{"area":"","zipcode":""}]},{"city":"Magsaysay","zipcodes":[{"area":"","zipcode":""}]},{"city":"Malalag","zipcodes":[{"area":"","zipcode":""}]},{"city":"Malita","zipcodes":[{"area":"","zipcode":""}]},{"city":"Matanao","zipcodes":[{"area":"","zipcode":""}]},{"city":"Padada","zipcodes":[{"area":"","zipcode":""}]},{"city":"SantaCruz","zipcodes":[{"area":"","zipcode":""}]},{"city":"SantaMaria","zipcodes":[{"area":"","zipcode":""}]},{"city":"Sarangani","zipcodes":[{"area":"","zipcode":""}]},{"city":"Sulop","zipcodes":[{"area":"","zipcode":""}]}]}
{"province":"Davao Oriental","cities":[{"city":"Mati","zipcodes":[{"area":"","zipcode":""}]},{"city":"Baganga","zipcodes":[{"area":"","zipcode":""}]},{"city":"Banaybanay","zipcodes":[{"area":"","zipcode":""}]},{"city":"Boston","zipcodes":[{"area":"","zipcode":""}]},{"city":"Caraga","zipcodes":[{"area":"","zipcode":""}]},{"city":"Cateel","zipcodes":[{"area":"","zipcode":""}]},{"city":"GovernorGeneroso","zipcodes":[{"area":"","zipcode":""}]},{"city":"Lupon","zipcodes":[{"area":"","zipcode":""}]},{"city":"Manay","zipcodes":[{"area":"","zipcode":""}]},{"city":"SanIsidro","zipcodes":[{"area":"","zipcode":""}]},{"city":"Tarragona","zipcodes":[{"area":"","zipcode":""}]}]}
{"province":"Dinagat Islands","cities":[{"city":"Basilisia (Rizal)","zipcodes":[{"area":"","zipcode":""}]},{"city":"Cagdianao","zipcodes":[{"area":"","zipcode":""}]},{"city":"Dinagat","zipcodes":[{"area":"","zipcode":""}]},{"city":"Libjo(Albor)","zipcodes":[{"area":"","zipcode":""}]},{"city":"Loreto","zipcodes":[{"area":"","zipcode":""}]},{"city":"SanJose","zipcodes":[{"area":"","zipcode":""}]},{"city":"Tubajon","zipcodes":[{"area":"","zipcode":""}]}]}
{"province":"Eastern Samar","cities":[{"city":"Borongan","zipcodes":[{"area":"","zipcode":""}]},{"city":"Arteche","zipcodes":[{"area":"","zipcode":""}]},{"city":"Balangiga","zipcodes":[{"area":"","zipcode":""}]},{"city":"Balangkayan","zipcodes":[{"area":"","zipcode":""}]},{"city":"Can-avid","zipcodes":[{"area":"","zipcode":""}]},{"city":"Dolores","zipcodes":[{"area":"","zipcode":""}]},{"city":"GeneralMacArthur","zipcodes":[{"area":"","zipcode":""}]},{"city":"Giporlos","zipcodes":[{"area":"","zipcode":""}]},{"city":"Guiuan","zipcodes":[{"area":"","zipcode":""}]},{"city":"Hernani","zipcodes":[{"area":"","zipcode":""}]},{"city":"Jipapad","zipcodes":[{"area":"","zipcode":""}]},{"city":"Lawaan","zipcodes":[{"area":"","zipcode":""}]},{"city":"Llorente","zipcodes":[{"area":"","zipcode":""}]},{"city":"Maslog","zipcodes":[{"area":"","zipcode":""}]},{"city":"Maydolong","zipcodes":[{"area":"","zipcode":""}]},{"city":"Mercedes","zipcodes":[{"area":"","zipcode":""}]},{"city":"Oras","zipcodes":[{"area":"","zipcode":""}]},{"city":"Quinapondan","zipcodes":[{"area":"","zipcode":""}]},{"city":"Salcedo","zipcodes":[{"area":"","zipcode":""}]},{"city":"SanJulian","zipcodes":[{"area":"","zipcode":""}]},{"city":"SanPolicarpo","zipcodes":[{"area":"","zipcode":""}]},{"city":"Sulat","zipcodes":[{"area":"","zipcode":""}]},{"city":"Taft","zipcodes":[{"area":"","zipcode":""}]}]}
{"province":"Guimaras","cities":[{"city":"Buenavista","zipcodes":[{"area":"","zipcode":""}]},{"city":"Jordan","zipcodes":[{"area":"","zipcode":""}]},{"city":"NuevaValencia","zipcodes":[{"area":"","zipcode":""}]},{"city":"SanLorenzo","zipcodes":[{"area":"","zipcode":""}]},{"city":"Sibunag","zipcodes":[{"area":"","zipcode":""}]}]}
{"province":"Ifugao","cities":[{"city":"Aguinaldo","zipcodes":[{"area":"","zipcode":""}]},{"city":"AlfonsoLista","zipcodes":[{"area":"","zipcode":""}]},{"city":"Asipulo","zipcodes":[{"area":"","zipcode":""}]},{"city":"Banaue","zipcodes":[{"area":"","zipcode":""}]},{"city":"Hingyon","zipcodes":[{"area":"","zipcode":""}]},{"city":"Hungduan","zipcodes":[{"area":"","zipcode":""}]},{"city":"Kiangan","zipcodes":[{"area":"","zipcode":""}]},{"city":"Lagawe","zipcodes":[{"area":"","zipcode":""}]},{"city":"Lamut","zipcodes":[{"area":"","zipcode":""}]},{"city":"Mayoyao","zipcodes":[{"area":"","zipcode":""}]},{"city":"Tinoc","zipcodes":[{"area":"","zipcode":""}]}]}
{"province":"Ilocos Norte","cities":[{"city":"Laoag","zipcodes":[{"area":"","zipcode":""}]},{"city":"Batac","zipcodes":[{"area":"","zipcode":""}]},{"city":"Adams","zipcodes":[{"area":"","zipcode":""}]},{"city":"Bacarra","zipcodes":[{"area":"","zipcode":""}]},{"city":"Badoc","zipcodes":[{"area":"","zipcode":""}]},{"city":"Bangui","zipcodes":[{"area":"","zipcode":""}]},{"city":"Banna","zipcodes":[{"area":"","zipcode":""}]},{"city":"Burgos","zipcodes":[{"area":"","zipcode":""}]},{"city":"Carasi","zipcodes":[{"area":"","zipcode":""}]},{"city":"Currimao","zipcodes":[{"area":"","zipcode":""}]},{"city":"Dingras","zipcodes":[{"area":"","zipcode":""}]},{"city":"Dumalneg","zipcodes":[{"area":"","zipcode":""}]},{"city":"Marcos","zipcodes":[{"area":"","zipcode":""}]},{"city":"NuevaEra","zipcodes":[{"area":"","zipcode":""}]},{"city":"Pagudpud","zipcodes":[{"area":"","zipcode":""}]},{"city":"Paoay","zipcodes":[{"area":"","zipcode":""}]},{"city":"Pasuquin","zipcodes":[{"area":"","zipcode":""}]},{"city":"Piddig","zipcodes":[{"area":"","zipcode":""}]},{"city":"Pinili","zipcodes":[{"area":"","zipcode":""}]},{"city":"SanNicolas","zipcodes":[{"area":"","zipcode":""}]},{"city":"Sarrat","zipcodes":[{"area":"","zipcode":""}]},{"city":"Solsona","zipcodes":[{"area":"","zipcode":""}]},{"city":"Vintar","zipcodes":[{"area":"","zipcode":""}]}]}
{"province":"Ilocos Sur","cities":[{"city":"Candon","zipcodes":[{"area":"","zipcode":""}]},{"city":"Vigan","zipcodes":[{"area":"","zipcode":""}]},{"city":"Alilem","zipcodes":[{"area":"","zipcode":""}]},{"city":"Banayoyo","zipcodes":[{"area":"","zipcode":""}]},{"city":"Bantay","zipcodes":[{"area":"","zipcode":""}]},{"city":"Burgos","zipcodes":[{"area":"","zipcode":""}]},{"city":"Cabugao","zipcodes":[{"area":"","zipcode":""}]},{"city":"Caoayan","zipcodes":[{"area":"","zipcode":""}]},{"city":"Cervantes","zipcodes":[{"area":"","zipcode":""}]},{"city":"Galimuyod","zipcodes":[{"area":"","zipcode":""}]},{"city":"Gregorio Del Pilar","zipcodes":[{"area":"","zipcode":""}]},{"city":"Lidlidda","zipcodes":[{"area":"","zipcode":""}]},{"city":"Magsingal","zipcodes":[{"area":"","zipcode":""}]},{"city":"Nagbukel","zipcodes":[{"area":"","zipcode":""}]},{"city":"Narvacan","zipcodes":[{"area":"","zipcode":""}]},{"city":"Quirino","zipcodes":[{"area":"","zipcode":""}]},{"city":"Salcedo","zipcodes":[{"area":"","zipcode":""}]},{"city":"SanEmilio","zipcodes":[{"area":"","zipcode":""}]},{"city":"SanEsteban","zipcodes":[{"area":"","zipcode":""}]},{"city":"SanIldefonso","zipcodes":[{"area":"","zipcode":""}]},{"city":"SanJuan","zipcodes":[{"area":"","zipcode":""}]},{"city":"SanVicente","zipcodes":[{"area":"","zipcode":""}]},{"city":"Santa","zipcodes":[{"area":"","zipcode":""}]},{"city":"SantaCatalina","zipcodes":[{"area":"","zipcode":""}]},{"city":"SantaCruz","zipcodes":[{"area":"","zipcode":""}]},{"city":"SantaLucia","zipcodes":[{"area":"","zipcode":""}]},{"city":"SantaMaria","zipcodes":[{"area":"","zipcode":""}]},{"city":"Santiago","zipcodes":[{"area":"","zipcode":""}]},{"city":"SantoDomingo","zipcodes":[{"area":"","zipcode":""}]},{"city":"Sigay","zipcodes":[{"area":"","zipcode":""}]},{"city":"Sinait","zipcodes":[{"area":"","zipcode":""}]},{"city":"Sugpon","zipcodes":[{"area":"","zipcode":""}]},{"city":"Suyo","zipcodes":[{"area":"","zipcode":""}]},{"city":"Tagudin","zipcodes":[{"area":"","zipcode":""}]}]}
{"province":"Ilo-Ilo","cities":[{"city":"Passi","zipcodes":[{"area":"","zipcode":""}]},{"city":"Iloilo","zipcodes":[{"area":"","zipcode":""}]},{"city":"Ajuy","zipcodes":[{"area":"","zipcode":""}]},{"city":"Alimodian","zipcodes":[{"area":"","zipcode":""}]},{"city":"Anilao","zipcodes":[{"area":"","zipcode":""}]},{"city":"Badiangan","zipcodes":[{"area":"","zipcode":""}]},{"city":"Balasan","zipcodes":[{"area":"","zipcode":""}]},{"city":"Banate","zipcodes":[{"area":"","zipcode":""}]},{"city":"BarotacNuevo","zipcodes":[{"area":"","zipcode":""}]},{"city":"BarotacViejo","zipcodes":[{"area":"","zipcode":""}]},{"city":"Batad","zipcodes":[{"area":"","zipcode":""}]},{"city":"Bingawan","zipcodes":[{"area":"","zipcode":""}]},{"city":"Cabatuan","zipcodes":[{"area":"","zipcode":""}]},{"city":"Calinog","zipcodes":[{"area":"","zipcode":""}]},{"city":"Carles","zipcodes":[{"area":"","zipcode":""}]},{"city":"Concepcion","zipcodes":[{"area":"","zipcode":""}]},{"city":"Dingle","zipcodes":[{"area":"","zipcode":""}]},{"city":"Dueñas","zipcodes":[{"area":"","zipcode":""}]},{"city":"Dumangas","zipcodes":[{"area":"","zipcode":""}]},{"city":"Estancia","zipcodes":[{"area":"","zipcode":""}]},{"city":"Guimbal","zipcodes":[{"area":"","zipcode":""}]},{"city":"Igbaras","zipcodes":[{"area":"","zipcode":""}]},{"city":"Janiuay","zipcodes":[{"area":"","zipcode":""}]},{"city":"Lambunao","zipcodes":[{"area":"","zipcode":""}]},{"city":"Leganes","zipcodes":[{"area":"","zipcode":""}]},{"city":"Lemery","zipcodes":[{"area":"","zipcode":""}]},{"city":"Leon","zipcodes":[{"area":"","zipcode":""}]},{"city":"Maasin","zipcodes":[{"area":"","zipcode":""}]},{"city":"Miagao","zipcodes":[{"area":"","zipcode":""}]},{"city":"Mina","zipcodes":[{"area":"","zipcode":""}]},{"city":"NewLucena","zipcodes":[{"area":"","zipcode":""}]},{"city":"Oton","zipcodes":[{"area":"","zipcode":""}]},{"city":"Pavia","zipcodes":[{"area":"","zipcode":""}]},{"city":"Pototan","zipcodes":[{"area":"","zipcode":""}]},{"city":"SanDionisio","zipcodes":[{"area":"","zipcode":""}]},{"city":"SanEnrique","zipcodes":[{"area":"","zipcode":""}]},{"city":"SanJoaquin","zipcodes":[{"area":"","zipcode":""}]},{"city":"SanMiguel","zipcodes":[{"area":"","zipcode":""}]},{"city":"SanRafael","zipcodes":[{"area":"","zipcode":""}]},{"city":"SantaBarbara","zipcodes":[{"area":"","zipcode":""}]},{"city":"Sara","zipcodes":[{"area":"","zipcode":""}]},{"city":"Tigbauan","zipcodes":[{"area":"","zipcode":""}]},{"city":"Tubungan","zipcodes":[{"area":"","zipcode":""}]},{"city":"Zarraga","zipcodes":[{"area":"","zipcode":""}]}]}
{"province":"Isabela","cities":[{"city":"Cauayan","zipcodes":[{"area":"","zipcode":""}]},{"city":"Santiago","zipcodes":[{"area":"","zipcode":""}]},{"city":"Alicia","zipcodes":[{"area":"","zipcode":""}]},{"city":"Angadanan","zipcodes":[{"area":"","zipcode":""}]},{"city":"Aurora","zipcodes":[{"area":"","zipcode":""}]},{"city":"BenitoSoliven","zipcodes":[{"area":"","zipcode":""}]},{"city":"Burgos","zipcodes":[{"area":"","zipcode":""}]},{"city":"Cabagan","zipcodes":[{"area":"","zipcode":""}]},{"city":"Cabatuan","zipcodes":[{"area":"","zipcode":""}]},{"city":"Cordon","zipcodes":[{"area":"","zipcode":""}]},{"city":"Delfin Albano","zipcodes":[{"area":"","zipcode":""}]},{"city":"Dinapigue","zipcodes":[{"area":"","zipcode":""}]},{"city":"Divilacan","zipcodes":[{"area":"","zipcode":""}]},{"city":"Echague","zipcodes":[{"area":"","zipcode":""}]},{"city":"Gamu","zipcodes":[{"area":"","zipcode":""}]},{"city":"Ilagan","zipcodes":[{"area":"","zipcode":""}]},{"city":"Jones","zipcodes":[{"area":"","zipcode":""}]},{"city":"Luna","zipcodes":[{"area":"","zipcode":""}]},{"city":"Maconacon","zipcodes":[{"area":"","zipcode":""}]},{"city":"Mallig","zipcodes":[{"area":"","zipcode":""}]},{"city":"Naguilian","zipcodes":[{"area":"","zipcode":""}]},{"city":"Palanan","zipcodes":[{"area":"","zipcode":""}]},{"city":"Quezon","zipcodes":[{"area":"","zipcode":""}]},{"city":"Quirino","zipcodes":[{"area":"","zipcode":""}]},{"city":"Ramon","zipcodes":[{"area":"","zipcode":""}]},{"city":"ReinaMercedes","zipcodes":[{"area":"","zipcode":""}]},{"city":"Roxas","zipcodes":[{"area":"","zipcode":""}]},{"city":"SanAgustin","zipcodes":[{"area":"","zipcode":""}]},{"city":"SanGuillermo","zipcodes":[{"area":"","zipcode":""}]},{"city":"SanIsidro","zipcodes":[{"area":"","zipcode":""}]},{"city":"SanManuel","zipcodes":[{"area":"","zipcode":""}]},{"city":"SanMariano","zipcodes":[{"area":"","zipcode":""}]},{"city":"SanMateo","zipcodes":[{"area":"","zipcode":""}]},{"city":"SanPablo","zipcodes":[{"area":"","zipcode":""}]},{"city":"SantaMaria","zipcodes":[{"area":"","zipcode":""}]},{"city":"SantoTomas","zipcodes":[{"area":"","zipcode":""}]},{"city":"Tumauini","zipcodes":[{"area":"","zipcode":""}]}]}
{"province":"Kalinga","cities":[{"city":"Tabuk","zipcodes":[{"area":"","zipcode":""}]},{"city":"Balbalan","zipcodes":[{"area":"","zipcode":""}]},{"city":"Lubuagan","zipcodes":[{"area":"","zipcode":""}]},{"city":"Pasil","zipcodes":[{"area":"","zipcode":""}]},{"city":"Pinukpuk","zipcodes":[{"area":"","zipcode":""}]},{"city":"Rizal","zipcodes":[{"area":"","zipcode":""}]},{"city":"Tanudan","zipcodes":[{"area":"","zipcode":""}]},{"city":"Tinglayan","zipcodes":[{"area":"","zipcode":""}]}]}
{"province":"LaUnion","cities":[{"city":"SanFernando","zipcodes":[{"area":"","zipcode":""}]},{"city":"Agoo","zipcodes":[{"area":"","zipcode":""}]},{"city":"Aringay","zipcodes":[{"area":"","zipcode":""}]},{"city":"Bacnotan","zipcodes":[{"area":"","zipcode":""}]},{"city":"Bagulin","zipcodes":[{"area":"","zipcode":""}]},{"city":"Balaoan","zipcodes":[{"area":"","zipcode":""}]},{"city":"Bangar","zipcodes":[{"area":"","zipcode":""}]},{"city":"Bauang","zipcodes":[{"area":"","zipcode":""}]},{"city":"Burgos","zipcodes":[{"area":"","zipcode":""}]},{"city":"Caba","zipcodes":[{"area":"","zipcode":""}]},{"city":"Luna","zipcodes":[{"area":"","zipcode":""}]},{"city":"Naguilian","zipcodes":[{"area":"","zipcode":""}]},{"city":"Pugo","zipcodes":[{"area":"","zipcode":""}]},{"city":"Rosario","zipcodes":[{"area":"","zipcode":""}]},{"city":"SanGabriel","zipcodes":[{"area":"","zipcode":""}]},{"city":"SanJuan","zipcodes":[{"area":"","zipcode":""}]},{"city":"SantoTomas","zipcodes":[{"area":"","zipcode":""}]},{"city":"Santol","zipcodes":[{"area":"","zipcode":""}]},{"city":"Sudipen","zipcodes":[{"area":"","zipcode":""}]},{"city":"Tubao","zipcodes":[{"area":"","zipcode":""}]}]}
{"province":"Laguna","cities":[{"city":"Calamba","zipcodes":[{"area":"","zipcode":""}]},{"city":"SanPablo","zipcodes":[{"area":"","zipcode":""}]},{"city":"SantaRosa","zipcodes":[{"area":"","zipcode":""}]},{"city":"Alaminos","zipcodes":[{"area":"","zipcode":""}]},{"city":"Bay","zipcodes":[{"area":"","zipcode":""}]},{"city":"Biñan","zipcodes":[{"area":"","zipcode":""}]},{"city":"Cabuyao","zipcodes":[{"area":"","zipcode":""}]},{"city":"Calauan","zipcodes":[{"area":"","zipcode":""}]},{"city":"Cavinti","zipcodes":[{"area":"","zipcode":""}]},{"city":"Famy","zipcodes":[{"area":"","zipcode":""}]},{"city":"Kalayaan","zipcodes":[{"area":"","zipcode":""}]},{"city":"Liliw","zipcodes":[{"area":"","zipcode":""}]},{"city":"LosBaños","zipcodes":[{"area":"","zipcode":""}]},{"city":"Luisiana","zipcodes":[{"area":"","zipcode":""}]},{"city":"Lumban","zipcodes":[{"area":"","zipcode":""}]},{"city":"Mabitac","zipcodes":[{"area":"","zipcode":""}]},{"city":"Magdalena","zipcodes":[{"area":"","zipcode":""}]},{"city":"Majayjay","zipcodes":[{"area":"","zipcode":""}]},{"city":"Nagcarlan","zipcodes":[{"area":"","zipcode":""}]},{"city":"Paete","zipcodes":[{"area":"","zipcode":""}]},{"city":"Pagsanjan","zipcodes":[{"area":"","zipcode":""}]},{"city":"Pakil","zipcodes":[{"area":"","zipcode":""}]},{"city":"Pangil","zipcodes":[{"area":"","zipcode":""}]},{"city":"Pila","zipcodes":[{"area":"","zipcode":""}]},{"city":"Rizal","zipcodes":[{"area":"","zipcode":""}]},{"city":"SanPedro","zipcodes":[{"area":"","zipcode":""}]},{"city":"SantaCruz","zipcodes":[{"area":"","zipcode":""}]},{"city":"SantaMaria","zipcodes":[{"area":"","zipcode":""}]},{"city":"Siniloan","zipcodes":[{"area":"","zipcode":""}]},{"city":"Victoria","zipcodes":[{"area":"","zipcode":""}]}]}
{"province":"Lanao del Norte","cities":[{"city":"Iligan","zipcodes":[{"area":"","zipcode":""}]},{"city":"Bacolod","zipcodes":[{"area":"","zipcode":""}]},{"city":"Baloi","zipcodes":[{"area":"","zipcode":""}]},{"city":"Baroy","zipcodes":[{"area":"","zipcode":""}]},{"city":"Kapatagan","zipcodes":[{"area":"","zipcode":""}]},{"city":"Kauswagan","zipcodes":[{"area":"","zipcode":""}]},{"city":"Kolambugan","zipcodes":[{"area":"","zipcode":""}]},{"city":"Lala","zipcodes":[{"area":"","zipcode":""}]},{"city":"Linamon","zipcodes":[{"area":"","zipcode":""}]},{"city":"Magsaysay","zipcodes":[{"area":"","zipcode":""}]},{"city":"Maigo","zipcodes":[{"area":"","zipcode":""}]},{"city":"Matungao","zipcodes":[{"area":"","zipcode":""}]},{"city":"Munai","zipcodes":[{"area":"","zipcode":""}]},{"city":"Nunungan","zipcodes":[{"area":"","zipcode":""}]},{"city":"PantaoRagat","zipcodes":[{"area":"","zipcode":""}]},{"city":"Pantar","zipcodes":[{"area":"","zipcode":""}]},{"city":"PoonaPiagapo","zipcodes":[{"area":"","zipcode":""}]},{"city":"Salvador","zipcodes":[{"area":"","zipcode":""}]},{"city":"Sapad","zipcodes":[{"area":"","zipcode":""}]},{"city":"SultanNagaDimaporo","zipcodes":[{"area":"","zipcode":""}]},{"city":"Tagoloan","zipcodes":[{"area":"","zipcode":""}]},{"city":"Tangcal","zipcodes":[{"area":"","zipcode":""}]},{"city":"Tubod","zipcodes":[{"area":"","zipcode":""}]}]}
{"province":"Lanaodel Sur","cities":[{"city":"Marawi","zipcodes":[{"area":"","zipcode":""}]},{"city":"Bacolod-Kalawi","zipcodes":[{"area":"","zipcode":""}]},{"city":"Balabagan","zipcodes":[{"area":"","zipcode":""}]},{"city":"Balindong","zipcodes":[{"area":"","zipcode":""}]},{"city":"Bayang","zipcodes":[{"area":"","zipcode":""}]},{"city":"Binidayan","zipcodes":[{"area":"","zipcode":""}]},{"city":"Buadiposo-Buntong","zipcodes":[{"area":"","zipcode":""}]},{"city":"Bubong","zipcodes":[{"area":"","zipcode":""}]},{"city":"Bumbaran","zipcodes":[{"area":"","zipcode":""}]},{"city":"Butig","zipcodes":[{"area":"","zipcode":""}]},{"city":"Calanogas","zipcodes":[{"area":"","zipcode":""}]},{"city":"Ditsaan-Ramain","zipcodes":[{"area":"","zipcode":""}]},{"city":"Ganassi","zipcodes":[{"area":"","zipcode":""}]},{"city":"Kapai","zipcodes":[{"area":"","zipcode":""}]},{"city":"Kapatagan","zipcodes":[{"area":"","zipcode":""}]},{"city":"Lumba-Bayabao","zipcodes":[{"area":"","zipcode":""}]},{"city":"Lumbaca-Unayan","zipcodes":[{"area":"","zipcode":""}]},{"city":"Lumbatan","zipcodes":[{"area":"","zipcode":""}]},{"city":"Lumbayanague","zipcodes":[{"area":"","zipcode":""}]},{"city":"Madalum","zipcodes":[{"area":"","zipcode":""}]},{"city":"Madamba","zipcodes":[{"area":"","zipcode":""}]},{"city":"Maguing","zipcodes":[{"area":"","zipcode":""}]},{"city":"Malabang","zipcodes":[{"area":"","zipcode":""}]},{"city":"Marantao","zipcodes":[{"area":"","zipcode":""}]},{"city":"Marogong","zipcodes":[{"area":"","zipcode":""}]},{"city":"Masiu","zipcodes":[{"area":"","zipcode":""}]},{"city":"Mulondo","zipcodes":[{"area":"","zipcode":""}]},{"city":"Pagayawan","zipcodes":[{"area":"","zipcode":""}]},{"city":"Piagapo","zipcodes":[{"area":"","zipcode":""}]},{"city":"PoonaBayabao","zipcodes":[{"area":"","zipcode":""}]},{"city":"Pualas","zipcodes":[{"area":"","zipcode":""}]},{"city":"Saguiaran","zipcodes":[{"area":"","zipcode":""}]},{"city":"SultanDumalondong","zipcodes":[{"area":"","zipcode":""}]},{"city":"Picong","zipcodes":[{"area":"","zipcode":""}]},{"city":"TagoloanIi","zipcodes":[{"area":"","zipcode":""}]},{"city":"Tamparan","zipcodes":[{"area":"","zipcode":""}]},{"city":"Taraka","zipcodes":[{"area":"","zipcode":""}]},{"city":"Tubaran","zipcodes":[{"area":"","zipcode":""}]},{"city":"Tugaya","zipcodes":[{"area":"","zipcode":""}]},{"city":"Wao","zipcodes":[{"area":"","zipcode":""}]}]}
{"province":"Leyte","cities":[{"city":"Baybay","zipcodes":[{"area":"","zipcode":""}]},{"city":"Ormoc","zipcodes":[{"area":"","zipcode":""}]},{"city":"Tacloban","zipcodes":[{"area":"","zipcode":""}]},{"city":"Abuyog","zipcodes":[{"area":"","zipcode":""}]},{"city":"Alangalang","zipcodes":[{"area":"","zipcode":""}]},{"city":"Albuera","zipcodes":[{"area":"","zipcode":""}]},{"city":"Babatngon","zipcodes":[{"area":"","zipcode":""}]},{"city":"Barugo","zipcodes":[{"area":"","zipcode":""}]},{"city":"Bato","zipcodes":[{"area":"","zipcode":""}]},{"city":"Burauen","zipcodes":[{"area":"","zipcode":""}]},{"city":"Calubian","zipcodes":[{"area":"","zipcode":""}]},{"city":"Capoocan","zipcodes":[{"area":"","zipcode":""}]},{"city":"Carigara","zipcodes":[{"area":"","zipcode":""}]},{"city":"Dagami","zipcodes":[{"area":"","zipcode":""}]},{"city":"Dulag","zipcodes":[{"area":"","zipcode":""}]},{"city":"Hilongos","zipcodes":[{"area":"","zipcode":""}]},{"city":"Hindang","zipcodes":[{"area":"","zipcode":""}]},{"city":"Inopacan","zipcodes":[{"area":"","zipcode":""}]},{"city":"Isabel","zipcodes":[{"area":"","zipcode":""}]},{"city":"Jaro","zipcodes":[{"area":"","zipcode":""}]},{"city":"Javier","zipcodes":[{"area":"","zipcode":""}]},{"city":"Julita","zipcodes":[{"area":"","zipcode":""}]},{"city":"Kananga","zipcodes":[{"area":"","zipcode":""}]},{"city":"LaPaz","zipcodes":[{"area":"","zipcode":""}]},{"city":"Leyte","zipcodes":[{"area":"","zipcode":""}]},{"city":"Macarthur","zipcodes":[{"area":"","zipcode":""}]},{"city":"Mahaplag","zipcodes":[{"area":"","zipcode":""}]},{"city":"Matag-ob","zipcodes":[{"area":"","zipcode":""}]},{"city":"Matalom","zipcodes":[{"area":"","zipcode":""}]},{"city":"Mayorga","zipcodes":[{"area":"","zipcode":""}]},{"city":"Merida","zipcodes":[{"area":"","zipcode":""}]},{"city":"Palo","zipcodes":[{"area":"","zipcode":""}]},{"city":"Palompon","zipcodes":[{"area":"","zipcode":""}]},{"city":"Pastrana","zipcodes":[{"area":"","zipcode":""}]},{"city":"SanIsidro","zipcodes":[{"area":"","zipcode":""}]},{"city":"SanMiguel","zipcodes":[{"area":"","zipcode":""}]},{"city":"SantaFe","zipcodes":[{"area":"","zipcode":""}]},{"city":"Tabango","zipcodes":[{"area":"","zipcode":""}]},{"city":"Tabontabon","zipcodes":[{"area":"","zipcode":""}]},{"city":"Tanauan","zipcodes":[{"area":"","zipcode":""}]},{"city":"Tolosa","zipcodes":[{"area":"","zipcode":""}]},{"city":"Tunga","zipcodes":[{"area":"","zipcode":""}]},{"city":"Villaba","zipcodes":[{"area":"","zipcode":""}]}]}
{"province":"Maguindanao","cities":[{"city":"Cotabato","zipcodes":[{"area":"","zipcode":""}]},{"city":"Ampatuan","zipcodes":[{"area":"","zipcode":""}]},{"city":"Buluan","zipcodes":[{"area":"","zipcode":""}]},{"city":"DatuAbdullahSangki","zipcodes":[{"area":"","zipcode":""}]},{"city":"DatuAnggalMidtimbang","zipcodes":[{"area":"","zipcode":""}]},{"city":"DatuPaglas","zipcodes":[{"area":"","zipcode":""}]},{"city":"DatuPiang","zipcodes":[{"area":"","zipcode":""}]},{"city":"DatuSaudi-Ampatuan","zipcodes":[{"area":"","zipcode":""}]},{"city":"DatuUnsay","zipcodes":[{"area":"","zipcode":""}]},{"city":"Gen.S.K.Pendatun","zipcodes":[{"area":"","zipcode":""}]},{"city":"Guindulungan","zipcodes":[{"area":"","zipcode":""}]},{"city":"Mamasapano","zipcodes":[{"area":"","zipcode":""}]},{"city":"Mangudadatu","zipcodes":[{"area":"","zipcode":""}]},{"city":"Pagagawan","zipcodes":[{"area":"","zipcode":""}]},{"city":"Pagalungan","zipcodes":[{"area":"","zipcode":""}]},{"city":"Paglat","zipcodes":[{"area":"","zipcode":""}]},{"city":"Pandag","zipcodes":[{"area":"","zipcode":""}]},{"city":"RajahBuayan","zipcodes":[{"area":"","zipcode":""}]},{"city":"ShariffAguak","zipcodes":[{"area":"","zipcode":""}]},{"city":"SouthUpi","zipcodes":[{"area":"","zipcode":""}]},{"city":"SultansaBarongis","zipcodes":[{"area":"","zipcode":""}]},{"city":"Talayan","zipcodes":[{"area":"","zipcode":""}]},{"city":"Talitay","zipcodes":[{"area":"","zipcode":""}]}]}
{"province":"Marinduque","cities":[{"city":"Boac","zipcodes":[{"area":"","zipcode":""}]},{"city":"Buenavista","zipcodes":[{"area":"","zipcode":""}]},{"city":"Gasan","zipcodes":[{"area":"","zipcode":""}]},{"city":"Mogpog","zipcodes":[{"area":"","zipcode":""}]},{"city":"SantaCruz","zipcodes":[{"area":"","zipcode":""}]},{"city":"Torrijos","zipcodes":[{"area":"","zipcode":""}]}]}
{"province":"Masbate","cities":[{"city":"Masbate","zipcodes":[{"area":"","zipcode":""}]},{"city":"Aroroy","zipcodes":[{"area":"","zipcode":""}]},{"city":"Baleno","zipcodes":[{"area":"","zipcode":""}]},{"city":"Balud","zipcodes":[{"area":"","zipcode":""}]},{"city":"Batuan","zipcodes":[{"area":"","zipcode":""}]},{"city":"Cataingan","zipcodes":[{"area":"","zipcode":""}]},{"city":"Cawayan","zipcodes":[{"area":"","zipcode":""}]},{"city":"Claveria","zipcodes":[{"area":"","zipcode":""}]},{"city":"Dimasalang","zipcodes":[{"area":"","zipcode":""}]},{"city":"Esperanza","zipcodes":[{"area":"","zipcode":""}]},{"city":"Mandaon","zipcodes":[{"area":"","zipcode":""}]},{"city":"Milagros","zipcodes":[{"area":"","zipcode":""}]},{"city":"Mobo","zipcodes":[{"area":"","zipcode":""}]},{"city":"Monreal","zipcodes":[{"area":"","zipcode":""}]},{"city":"Palanas","zipcodes":[{"area":"","zipcode":""}]},{"city":"PioV.Corpuz","zipcodes":[{"area":"","zipcode":""}]},{"city":"Placer","zipcodes":[{"area":"","zipcode":""}]},{"city":"SanFernando","zipcodes":[{"area":"","zipcode":""}]},{"city":"SanJacinto","zipcodes":[{"area":"","zipcode":""}]},{"city":"SanPascual","zipcodes":[{"area":"","zipcode":""}]},{"city":"Uson","zipcodes":[{"area":"","zipcode":""}]}]}
{"province":"Misamis Occidental","cities":[{"city":"Oroquieta","zipcodes":[{"area":"","zipcode":""}]},{"city":"Ozamis","zipcodes":[{"area":"","zipcode":""}]},{"city":"Tangub","zipcodes":[{"area":"","zipcode":""}]},{"city":"Aloran","zipcodes":[{"area":"","zipcode":""}]},{"city":"Baliangao","zipcodes":[{"area":"","zipcode":""}]},{"city":"Bonifacio","zipcodes":[{"area":"","zipcode":""}]},{"city":"Calamba","zipcodes":[{"area":"","zipcode":""}]},{"city":"Clarin","zipcodes":[{"area":"","zipcode":""}]},{"city":"Concepcion","zipcodes":[{"area":"","zipcode":""}]},{"city":"DonVictorianoChiongbian","zipcodes":[{"area":"","zipcode":""}]},{"city":"Jimenez","zipcodes":[{"area":"","zipcode":""}]},{"city":"LopezJaena","zipcodes":[{"area":"","zipcode":""}]},{"city":"Panaon","zipcodes":[{"area":"","zipcode":""}]},{"city":"Plaridel","zipcodes":[{"area":"","zipcode":""}]},{"city":"SapangDalaga","zipcodes":[{"area":"","zipcode":""}]},{"city":"Sinacaban","zipcodes":[{"area":"","zipcode":""}]},{"city":"Tudela","zipcodes":[{"area":"","zipcode":""}]}]}
{"province":"Misamis Oriental","cities":[{"city":"CagayandeOro","zipcodes":[{"area":"","zipcode":""}]},{"city":"Gingoog","zipcodes":[{"area":"","zipcode":""}]},{"city":"ElSalvador","zipcodes":[{"area":"","zipcode":""}]},{"city":"Alubijid","zipcodes":[{"area":"","zipcode":""}]},{"city":"Balingasag","zipcodes":[{"area":"","zipcode":""}]},{"city":"Balingoan","zipcodes":[{"area":"","zipcode":""}]},{"city":"Binuangan","zipcodes":[{"area":"","zipcode":""}]},{"city":"Claveria","zipcodes":[{"area":"","zipcode":""}]},{"city":"ElSalvador","zipcodes":[{"area":"","zipcode":""}]},{"city":"Gitagum","zipcodes":[{"area":"","zipcode":""}]},{"city":"Initao","zipcodes":[{"area":"","zipcode":""}]},{"city":"Jasaan","zipcodes":[{"area":"","zipcode":""}]},{"city":"Kinoguitan","zipcodes":[{"area":"","zipcode":""}]},{"city":"Lagonglong","zipcodes":[{"area":"","zipcode":""}]},{"city":"Laguindingan","zipcodes":[{"area":"","zipcode":""}]},{"city":"Libertad","zipcodes":[{"area":"","zipcode":""}]},{"city":"Lugait","zipcodes":[{"area":"","zipcode":""}]},{"city":"Magsaysay","zipcodes":[{"area":"","zipcode":""}]},{"city":"Manticao","zipcodes":[{"area":"","zipcode":""}]},{"city":"Medina","zipcodes":[{"area":"","zipcode":""}]},{"city":"Naawan","zipcodes":[{"area":"","zipcode":""}]},{"city":"Opol","zipcodes":[{"area":"","zipcode":""}]},{"city":"Salay","zipcodes":[{"area":"","zipcode":""}]},{"city":"Sugbongcogon","zipcodes":[{"area":"","zipcode":""}]},{"city":"Tagoloan","zipcodes":[{"area":"","zipcode":""}]},{"city":"Talisayan","zipcodes":[{"area":"","zipcode":""}]},{"city":"Villanueva","zipcodes":[{"area":"","zipcode":""}]}]}
{"province":"Mountain Province","cities":[{"city":"Barlig","zipcodes":[{"area":"","zipcode":""}]},{"city":"Bauko","zipcodes":[{"area":"","zipcode":""}]},{"city":"Besao","zipcodes":[{"area":"","zipcode":""}]},{"city":"Bontoc","zipcodes":[{"area":"","zipcode":""}]},{"city":"Natonin","zipcodes":[{"area":"","zipcode":""}]},{"city":"Paracelis","zipcodes":[{"area":"","zipcode":""}]},{"city":"Sabangan","zipcodes":[{"area":"","zipcode":""}]},{"city":"Sadanga","zipcodes":[{"area":"","zipcode":""}]},{"city":"Sagada","zipcodes":[{"area":"","zipcode":""}]},{"city":"Tadian","zipcodes":[{"area":"","zipcode":""}]}]}
{"province":"Negros Occidental","cities":[{"city":"Bacolod","zipcodes":[{"area":"","zipcode":""}]},{"city":"Bago","zipcodes":[{"area":"","zipcode":""}]},{"city":"Cadiz","zipcodes":[{"area":"","zipcode":""}]},{"city":"Escalante","zipcodes":[{"area":"","zipcode":""}]},{"city":"Himamaylan","zipcodes":[{"area":"","zipcode":""}]},{"city":"Kabankalan","zipcodes":[{"area":"","zipcode":""}]},{"city":"LaCarlota","zipcodes":[{"area":"","zipcode":""}]},{"city":"Sagay","zipcodes":[{"area":"","zipcode":""}]},{"city":"SanCarlos","zipcodes":[{"area":"","zipcode":""}]},{"city":"Silay","zipcodes":[{"area":"","zipcode":""}]},{"city":"Sipalay","zipcodes":[{"area":"","zipcode":""}]},{"city":"Talisay","zipcodes":[{"area":"","zipcode":""}]},{"city":"Victorias","zipcodes":[{"area":"","zipcode":""}]},{"city":"Binalbagan","zipcodes":[{"area":"","zipcode":""}]},{"city":"Calatrava","zipcodes":[{"area":"","zipcode":""}]},{"city":"Candoni","zipcodes":[{"area":"","zipcode":""}]},{"city":"Cauayan","zipcodes":[{"area":"","zipcode":""}]},{"city":"EnriqueB.Magalona","zipcodes":[{"area":"","zipcode":""}]},{"city":"Hinigaran","zipcodes":[{"area":"","zipcode":""}]},{"city":"Hinoba-an","zipcodes":[{"area":"","zipcode":""}]},{"city":"Ilog","zipcodes":[{"area":"","zipcode":""}]},{"city":"Isabela","zipcodes":[{"area":"","zipcode":""}]},{"city":"LaCastellana","zipcodes":[{"area":"","zipcode":""}]},{"city":"Manapla","zipcodes":[{"area":"","zipcode":""}]},{"city":"MoisesPadilla","zipcodes":[{"area":"","zipcode":""}]},{"city":"Murcia","zipcodes":[{"area":"","zipcode":""}]},{"city":"Pontevedra","zipcodes":[{"area":"","zipcode":""}]},{"city":"Pulupandan","zipcodes":[{"area":"","zipcode":""}]},{"city":"Salvador Benedicto","zipcodes":[{"area":"","zipcode":""}]},{"city":"SanEnrique","zipcodes":[{"area":"","zipcode":""}]},{"city":"Toboso","zipcodes":[{"area":"","zipcode":""}]},{"city":"Valladolid","zipcodes":[{"area":"","zipcode":""}]}]}
{"province":"Negros Oriental","cities":[{"city":"Bais","zipcodes":[{"area":"","zipcode":""}]},{"city":"Bayawan","zipcodes":[{"area":"","zipcode":""}]},{"city":"Canlaon","zipcodes":[{"area":"","zipcode":""}]},{"city":"Dumaguete","zipcodes":[{"area":"","zipcode":""}]},{"city":"Guihulngan","zipcodes":[{"area":"","zipcode":""}]},{"city":"Tanjay","zipcodes":[{"area":"","zipcode":""}]},{"city":"Amlan","zipcodes":[{"area":"","zipcode":""}]},{"city":"Ayungon","zipcodes":[{"area":"","zipcode":""}]},{"city":"Bacong","zipcodes":[{"area":"","zipcode":""}]},{"city":"Basay","zipcodes":[{"area":"","zipcode":""}]},{"city":"Bindoy","zipcodes":[{"area":"","zipcode":""}]},{"city":"Dauin","zipcodes":[{"area":"","zipcode":""}]},{"city":"Jimalalud","zipcodes":[{"area":"","zipcode":""}]},{"city":"LaLibertad","zipcodes":[{"area":"","zipcode":""}]},{"city":"Mabinay","zipcodes":[{"area":"","zipcode":""}]},{"city":"Manjuyod","zipcodes":[{"area":"","zipcode":""}]},{"city":"Pamplona","zipcodes":[{"area":"","zipcode":""}]},{"city":"SanJose","zipcodes":[{"area":"","zipcode":""}]},{"city":"SantaCatalina","zipcodes":[{"area":"","zipcode":""}]},{"city":"Siaton","zipcodes":[{"area":"","zipcode":""}]},{"city":"Sibulan","zipcodes":[{"area":"","zipcode":""}]},{"city":"Tayasan","zipcodes":[{"area":"","zipcode":""}]},{"city":"Valencia","zipcodes":[{"area":"","zipcode":""}]},{"city":"Vallehermoso","zipcodes":[{"area":"","zipcode":""}]},{"city":"Zamboanguita","zipcodes":[{"area":"","zipcode":""}]}]}
{"province":"Northern Samar","cities":[{"city":"Allen","zipcodes":[{"area":"","zipcode":""}]},{"city":"Biri","zipcodes":[{"area":"","zipcode":""}]},{"city":"Bobon","zipcodes":[{"area":"","zipcode":""}]},{"city":"Capul","zipcodes":[{"area":"","zipcode":""}]},{"city":"Catarman","zipcodes":[{"area":"","zipcode":""}]},{"city":"Catubig","zipcodes":[{"area":"","zipcode":""}]},{"city":"Gamay","zipcodes":[{"area":"","zipcode":""}]},{"city":"Laoang","zipcodes":[{"area":"","zipcode":""}]},{"city":"Lapinig","zipcodes":[{"area":"","zipcode":""}]},{"city":"LasNavas","zipcodes":[{"area":"","zipcode":""}]},{"city":"Lavezares","zipcodes":[{"area":"","zipcode":""}]},{"city":"LopedeVega","zipcodes":[{"area":"","zipcode":""}]},{"city":"Mapanas","zipcodes":[{"area":"","zipcode":""}]},{"city":"Mondragon","zipcodes":[{"area":"","zipcode":""}]},{"city":"Palapag","zipcodes":[{"area":"","zipcode":""}]},{"city":"Pambujan","zipcodes":[{"area":"","zipcode":""}]},{"city":"Rosario","zipcodes":[{"area":"","zipcode":""}]},{"city":"SanAntonio","zipcodes":[{"area":"","zipcode":""}]},{"city":"SanIsidro","zipcodes":[{"area":"","zipcode":""}]},{"city":"SanJose","zipcodes":[{"area":"","zipcode":""}]},{"city":"SanRoque","zipcodes":[{"area":"","zipcode":""}]},{"city":"SanVicente","zipcodes":[{"area":"","zipcode":""}]},{"city":"SilvinoLobos","zipcodes":[{"area":"","zipcode":""}]},{"city":"Victoria","zipcodes":[{"area":"","zipcode":""}]}]}
{"province":"Nueva Ecija","cities":[{"city":"Cabanatuan","zipcodes":[{"area":"","zipcode":""}]},{"city":"Gapan","zipcodes":[{"area":"","zipcode":""}]},{"city":"Palayan","zipcodes":[{"area":"","zipcode":""}]},{"city":"SanJose","zipcodes":[{"area":"","zipcode":""}]},{"city":"Muñoz","zipcodes":[{"area":"","zipcode":""}]},{"city":"Aliaga","zipcodes":[{"area":"","zipcode":""}]},{"city":"Bongabon","zipcodes":[{"area":"","zipcode":""}]},{"city":"Cabiao","zipcodes":[{"area":"","zipcode":""}]},{"city":"Carranglan","zipcodes":[{"area":"","zipcode":""}]},{"city":"Cuyapo","zipcodes":[{"area":"","zipcode":""}]},{"city":"Gabaldon","zipcodes":[{"area":"","zipcode":""}]},{"city":"GeneralMamertoNatividad","zipcodes":[{"area":"","zipcode":""}]},{"city":"GeneralTinio","zipcodes":[{"area":"","zipcode":""}]},{"city":"Guimba","zipcodes":[{"area":"","zipcode":""}]},{"city":"Jaen","zipcodes":[{"area":"","zipcode":""}]},{"city":"Laur","zipcodes":[{"area":"","zipcode":""}]},{"city":"Licab","zipcodes":[{"area":"","zipcode":""}]},{"city":"Llanera","zipcodes":[{"area":"","zipcode":""}]},{"city":"Lupao","zipcodes":[{"area":"","zipcode":""}]},{"city":"Nampicuan","zipcodes":[{"area":"","zipcode":""}]},{"city":"Pantabangan","zipcodes":[{"area":"","zipcode":""}]},{"city":"Peñaranda","zipcodes":[{"area":"","zipcode":""}]},{"city":"Quezon","zipcodes":[{"area":"","zipcode":""}]},{"city":"Rizal","zipcodes":[{"area":"","zipcode":""}]},{"city":"SanAntonio","zipcodes":[{"area":"","zipcode":""}]},{"city":"SanIsidro","zipcodes":[{"area":"","zipcode":""}]},{"city":"San Leonardo","zipcodes":[{"area":"","zipcode":""}]},{"city":"SantaRosa","zipcodes":[{"area":"","zipcode":""}]},{"city":"Santo Domingo","zipcodes":[{"area":"","zipcode":""}]},{"city":"Talavera","zipcodes":[{"area":"","zipcode":""}]},{"city":"Talugtug","zipcodes":[{"area":"","zipcode":""}]},{"city":"Zaragoza","zipcodes":[{"area":"","zipcode":""}]}]}
{"province":"Nueva Vizcaya","cities":[{"city":"AlfonsoCastaneda","zipcodes":[{"area":"","zipcode":""}]},{"city":"Ambaguio","zipcodes":[{"area":"","zipcode":""}]},{"city":"Aritao","zipcodes":[{"area":"","zipcode":""}]},{"city":"Bagabag","zipcodes":[{"area":"","zipcode":""}]},{"city":"Bambang","zipcodes":[{"area":"","zipcode":""}]},{"city":"Bayombong","zipcodes":[{"area":"","zipcode":""}]},{"city":"Diadi","zipcodes":[{"area":"","zipcode":""}]},{"city":"Dupax del Norte","zipcodes":[{"area":"","zipcode":""}]},{"city":"Dupax del Sur","zipcodes":[{"area":"","zipcode":""}]},{"city":"Kasibu","zipcodes":[{"area":"","zipcode":""}]},{"city":"Kayapa","zipcodes":[{"area":"","zipcode":""}]},{"city":"Quezon","zipcodes":[{"area":"","zipcode":""}]},{"city":"SantaFe","zipcodes":[{"area":"","zipcode":""}]},{"city":"Solano","zipcodes":[{"area":"","zipcode":""}]},{"city":"Villaverde","zipcodes":[{"area":"","zipcode":""}]}]}
{"province":"Occidental Mindoro","cities":[{"city":"AbradeIlog","zipcodes":[{"area":"","zipcode":""}]},{"city":"Calintaan","zipcodes":[{"area":"","zipcode":""}]},{"city":"Looc","zipcodes":[{"area":"","zipcode":""}]},{"city":"Lubang","zipcodes":[{"area":"","zipcode":""}]},{"city":"Magsaysay","zipcodes":[{"area":"","zipcode":""}]},{"city":"Mamburao","zipcodes":[{"area":"","zipcode":""}]},{"city":"Paluan","zipcodes":[{"area":"","zipcode":""}]},{"city":"Rizal","zipcodes":[{"area":"","zipcode":""}]},{"city":"Sablayan","zipcodes":[{"area":"","zipcode":""}]},{"city":"SanJose","zipcodes":[{"area":"","zipcode":""}]},{"city":"SantaCruz","zipcodes":[{"area":"","zipcode":""}]}]}
{"province":"Oriental Mindoro","cities":[{"city":"Calapan","zipcodes":[{"area":"","zipcode":""}]},{"city":"Baco","zipcodes":[{"area":"","zipcode":""}]},{"city":"Bansud","zipcodes":[{"area":"","zipcode":""}]},{"city":"Bongabong","zipcodes":[{"area":"","zipcode":""}]},{"city":"Bulalacao","zipcodes":[{"area":"","zipcode":""}]},{"city":"Gloria","zipcodes":[{"area":"","zipcode":""}]},{"city":"Mansalay","zipcodes":[{"area":"","zipcode":""}]},{"city":"Naujan","zipcodes":[{"area":"","zipcode":""}]},{"city":"Pinamalayan","zipcodes":[{"area":"","zipcode":""}]},{"city":"Pola","zipcodes":[{"area":"","zipcode":""}]},{"city":"PuertoGalera","zipcodes":[{"area":"","zipcode":""}]},{"city":"Roxas","zipcodes":[{"area":"","zipcode":""}]},{"city":"SanTeodoro","zipcodes":[{"area":"","zipcode":""}]},{"city":"Socorro","zipcodes":[{"area":"","zipcode":""}]},{"city":"Victoria","zipcodes":[{"area":"","zipcode":""}]}]}
{"province":"Palawan","cities":[{"city":"Puerto","zipcodes":[{"area":"","zipcode":""}]},{"city":"Aborlan","zipcodes":[{"area":"","zipcode":""}]},{"city":"Agutaya","zipcodes":[{"area":"","zipcode":""}]},{"city":"Araceli","zipcodes":[{"area":"","zipcode":""}]},{"city":"Balabac","zipcodes":[{"area":"","zipcode":""}]},{"city":"Bataraza","zipcodes":[{"area":"","zipcode":""}]},{"city":"Brooke'sPoint","zipcodes":[{"area":"","zipcode":""}]},{"city":"Busuanga","zipcodes":[{"area":"","zipcode":""}]},{"city":"Cagayancillo","zipcodes":[{"area":"","zipcode":""}]},{"city":"Coron","zipcodes":[{"area":"","zipcode":""}]},{"city":"Culion","zipcodes":[{"area":"","zipcode":""}]},{"city":"Cuyo","zipcodes":[{"area":"","zipcode":""}]},{"city":"Dumaran","zipcodes":[{"area":"","zipcode":""}]},{"city":"ElNido","zipcodes":[{"area":"","zipcode":""}]},{"city":"Kalayaan","zipcodes":[{"area":"","zipcode":""}]},{"city":"Linapacan","zipcodes":[{"area":"","zipcode":""}]},{"city":"Magsaysay","zipcodes":[{"area":"","zipcode":""}]},{"city":"Narra","zipcodes":[{"area":"","zipcode":""}]},{"city":"Quezon","zipcodes":[{"area":"","zipcode":""}]},{"city":"Rizal","zipcodes":[{"area":"","zipcode":""}]},{"city":"Roxas","zipcodes":[{"area":"","zipcode":""}]},{"city":"SanVicente","zipcodes":[{"area":"","zipcode":""}]},{"city":"SofronioEspañola","zipcodes":[{"area":"","zipcode":""}]},{"city":"Taytay","zipcodes":[{"area":"","zipcode":""}]}]}
{"province":"Pampanga","cities":[{"city":"Apalit","zipcodes":[{"area":"","zipcode":""}]},{"city":"Masantol","zipcodes":[{"area":"","zipcode":""}]}]}
{"province":"Quezon","cities":[{"city":"Lucena","zipcodes":[{"area":"___","zipcode":"___"}]},{"city":"Tayabas","zipcodes":[{"area":"___","zipcode":"___"}]},{"city":"Agdangan","zipcodes":[{"area":"___","zipcode":"___"}]},{"city":"Alabat","zipcodes":[{"area":"___","zipcode":"___"}]},{"city":"Atimonan","zipcodes":[{"area":"___","zipcode":"___"}]},{"city":"Buenavista","zipcodes":[{"area":"___","zipcode":"___"}]},{"city":"Burdeos","zipcodes":[{"area":"___","zipcode":"___"}]},{"city":"Calauag","zipcodes":[{"area":"___","zipcode":"___"}]},{"city":"Candelaria","zipcodes":[{"area":"___","zipcode":"___"}]},{"city":"Catanauan","zipcodes":[{"area":"___","zipcode":"___"}]},{"city":"Dolores","zipcodes":[{"area":"___","zipcode":"___"}]},{"city":"GeneralLuna","zipcodes":[{"area":"___","zipcode":"___"}]},{"city":"GeneralNakar","zipcodes":[{"area":"___","zipcode":"___"}]},{"city":"Guinayangan","zipcodes":[{"area":"___","zipcode":"___"}]},{"city":"Gumaca","zipcodes":[{"area":"___","zipcode":"___"}]},{"city":"Infanta","zipcodes":[{"area":"___","zipcode":"___"}]},{"city":"Jomalig","zipcodes":[{"area":"___","zipcode":"___"}]},{"city":"Lopez","zipcodes":[{"area":"___","zipcode":"___"}]},{"city":"Lucban","zipcodes":[{"area":"___","zipcode":"___"}]},{"city":"Macalelon","zipcodes":[{"area":"___","zipcode":"___"}]},{"city":"Mauban","zipcodes":[{"area":"___","zipcode":"___"}]},{"city":"Mulanay","zipcodes":[{"area":"___","zipcode":"___"}]},{"city":"Padre Burgos","zipcodes":[{"area":"___","zipcode":"___"}]},{"city":"Pagbilao","zipcodes":[{"area":"___","zipcode":"___"}]},{"city":"Panukulan","zipcodes":[{"area":"___","zipcode":"___"}]},{"city":"Patnanungan","zipcodes":[{"area":"___","zipcode":"___"}]},{"city":"Perez","zipcodes":[{"area":"___","zipcode":"___"}]},{"city":"Pitogo","zipcodes":[{"area":"___","zipcode":"___"}]},{"city":"___","zipcodes":[{"area":"___","zipcode":"___"}]},{"city":"Plaridel","zipcodes":[{"area":"___","zipcode":"___"}]},{"city":"Polillo","zipcodes":[{"area":"___","zipcode":"___"}]},{"city":"Quezon","zipcodes":[{"area":"___","zipcode":"___"}]},{"city":"Real","zipcodes":[{"area":"___","zipcode":"___"}]},{"city":"Sampaloc","zipcodes":[{"area":"___","zipcode":"___"}]},{"city":"San Andres","zipcodes":[{"area":"___","zipcode":"___"}]},{"city":"San Antonio","zipcodes":[{"area":"___","zipcode":"___"}]},{"city":"San Francisco","zipcodes":[{"area":"___","zipcode":"___"}]},{"city":"San Narciso","zipcodes":[{"area":"___","zipcode":"___"}]},{"city":"Sariaya","zipcodes":[{"area":"___","zipcode":"___"}]},{"city":"Tagkawayan","zipcodes":[{"area":"___","zipcode":"___"}]},{"city":"Tiaong","zipcodes":[{"area":"___","zipcode":"___"}]},{"city":"Unisan","zipcodes":[{"area":"___","zipcode":"___"}]}]}
{"province":"Quirino","cities":[{"city":"Aglipay","zipcodes":[{"area":"___","zipcode":"___"}]},{"city":"Cabarroguis","zipcodes":[{"area":"___","zipcode":"___"}]},{"city":"Diffun","zipcodes":[{"area":"___","zipcode":"___"}]},{"city":"Maddela","zipcodes":[{"area":"___","zipcode":"___"}]},{"city":"Nagtipunan","zipcodes":[{"area":"___","zipcode":"___"}]},{"city":"Saguday","zipcodes":[{"area":"___","zipcode":"___"}]}]}
{"province":"Rizal","cities":[{"city":"Antipolo","zipcodes":[{"area":"","zipcode":""}]},{"city":"Angono","zipcodes":[{"area":"","zipcode":""}]},{"city":"Baras","zipcodes":[{"area":"","zipcode":""}]},{"city":"Cainta","zipcodes":[{"area":"","zipcode":""}]},{"city":"SanMateo","zipcodes":[{"area":"","zipcode":""}]},{"city":"Taytay","zipcodes":[{"area":"","zipcode":""}]},{"city":"Tanay","zipcodes":[{"area":"","zipcode":""}]},{"city":"Binangonan","zipcodes":[{"area":"","zipcode":""}]},{"city":"Rodriguez","zipcodes":[{"area":"","zipcode":""}]},{"city":"Cardona","zipcodes":[{"area":"","zipcode":""}]},{"city":"Morong","zipcodes":[{"area":"","zipcode":""}]},{"city":"Jalajala","zipcodes":[{"area":"","zipcode":""}]},{"city":"Pililla","zipcodes":[{"area":"","zipcode":""}]},{"city":"Teresa","zipcodes":[{"area":"","zipcode":""}]}]}
{"province":"Romblon","cities":[{"city":"Alcantara","zipcodes":[{"area":"___","zipcode":"___"}]},{"city":"Banton","zipcodes":[{"area":"___","zipcode":"___"}]},{"city":"Cajidiocan","zipcodes":[{"area":"___","zipcode":"___"}]},{"city":"Calatrava","zipcodes":[{"area":"___","zipcode":"___"}]},{"city":"Concepcion","zipcodes":[{"area":"___","zipcode":"___"}]},{"city":"Corcuera","zipcodes":[{"area":"___","zipcode":"___"}]},{"city":"Ferrol","zipcodes":[{"area":"___","zipcode":"___"}]},{"city":"Looc","zipcodes":[{"area":"___","zipcode":"___"}]},{"city":"Magdiwang","zipcodes":[{"area":"___","zipcode":"___"}]},{"city":"Odiongan","zipcodes":[{"area":"___","zipcode":"___"}]},{"city":"Romblon","zipcodes":[{"area":"___","zipcode":"___"}]},{"city":"SanAgustin","zipcodes":[{"area":"___","zipcode":"___"}]},{"city":"SanAndres","zipcodes":[{"area":"___","zipcode":"___"}]},{"city":"SanFernando","zipcodes":[{"area":"___","zipcode":"___"}]},{"city":"SanJose","zipcodes":[{"area":"___","zipcode":"___"}]},{"city":"SantaFe","zipcodes":[{"area":"___","zipcode":"___"}]},{"city":"SantaMaria","zipcodes":[{"area":"___","zipcode":"___"}]}]}
{"province":"Samar","cities":[{"city":"Catbalogan","zipcodes":[{"area":"___","zipcode":"___"}]},{"city":"Calbayog","zipcodes":[{"area":"___","zipcode":"___"}]},{"city":"Almagro","zipcodes":[{"area":"___","zipcode":"___"}]},{"city":"Basey","zipcodes":[{"area":"___","zipcode":"___"}]},{"city":"Calbiga","zipcodes":[{"area":"___","zipcode":"___"}]},{"city":"Daram","zipcodes":[{"area":"___","zipcode":"___"}]},{"city":"Gandara","zipcodes":[{"area":"___","zipcode":"___"}]},{"city":"Hinabangan","zipcodes":[{"area":"___","zipcode":"___"}]},{"city":"Jiabong","zipcodes":[{"area":"___","zipcode":"___"}]},{"city":"Marabut","zipcodes":[{"area":"___","zipcode":"___"}]},{"city":"Matuguinao","zipcodes":[{"area":"___","zipcode":"___"}]},{"city":"Motiong","zipcodes":[{"area":"___","zipcode":"___"}]},{"city":"Pagsanghan","zipcodes":[{"area":"___","zipcode":"___"}]},{"city":"Paranas","zipcodes":[{"area":"___","zipcode":"___"}]},{"city":"Pinabacdao","zipcodes":[{"area":"___","zipcode":"___"}]},{"city":"SanJorge","zipcodes":[{"area":"___","zipcode":"___"}]},{"city":"SanJoseDeBuan","zipcodes":[{"area":"___","zipcode":"___"}]},{"city":"SanSebastian","zipcodes":[{"area":"___","zipcode":"___"}]},{"city":"SantaMargarita","zipcodes":[{"area":"___","zipcode":"___"}]},{"city":"SantaRita","zipcodes":[{"area":"___","zipcode":"___"}]},{"city":"SantoNiño","zipcodes":[{"area":"___","zipcode":"___"}]},{"city":"Tagapul-an","zipcodes":[{"area":"___","zipcode":"___"}]},{"city":"Talalora","zipcodes":[{"area":"___","zipcode":"___"}]},{"city":"Tarangnan","zipcodes":[{"area":"___","zipcode":"___"}]},{"city":"Villareal","zipcodes":[{"area":"___","zipcode":"___"}]},{"city":"Zumarraga","zipcodes":[{"area":"___","zipcode":"___"}]}]}
{"province":"Sarangani","cities":[{"city":"Alabel","zipcodes":[{"area":"___","zipcode":"___"}]},{"city":"Glan","zipcodes":[{"area":"___","zipcode":"___"}]},{"city":"Kiamba","zipcodes":[{"area":"___","zipcode":"___"}]},{"city":"Maasim","zipcodes":[{"area":"___","zipcode":"___"}]},{"city":"Maitum","zipcodes":[{"area":"___","zipcode":"___"}]},{"city":"Malapatan","zipcodes":[{"area":"___","zipcode":"___"}]},{"city":"Malungon","zipcodes":[{"area":"___","zipcode":"___"}]}]}
{"province":"Shariff Kabunsuan","cities":[{"city":"Barira","zipcodes":[{"area":"___","zipcode":"___"}]},{"city":"Buldon","zipcodes":[{"area":"___","zipcode":"___"}]},{"city":"Datu Blah T. Sinsuat","zipcodes":[{"area":"___","zipcode":"___"}]},{"city":"Datu Odin Sinsuat","zipcodes":[{"area":"___","zipcode":"___"}]},{"city":"Kabuntalan","zipcodes":[{"area":"___","zipcode":"___"}]},{"city":"Matanog","zipcodes":[{"area":"___","zipcode":"___"}]},{"city":"NorthernKabuntalan","zipcodes":[{"area":"___","zipcode":"___"}]},{"city":"Parang","zipcodes":[{"area":"___","zipcode":"___"}]},{"city":"Sultan Kudarat","zipcodes":[{"area":"___","zipcode":"___"}]},{"city":"SultanMastura","zipcodes":[{"area":"___","zipcode":"___"}]},{"city":"Upi","zipcodes":[{"area":"___","zipcode":"___"}]}]}
{"province":"Siquijor","cities":[{"city":"Enrique Villanueva","zipcodes":[{"area":"___","zipcode":"___"}]},{"city":"Larena","zipcodes":[{"area":"___","zipcode":"___"}]},{"city":"Lazi","zipcodes":[{"area":"___","zipcode":"___"}]},{"city":"Maria","zipcodes":[{"area":"___","zipcode":"___"}]},{"city":"San Juan","zipcodes":[{"area":"___","zipcode":"___"}]},{"city":"Siquijor","zipcodes":[{"area":"___","zipcode":"___"}]}]}
{"province":"Sorsogon","cities":[{"city":"Barcelona","zipcodes":[{"area":"___","zipcode":"___"}]},{"city":"Bulan","zipcodes":[{"area":"___","zipcode":"___"}]},{"city":"Bulusan","zipcodes":[{"area":"___","zipcode":"___"}]},{"city":"Casiguran","zipcodes":[{"area":"___","zipcode":"___"}]},{"city":"Castilla","zipcodes":[{"area":"___","zipcode":"___"}]},{"city":"Donsol","zipcodes":[{"area":"___","zipcode":"___"}]},{"city":"Gubat","zipcodes":[{"area":"___","zipcode":"___"}]},{"city":"Irosin","zipcodes":[{"area":"___","zipcode":"___"}]},{"city":"Juban","zipcodes":[{"area":"___","zipcode":"___"}]},{"city":"Magallanes","zipcodes":[{"area":"___","zipcode":"___"}]},{"city":"Matnog","zipcodes":[{"area":"___","zipcode":"___"}]},{"city":"Pilar","zipcodes":[{"area":"___","zipcode":"___"}]},{"city":"PrietoDiaz","zipcodes":[{"area":"___","zipcode":"___"}]},{"city":"SantaMagdalena","zipcodes":[{"area":"___","zipcode":"___"}]}]}
{"province":"South Cotabato","cities":[{"city":"General Santos City","zipcodes":[{"area":"___","zipcode":"___"}]},{"city":"Koronadal City","zipcodes":[{"area":"___","zipcode":"___"}]},{"city":"Banga","zipcodes":[{"area":"___","zipcode":"___"}]},{"city":"LakeSebu","zipcodes":[{"area":"___","zipcode":"___"}]},{"city":"Norala","zipcodes":[{"area":"___","zipcode":"___"}]},{"city":"Polomolok","zipcodes":[{"area":"___","zipcode":"___"}]},{"city":"SantoNiño","zipcodes":[{"area":"___","zipcode":"___"}]},{"city":"Surallah","zipcodes":[{"area":"___","zipcode":"___"}]},{"city":"T'Boli","zipcodes":[{"area":"___","zipcode":"___"}]},{"city":"Tampakan","zipcodes":[{"area":"___","zipcode":"___"}]},{"city":"Tantangan","zipcodes":[{"area":"___","zipcode":"___"}]},{"city":"Tupi","zipcodes":[{"area":"___","zipcode":"___"}]}]}
{"province":"Southern Leyte","cities":[{"city":"Maasin","zipcodes":[{"area":"___","zipcode":"___"}]},{"city":"Anahawan","zipcodes":[{"area":"___","zipcode":"___"}]},{"city":"Bontoc","zipcodes":[{"area":"___","zipcode":"___"}]},{"city":"Hinunangan","zipcodes":[{"area":"___","zipcode":"___"}]},{"city":"Hinundayan","zipcodes":[{"area":"___","zipcode":"___"}]},{"city":"Libagon","zipcodes":[{"area":"___","zipcode":"___"}]},{"city":"Liloan","zipcodes":[{"area":"___","zipcode":"___"}]},{"city":"Limasawa","zipcodes":[{"area":"___","zipcode":"___"}]},{"city":"Macrohon","zipcodes":[{"area":"___","zipcode":"___"}]},{"city":"Malitbog","zipcodes":[{"area":"___","zipcode":"___"}]},{"city":"Padre Burgos","zipcodes":[{"area":"___","zipcode":"___"}]},{"city":"Pintuyan","zipcodes":[{"area":"___","zipcode":"___"}]},{"city":"SaintBernard","zipcodes":[{"area":"___","zipcode":"___"}]},{"city":"SanFrancisco","zipcodes":[{"area":"___","zipcode":"___"}]},{"city":"SanJuan","zipcodes":[{"area":"___","zipcode":"___"}]},{"city":"SanRicardo","zipcodes":[{"area":"___","zipcode":"___"}]},{"city":"Silago","zipcodes":[{"area":"___","zipcode":"___"}]},{"city":"Sogod","zipcodes":[{"area":"___","zipcode":"___"}]},{"city":"TomasOppus","zipcodes":[{"area":"___","zipcode":"___"}]}]}
{"province":"Sultan Kudarat","cities":[{"city":"Tacurong","zipcodes":[{"area":"___","zipcode":"___"}]},{"city":"Bagumbayan","zipcodes":[{"area":"___","zipcode":"___"}]},{"city":"Columbio","zipcodes":[{"area":"___","zipcode":"___"}]},{"city":"Esperanza","zipcodes":[{"area":"___","zipcode":"___"}]},{"city":"Isulan","zipcodes":[{"area":"___","zipcode":"___"}]},{"city":"Kalamansig","zipcodes":[{"area":"___","zipcode":"___"}]},{"city":"Lambayong","zipcodes":[{"area":"___","zipcode":"___"}]},{"city":"Lebak","zipcodes":[{"area":"___","zipcode":"___"}]},{"city":"Lutayan","zipcodes":[{"area":"___","zipcode":"___"}]},{"city":"Palimbang","zipcodes":[{"area":"___","zipcode":"___"}]},{"city":"President Quirino","zipcodes":[{"area":"___","zipcode":"___"}]},{"city":"Sen.NinoyAquino","zipcodes":[{"area":"___","zipcode":"___"}]}]}
{"province":"Sulu","cities":[{"city":"Hadji Panglima Tahil","zipcodes":[{"area":"___","zipcode":"___"}]},{"city":"Indanan","zipcodes":[{"area":"___","zipcode":"___"}]},{"city":"Jolo","zipcodes":[{"area":"___","zipcode":"___"}]},{"city":"KalingalanCaluang","zipcodes":[{"area":"___","zipcode":"___"}]},{"city":"Lugus","zipcodes":[{"area":"___","zipcode":"___"}]},{"city":"Luuk","zipcodes":[{"area":"___","zipcode":"___"}]},{"city":"Maimbung","zipcodes":[{"area":"___","zipcode":"___"}]},{"city":"Old Panamao","zipcodes":[{"area":"___","zipcode":"___"}]},{"city":"Omar","zipcodes":[{"area":"___","zipcode":"___"}]},{"city":"Pandami","zipcodes":[{"area":"___","zipcode":"___"}]},{"city":"PanglimaEstino","zipcodes":[{"area":"___","zipcode":"___"}]},{"city":"Pangutaran","zipcodes":[{"area":"___","zipcode":"___"}]},{"city":"Parang","zipcodes":[{"area":"___","zipcode":"___"}]},{"city":"Pata","zipcodes":[{"area":"___","zipcode":"___"}]},{"city":"Patikul","zipcodes":[{"area":"___","zipcode":"___"}]},{"city":"Siasi","zipcodes":[{"area":"___","zipcode":"___"}]},{"city":"Talipao","zipcodes":[{"area":"___","zipcode":"___"}]},{"city":"Tapul","zipcodes":[{"area":"___","zipcode":"___"}]},{"city":"Tongkil","zipcodes":[{"area":"___","zipcode":"___"}]}]}
{"province":"Surigao del Norte","cities":[{"city":"Surigao","zipcodes":[{"area":"___","zipcode":"___"}]},{"city":"Alegria","zipcodes":[{"area":"___","zipcode":"___"}]},{"city":"Bacuag","zipcodes":[{"area":"___","zipcode":"___"}]},{"city":"Burgos","zipcodes":[{"area":"___","zipcode":"___"}]},{"city":"Claver","zipcodes":[{"area":"___","zipcode":"___"}]},{"city":"Dapa","zipcodes":[{"area":"___","zipcode":"___"}]},{"city":"DelCarmen","zipcodes":[{"area":"___","zipcode":"___"}]},{"city":"GeneralLuna","zipcodes":[{"area":"___","zipcode":"___"}]},{"city":"Gigaquit","zipcodes":[{"area":"___","zipcode":"___"}]},{"city":"Mainit","zipcodes":[{"area":"___","zipcode":"___"}]},{"city":"Malimono","zipcodes":[{"area":"___","zipcode":"___"}]},{"city":"Pilar","zipcodes":[{"area":"___","zipcode":"___"}]},{"city":"Placer","zipcodes":[{"area":"___","zipcode":"___"}]},{"city":"SanBenito","zipcodes":[{"area":"___","zipcode":"___"}]},{"city":"SanFrancisco","zipcodes":[{"area":"___","zipcode":"___"}]},{"city":"SanIsidro","zipcodes":[{"area":"___","zipcode":"___"}]},{"city":"SantaMonica","zipcodes":[{"area":"___","zipcode":"___"}]},{"city":"Sison","zipcodes":[{"area":"___","zipcode":"___"}]},{"city":"Socorro","zipcodes":[{"area":"___","zipcode":"___"}]},{"city":"Tagana-an","zipcodes":[{"area":"___","zipcode":"___"}]},{"city":"Tubod","zipcodes":[{"area":"___","zipcode":"___"}]}]}
{"province":"Surigao del Sur","cities":[{"city":"Bislig","zipcodes":[{"area":"___","zipcode":"___"}]},{"city":"Tandag","zipcodes":[{"area":"___","zipcode":"___"}]},{"city":"Barobo","zipcodes":[{"area":"___","zipcode":"___"}]},{"city":"Bayabas","zipcodes":[{"area":"___","zipcode":"___"}]},{"city":"Cagwait","zipcodes":[{"area":"___","zipcode":"___"}]},{"city":"Cantilan","zipcodes":[{"area":"___","zipcode":"___"}]},{"city":"Carmen","zipcodes":[{"area":"___","zipcode":"___"}]},{"city":"Carrascal","zipcodes":[{"area":"___","zipcode":"___"}]},{"city":"Cortes","zipcodes":[{"area":"___","zipcode":"___"}]},{"city":"Hinatuan","zipcodes":[{"area":"___","zipcode":"___"}]},{"city":"Lanuza","zipcodes":[{"area":"___","zipcode":"___"}]},{"city":"Lianga","zipcodes":[{"area":"___","zipcode":"___"}]},{"city":"Lingig","zipcodes":[{"area":"___","zipcode":"___"}]},{"city":"Madrid","zipcodes":[{"area":"___","zipcode":"___"}]},{"city":"Marihatag","zipcodes":[{"area":"___","zipcode":"___"}]},{"city":"SanAgustin","zipcodes":[{"area":"___","zipcode":"___"}]},{"city":"SanMiguel","zipcodes":[{"area":"___","zipcode":"___"}]},{"city":"Tagbina","zipcodes":[{"area":"___","zipcode":"___"}]},{"city":"Tago","zipcodes":[{"area":"___","zipcode":"___"}]}]}
{"province":"Tarlac","cities":[{"city":"Tarlac","zipcodes":[{"area":"___","zipcode":"___"}]},{"city":"Anao","zipcodes":[{"area":"___","zipcode":"___"}]},{"city":"Bamban","zipcodes":[{"area":"___","zipcode":"___"}]},{"city":"Camiling","zipcodes":[{"area":"___","zipcode":"___"}]},{"city":"Capas","zipcodes":[{"area":"___","zipcode":"___"}]},{"city":"Concepcion","zipcodes":[{"area":"___","zipcode":"___"}]},{"city":"Gerona","zipcodes":[{"area":"___","zipcode":"___"}]},{"city":"LaPaz","zipcodes":[{"area":"___","zipcode":"___"}]},{"city":"Mayantoc","zipcodes":[{"area":"___","zipcode":"___"}]},{"city":"Moncada","zipcodes":[{"area":"___","zipcode":"___"}]},{"city":"Paniqui","zipcodes":[{"area":"___","zipcode":"___"}]},{"city":"Pura","zipcodes":[{"area":"___","zipcode":"___"}]},{"city":"Ramos","zipcodes":[{"area":"___","zipcode":"___"}]},{"city":"SanClemente","zipcodes":[{"area":"___","zipcode":"___"}]},{"city":"SanJose","zipcodes":[{"area":"___","zipcode":"___"}]},{"city":"SanManuel","zipcodes":[{"area":"___","zipcode":"___"}]},{"city":"SantaIgnacia","zipcodes":[{"area":"___","zipcode":"___"}]},{"city":"Victoria","zipcodes":[{"area":"___","zipcode":"___"}]}]}
{"province":"Tawi-Tawi","cities":[{"city":"Bongao","zipcodes":[{"area":"___","zipcode":"___"}]},{"city":"Languyan","zipcodes":[{"area":"___","zipcode":"___"}]},{"city":"Mapun","zipcodes":[{"area":"___","zipcode":"___"}]},{"city":"Panglima Sugala","zipcodes":[{"area":"___","zipcode":"___"}]},{"city":"Sapa-Sapa","zipcodes":[{"area":"___","zipcode":"___"}]},{"city":"Sibutu","zipcodes":[{"area":"___","zipcode":"___"}]},{"city":"Simunul","zipcodes":[{"area":"___","zipcode":"___"}]},{"city":"Sitangkai","zipcodes":[{"area":"___","zipcode":"___"}]},{"city":"South Ubian","zipcodes":[{"area":"___","zipcode":"___"}]},{"city":"Tandubas","zipcodes":[{"area":"___","zipcode":"___"}]},{"city":"TurtleIslands","zipcodes":[{"area":"___","zipcode":"___"}]}]}
{"province":"Zambales","cities":[{"city":"Olongapo","zipcodes":[{"area":"___","zipcode":"___"}]},{"city":"Botolan","zipcodes":[{"area":"___","zipcode":"___"}]},{"city":"Cabangan","zipcodes":[{"area":"___","zipcode":"___"}]},{"city":"Candelaria","zipcodes":[{"area":"___","zipcode":"___"}]},{"city":"Castillejos","zipcodes":[{"area":"___","zipcode":"___"}]},{"city":"Iba","zipcodes":[{"area":"___","zipcode":"___"}]},{"city":"Masinloc","zipcodes":[{"area":"___","zipcode":"___"}]},{"city":"Palauig","zipcodes":[{"area":"___","zipcode":"___"}]},{"city":"San Antonio","zipcodes":[{"area":"___","zipcode":"___"}]},{"city":"San Antonio","zipcodes":[{"area":"___","zipcode":"___"}]},{"city":"San Marcelino","zipcodes":[{"area":"___","zipcode":"___"}]},{"city":"San Narciso","zipcodes":[{"area":"___","zipcode":"___"}]},{"city":"SantaCruz","zipcodes":[{"area":"___","zipcode":"___"}]},{"city":"Subic","zipcodes":[{"area":"___","zipcode":"___"}]}]}
{"province":"Zamboanga del Norte","cities":[{"city":"Dapitan","zipcodes":[{"area":"___","zipcode":"___"}]},{"city":"Dipolog","zipcodes":[{"area":"___","zipcode":"___"}]},{"city":"Bacungan","zipcodes":[{"area":"___","zipcode":"___"}]},{"city":"Baliguian","zipcodes":[{"area":"___","zipcode":"___"}]},{"city":"Godod","zipcodes":[{"area":"___","zipcode":"___"}]},{"city":"Gutalac","zipcodes":[{"area":"___","zipcode":"___"}]},{"city":"Jose Dalman","zipcodes":[{"area":"___","zipcode":"___"}]},{"city":"Kalawit","zipcodes":[{"area":"___","zipcode":"___"}]},{"city":"Katipunan","zipcodes":[{"area":"___","zipcode":"___"}]},{"city":"LaLibertad","zipcodes":[{"area":"___","zipcode":"___"}]},{"city":"Labason","zipcodes":[{"area":"___","zipcode":"___"}]},{"city":"Liloy","zipcodes":[{"area":"___","zipcode":"___"}]},{"city":"Manukan","zipcodes":[{"area":"___","zipcode":"___"}]},{"city":"Mutia","zipcodes":[{"area":"___","zipcode":"___"}]},{"city":"Piñan","zipcodes":[{"area":"___","zipcode":"___"}]},{"city":"Polanco","zipcodes":[{"area":"___","zipcode":"___"}]},{"city":"Pres. Manuel A. Roxas","zipcodes":[{"area":"___","zipcode":"___"}]},{"city":"Rizal","zipcodes":[{"area":"___","zipcode":"___"}]},{"city":"Rizal","zipcodes":[{"area":"___","zipcode":"___"}]},{"city":"Sergio Osmeña Sr.","zipcodes":[{"area":"___","zipcode":"___"}]},{"city":"Siayan","zipcodes":[{"area":"___","zipcode":"___"}]},{"city":"Sibuco","zipcodes":[{"area":"___","zipcode":"___"}]},{"city":"Sibutad","zipcodes":[{"area":"___","zipcode":"___"}]},{"city":"Sindangan","zipcodes":[{"area":"___","zipcode":"___"}]},{"city":"Siocon","zipcodes":[{"area":"___","zipcode":"___"}]},{"city":"Sirawai","zipcodes":[{"area":"___","zipcode":"___"}]},{"city":"Tampilisan","zipcodes":[{"area":"___","zipcode":"___"}]}]}
{"province":"Zamboanga del Sur","cities":[{"city":"Pagadian","zipcodes":[{"area":"___","zipcode":"___"}]},{"city":"Zamboanga","zipcodes":[{"area":"___","zipcode":"___"}]},{"city":"Aurora","zipcodes":[{"area":"___","zipcode":"___"}]},{"city":"Bayog","zipcodes":[{"area":"___","zipcode":"___"}]},{"city":"Dimataling","zipcodes":[{"area":"___","zipcode":"___"}]},{"city":"Dinas","zipcodes":[{"area":"___","zipcode":"___"}]},{"city":"Dumalinao","zipcodes":[{"area":"___","zipcode":"___"}]},{"city":"Dumingag","zipcodes":[{"area":"___","zipcode":"___"}]},{"city":"Guipos","zipcodes":[{"area":"___","zipcode":"___"}]},{"city":"Josefina","zipcodes":[{"area":"___","zipcode":"___"}]},{"city":"Kumalarang","zipcodes":[{"area":"___","zipcode":"___"}]},{"city":"Labangan","zipcodes":[{"area":"___","zipcode":"___"}]},{"city":"Lakewood","zipcodes":[{"area":"___","zipcode":"___"}]},{"city":"Lapuyan","zipcodes":[{"area":"___","zipcode":"___"}]},{"city":"Mahayag","zipcodes":[{"area":"___","zipcode":"___"}]},{"city":"Margosatubig","zipcodes":[{"area":"___","zipcode":"___"}]},{"city":"Midsalip","zipcodes":[{"area":"___","zipcode":"___"}]},{"city":"Molave","zipcodes":[{"area":"___","zipcode":"___"}]},{"city":"Pitogo","zipcodes":[{"area":"___","zipcode":"___"}]},{"city":"Ramon Magsaysay","zipcodes":[{"area":"___","zipcode":"___"}]},{"city":"SanMiguel","zipcodes":[{"area":"___","zipcode":"___"}]},{"city":"SanPablo","zipcodes":[{"area":"___","zipcode":"___"}]},{"city":"Sominot","zipcodes":[{"area":"___","zipcode":"___"}]},{"city":"Tabina","zipcodes":[{"area":"___","zipcode":"___"}]},{"city":"Tambulig","zipcodes":[{"area":"___","zipcode":"___"}]},{"city":"Tigbao","zipcodes":[{"area":"___","zipcode":"___"}]},{"city":"Tukuran","zipcodes":[{"area":"___","zipcode":"___"}]},{"city":"Vincenzo A. Sagun","zipcodes":[{"area":"___","zipcode":"___"}]}]}
{"province":"Zamboanga Sibugay","cities":[{"city":"Alicia","zipcodes":[{"area":"___","zipcode":"___"}]},{"city":"Buug","zipcodes":[{"area":"___","zipcode":"___"}]},{"city":"Diplahan","zipcodes":[{"area":"___","zipcode":"___"}]},{"city":"Imelda","zipcodes":[{"area":"___","zipcode":"___"}]},{"city":"Ipil","zipcodes":[{"area":"___","zipcode":"___"}]},{"city":"Kabasalan","zipcodes":[{"area":"___","zipcode":"___"}]},{"city":"Mabuhay","zipcodes":[{"area":"___","zipcode":"___"}]},{"city":"Malangas","zipcodes":[{"area":"___","zipcode":"___"}]},{"city":"Naga","zipcodes":[{"area":"___","zipcode":"___"}]},{"city":"Olutanga","zipcodes":[{"area":"___","zipcode":"___"}]},{"city":"Payao","zipcodes":[{"area":"___","zipcode":"___"}]},{"city":"RosellerLim","zipcodes":[{"area":"___","zipcode":"___"}]},{"city":"Siay","zipcodes":[{"area":"___","zipcode":"___"}]},{"city":"Talusan","zipcodes":[{"area":"___","zipcode":"___"}]},{"city":"Titay","zipcodes":[{"area":"___","zipcode":"___"}]},{"city":"Tungawan","zipcodes":[{"area":"___","zipcode":"___"}]}]}
