{"province":"Aklan","cities":[{"city":"Altavas","zipcodes":[{"area":"Altavas","zipcode":"5616"}]},{"city":"Balete","zipcodes":[{"area":"Balete","zipcode":"5614"}]},{"city":"Banga","zipcodes":[{"area":"Banga","zipcode":"5601"}]},{"city":"Batan","zipcodes":[{"area":"Batan","zipcode":"5615"}]},{"city":"Buruanga","zipcodes":[{"area":"Buruanga","zipcode":"5609"}]},{"city":"Ibajay","zipcodes":[{"area":"Ibajay","zipcode":"5613"}]},{"city":"Kalibo","zipcodes":[{"area":"Kalibo","zipcode":"5600"}]},{"city":"Lezo","zipcodes":[{"area":"Lezo","zipcode":"5605"}]},{"city":"Libacao","zipcodes":[{"area":"Libacao","zipcode":"5602"}]},{"city":"Madalag","zipcodes":[{"area":"Madalag","zipcode":"5603"}]},{"city":"Makato","zipcodes":[{"area":"Makato","zipcode":"5611"}]},{"city":"Malay","zipcodes":[{"area":"Malay","zipcode":"5608"}]},{"city":"Malinao","zipcodes":[{"area":"Malinao","zipcode":"5606"}]},{"city":"New Washington","zipcodes":[{"area":"New Washington","zipcode":"5610"}]},{"city":"Numancia","zipcodes":[{"area":"Numancia","zipcode":"5604"}]},{"city":"Tangalan","zipcodes":[{"area":"Tangalan","zipcode":"5612"}]}]}
