{"province":"Albay","cities":[{"city":"Ligao","zipcodes":[{"area":"Ligao","zipcode":"4504"}]},{"city":"Tabaco","zipcodes":[{"area":"Tabaco","zipcode":"4511"}]},{"city":"Bacacay","zipcodes":[{"area":"Bacacay","zipcode":"4509"}]},{"city":"Camalig","zipcodes":[{"area":"Camalig","zipcode":"4502"}]},{"city":"Daraga","zipcodes":[{"area":"Daraga","zipcode":"4501"}]},{"city":"Guinobatan","zipcodes":[{"area":"Guinobatan","zipcode":"4503"}]},{"city":"Jovellar","zipcodes":[{"area":"Jovellar","zipcode":"4515"}]},{"city":"Libon","zipcodes":[{"area":"Libon","zipcode":"4507"}]},{"city":"Malilipot","zipcodes":[{"area":"Malilipot","zipcode":"4510"}]},{"city":"Malinao","zipcodes":[{"area":"Malinao","zipcode":"4512"}]},{"city":"Manito","zipcodes":[{"area":"Manito","zipcode":"4514"}]},{"city":"Oas","zipcodes":[{"area":"Oas","zipcode":"4504"}]},{"city":"Pio Duran (Malacbalac)","zipcodes":[{"area":"Pio Duran (Malacbalac)","zipcode":"4516"}]},{"city":"Polangui","zipcodes":[{"area":"Polangui","zipcode":"4506"}]},{"city":"Rapu-Rapu","zipcodes":[{"area":"Rapu-Rapu","zipcode":"4517"}]},{"city":"Sto. Domingo","zipcodes":[{"area":"Sto. Domingo","zipcode":"4508"}]},{"city":"Tiwi","zipcodes":[{"area":"Tiwi","zipcode":"4513"}]}]}
