{"province":"Bulacan","cities":[{"city":"Malolos","zipcodes":[{"area":"Malolos","zipcode":"3000"}]},{"city":"Meycauayan","zipcodes":[{"area":"Meycauayan","zipcode":"3020"}]},{"city":"San Jose del Monte","zipcodes":[{"area":"San Jose del Monte","zipcode":"3023"}]},{"city":"Angat","zipcodes":[{"area":"Angat","zipcode":"3012"}]},{"city":"Balagtas","zipcodes":[{"area":"Balagtas","zipcode":"3016"}]},{"city":"Baliuag","zipcodes":[{"area":"Baliuag","zipcode":"3006"}]},{"city":"Bocaue","zipcodes":[{"area":"Bocaue","zipcode":"3018"}]},{"city":"Bulacan","zipcodes":[{"area":"Bulacan","zipcode":"3017"}]},{"city":"Bustos","zipcodes":[{"area":"Bustos","zipcode":"3007"}]},{"city":"Calumpit","zipcodes":[{"area":"Calumpit","zipcode":"3003"}]},{"city":"Doña Remedios Trinidad","zipcodes":[{"area":"Doña Remedios Trinidad","zipcode":"3009"}]},{"city":"Guiguinto","zipcodes":[{"area":"Guiguinto","zipcode":"3015"}]},{"city":"Hagonoy","zipcodes":[{"area":"Hagonoy","zipcode":"3002"}]},{"city":"Marilao","zipcodes":[{"area":"Marilao","zipcode":"3019"}]},{"city":"Norzagaray","zipcodes":[{"area":"Norzagaray","zipcode":"3013"}]},{"city":"Obando","zipcodes":[{"area":"Obando","zipcode":"3021"}]},{"city":"Pandi","zipcodes":[{"area":"Pandi","zipcode":"3014"}]},{"city":"Paombong","zipcodes":[{"area":"Paombong","zipcode":"3001"}]},{"city":"Plaridel","zipcodes":[{"area":"Plaridel","zipcode":"3004"}]},{"city":"Pulilan","zipcodes":[{"area":"Pulilan","zipcode":"3005"}]},{"city":"San Ildefonso","zipcodes":[{"area":"San Ildefonso","zipcode":"3010"}]},{"city":"San Miguel","zipcodes":[{"area":"San Miguel","zipcode":"3011"}]},{"city":"San Rafael","zipcodes":[{"area":"San Rafael","zipcode":"3008"}]},{"city":"Sta. Maria","zipcodes":[{"area":"Sta. Maria","zipcode":"3022"}]}]}
