{"province":"Camarines Sur","cities":[{"city":"Iriga","zipcodes":[{"area":"Iriga","zipcode":"4431"}]},{"city":"Naga","zipcodes":[{"area":"Naga","zipcode":"4400"}]},{"city":"Baao","zipcodes":[{"area":"Baao","zipcode":"4432"}]},{"city":"Balatan","zipcodes":[{"area":"Balatan","zipcode":"4436"}]},{"city":"Bato","zipcodes":[{"area":"Bato","zipcode":"4435"}]},{"city":"Bombon","zipcodes":[{"area":"Bombon","zipcode":"4404"}]},{"city":"Buhi","zipcodes":[{"area":"Buhi","zipcode":"4433"}]},{"city":"Bula","zipcodes":[{"area":"Bula","zipcode":"4430"}]},{"city":"Cabusao","zipcodes":[{"area":"Cabusao","zipcode":"4406"}]},{"city":"Calabanga","zipcodes":[{"area":"Calabanga","zipcode":"4405"}]},{"city":"Camaligan","zipcodes":[{"area":"Camaligan","zipcode":"4401"}]},{"city":"Canaman","zipcodes":[{"area":"Canaman","zipcode":"4402"}]},{"city":"Caramoan","zipcodes":[{"area":"Caramoan","zipcode":"4429"}]},{"city":"Del Gallego","zipcodes":[{"area":"Del Gallego","zipcode":"4411"}]},{"city":"Gainza","zipcodes":[{"area":"Gainza","zipcode":"4412"}]},{"city":"Garchitorena","zipcodes":[{"area":"Garchitorena","zipcode":"4428"}]},{"city":"Goa","zipcodes":[{"area":"Goa","zipcode":"4422"}]},{"city":"Lagonoy","zipcodes":[{"area":"__","zipcode":"__"}]},{"city":"Libmanan","zipcodes":[{"area":"Libmanan","zipcode":"4407"}]},{"city":"Lupi","zipcodes":[{"area":"Lupi","zipcode":"4409"}]},{"city":"Magarao","zipcodes":[{"area":"Magarao","zipcode":"4403"}]},{"city":"Milaor","zipcodes":[{"area":"Milaor","zipcode":"4413"}]},{"city":"Minalabac","zipcodes":[{"area":"Minalabac","zipcode":"4414"}]},{"city":"Nabua","zipcodes":[{"area":"Nabua","zipcode":"4434"}]},{"city":"Ocampo","zipcodes":[{"area":"Ocampo","zipcode":"4419"}]},{"city":"Pamplona","zipcodes":[{"area":"Pamplona","zipcode":"4416"}]},{"city":"Pasacao","zipcodes":[{"area":"Pasacao","zipcode":"4417"}]},{"city":"Pili","zipcodes":[{"area":"Pili","zipcode":"4418"}]},{"city":"Presentacion","zipcodes":[{"area":"Presentacion","zipcode":"4424"}]},{"city":"Ragay","zipcodes":[{"area":"Ragay","zipcode":"4410"}]},{"city":"Sagnay","zipcodes":[{"area":"Sagnay","zipcode":"4421"}]},{"city":"San Fernando","zipcodes":[{"area":"San Fernando","zipcode":"4415"}]},{"city":"San Jose","zipcodes":[{"area":"San Jose","zipcode":"4423"}]},{"city":"Sipocot","zipcodes":[{"area":"Sipocot","zipcode":"4408"}]},{"city":"Siruma","zipcodes":[{"area":"Siruma","zipcode":"4427"}]},{"city":"Tigaon","zipcodes":[{"area":"Tigaon","zipcode":"4420"}]},{"city":"Tinambac","zipcodes":[{"area":"Tinambac","zipcode":"4426"}]}]}
