{"province":"Laguna","cities":[{"city":"Biñan","zipcodes":[{"area":"Biñan","zipcode":"4024"}]},{"city":"Botocan","zipcodes":[{"area":"Botocan","zipcode":"4006"}]},{"city":"Cabuyao","zipcodes":[{"area":"Cabuyao","zipcode":"4025"}]},{"city":"Calamba","zipcodes":[{"area":"Calamba","zipcode":"4027"},{"area":"Camp Vicente Lim","zipcode":"4029"},{"area":"Canlubang","zipcode":"4028"}]},{"city":"San Pablo","zipcodes":[{"area":"San Pablo","zipcode":"4000"}]},{"city":"San Pedro","zipcodes":[{"area":"San Pedro","zipcode":"4023"}]},{"city":"Santa Rosa","zipcodes":[{"area":"Santa Rosa","zipcode":"4026"}]},{"city":"Alaminos","zipcodes":[{"area":"Alaminos","zipcode":"4001"}]},{"city":"Bay","zipcodes":[{"area":"Bay","zipcode":"4033"}]},{"city":"Calauan","zipcodes":[{"area":"Calauan","zipcode":"4012"}]},{"city":"Cavinti","zipcodes":[{"area":"Cavinti","zipcode":"4013"}]},{"city":"Famy","zipcodes":[{"area":"Famy","zipcode":"4021"}]},{"city":"Kalayaan","zipcodes":[{"area":"Kalayaan","zipcode":"4015"}]},{"city":"Liliw","zipcodes":[{"area":"Liliw","zipcode":"4004"}]},{"city":"Los Baños","zipcodes":[{"area":"Los Baños","zipcode":"4030"},{"area":"UP Los Baños","zipcode":"4031"}]},{"city":"Luisiana","zipcodes":[{"area":"Luisiana","zipcode":"4032"}]},{"city":"Lumban","zipcodes":[{"area":"Lumban","zipcode":"4014"}]},{"city":"Mabitac","zipcodes":[{"area":"Mabitac","zipcode":"4020"}]},{"city":"Magdalena","zipcodes":[{"area":"Magdalena","zipcode":"4007"}]},{"city":"Majayjay","zipcodes":[{"area":"Majayjay","zipcode":"4005"}]},{"city":"Nagcarlan","zipcodes":[{"area":"Nagcarlan","zipcode":"4002"}]},{"city":"Paete","zipcodes":[{"area":"Paete","zipcode":"4016"}]},{"city":"Pagsanjan","zipcodes":[{"area":"Pagsanjan","zipcode":"4008"}]},{"city":"Pakil","zipcodes":[{"area":"Pakil","zipcode":"4017"}]},{"city":"Pangil","zipcodes":[{"area":"Pangil","zipcode":"4018"}]},{"city":"Pila","zipcodes":[{"area":"Pila","zipcode":"4010"}]},{"city":"Rizal","zipcodes":[{"area":"Rizal","zipcode":"4003"}]},{"city":"Santa Cruz","zipcodes":[{"area":"Santa Cruz","zipcode":"4009"}]},{"city":"Santa Maria","zipcodes":[{"area":"Santa Maria","zipcode":"4022"}]},{"city":"Siniloan","zipcodes":[{"area":"Siniloan","zipcode":"4019"}]},{"city":"Victoria","zipcodes":[{"area":"Victoria","zipcode":"4011"}]}]}
