{"province":"Lanao del Norte","cities":[{"city":"Iligan","zipcodes":[{"area":"Iligan","zipcode":"9200"}]},{"city":"Bacolod","zipcodes":[{"area":"Bacolod","zipcode":"9205"}]},{"city":"Baloi","zipcodes":[{"area":"Baloi","zipcode":"9217"}]},{"city":"Baroy","zipcodes":[{"area":"Baroy","zipcode":"9210"}]},{"city":"Kapatagan","zipcodes":[{"area":"Kapatagan","zipcode":"9214"}]},{"city":"Kauswagan","zipcodes":[{"area":"Kauswagan","zipcode":"9202"}]},{"city":"Kolambugan","zipcodes":[{"area":"Kolambugan","zipcode":"9207"}]},{"city":"Lala","zipcodes":[{"area":"Lala","zipcode":"9211"}]},{"city":"Linamon","zipcodes":[{"area":"Linamon","zipcode":"9201"}]},{"city":"Magsaysay","zipcodes":[{"area":"Magsaysay","zipcode":"9221"}]},{"city":"Maigo","zipcodes":[{"area":"Maigo","zipcode":"9206"}]},{"city":"Matungao","zipcodes":[{"area":"Matungao","zipcode":"9203"}]},{"city":"Munai","zipcodes":[{"area":"Munai","zipcode":"9219"}]},{"city":"Nunungan","zipcodes":[{"area":"Nunungan","zipcode":"9216"}]},{"city":"Pantao Ragat","zipcodes":[{"area":"Pantao Ragat","zipcode":"9208"}]},{"city":"Pantar","zipcodes":[{"area":"Pantar","zipcode":"9218"}]},{"city":"Poona Piagapo","zipcodes":[{"area":"Poona Piagapo","zipcode":"9204"}]},{"city":"Salvador","zipcodes":[{"area":"Salvador","zipcode":"9212"}]},{"city":"Sapad","zipcodes":[{"area":"Sapad","zipcode":"9213"}]},{"city":"Tagoloan","zipcodes":[{"area":"Tagoloan","zipcode":"9222"}]},{"city":"Tangcal","zipcodes":[{"area":"Tangcal","zipcode":"9220"}]},{"city":"Tubod","zipcodes":[{"area":"Tubod","zipcode":"9209"}]}]}
