{"province":"Ilo-Ilo","cities":[{"city":"Passi","zipcodes":[{"area":"Passi","zipcode":"3803"}]},{"city":"Ilo-ilo","zipcodes":[{"area":"Ilo-ilo","zipcode":"5009"}]},{"city":"Ajuy","zipcodes":[{"area":"Ajuy","zipcode":"5012"}]},{"city":"Alimodian","zipcodes":[{"area":"Alimodian","zipcode":"5028"}]},{"city":"Anilao","zipcodes":[{"area":"Anilao","zipcode":"5009"}]},{"city":"Badiangan","zipcodes":[{"area":"Badiangan","zipcode":"5033"}]},{"city":"Balasan","zipcodes":[{"area":"Balasan","zipcode":"5018"}]},{"city":"Banate","zipcodes":[{"area":"Banate","zipcode":"5010"}]},{"city":"Barotac Nuevo","zipcodes":[{"area":"Barotac Nuevo","zipcode":"5007"}]},{"city":"Barotac Viejo","zipcodes":[{"area":"Barotac Viejo","zipcode":"5011"}]},{"city":"Batad","zipcodes":[{"area":"Batad","zipcode":"5016"}]},{"city":"Bingawan","zipcodes":[{"area":"Bingawan","zipcode":"5041"}]},{"city":"Cabanatuan","zipcodes":[{"area":"Cabanatuan","zipcode":"5031"}]},{"city":"Calinog","zipcodes":[{"area":"Calinog","zipcode":"5040"}]},{"city":"Carles","zipcodes":[{"area":"Carles","zipcode":"5019"}]},{"city":"Concepcion","zipcodes":[{"area":"Concepcion","zipcode":"5013"}]},{"city":"Dingle","zipcodes":[{"area":"Dingle","zipcode":"5035"}]},{"city":"Dueñas","zipcodes":[{"area":"Dueñas","zipcode":"5038"}]},{"city":"Dumangas","zipcodes":[{"area":"Dumangas","zipcode":"5006"}]},{"city":"Estancia","zipcodes":[{"area":"Estancia","zipcode":"5017"}]},{"city":"Guimbal","zipcodes":[{"area":"Guimbal","zipcode":"5022"}]},{"city":"Igbaras","zipcodes":[{"area":"Igbaras","zipcode":"5029"}]},{"city":"Janiuay","zipcodes":[{"area":"Janiuay","zipcode":"5034"}]},{"city":"Lambunao","zipcodes":[{"area":"Lambunao","zipcode":"5042"}]},{"city":"Leganes","zipcodes":[{"area":"Leganes","zipcode":"5003"}]},{"city":"Lemery","zipcodes":[{"area":"Lemery","zipcode":"5043"}]},{"city":"Leon","zipcodes":[{"area":"Leon","zipcode":"5026"}]},{"city":"Maasin","zipcodes":[{"area":"Maasin","zipcode":"5030"}]},{"city":"Miagao","zipcodes":[{"area":"Miagao","zipcode":"5023"}]},{"city":"Mina","zipcodes":[{"area":"Mina","zipcode":"5032"}]},{"city":"New Lucena","zipcodes":[{"area":"New Lucena","zipcode":"5005"}]},{"city":"Oton","zipcodes":[{"area":"Oton","zipcode":"5020"}]},{"city":"Pavia","zipcodes":[{"area":"Pavia","zipcode":"5001"}]},{"city":"Pototan","zipcodes":[{"area":"Pototan","zipcode":"5008"}]},{"city":"SanDionisio","zipcodes":[{"area":"SanDionisio","zipcode":"5015"}]},{"city":"San Enrique","zipcodes":[{"area":"San Enrique","zipcode":"5036"}]},{"city":"San Joaquin","zipcodes":[{"area":"San Joaquin","zipcode":"5024"}]},{"city":"SanMiguel","zipcodes":[{"area":"SanMiguel","zipcode":"5025"}]},{"city":"SanRafael","zipcodes":[{"area":"SanRafael","zipcode":"5039"}]},{"city":"SantaBarbara","zipcodes":[{"area":"SantaBarbara","zipcode":"5002"}]},{"city":"Sara","zipcodes":[{"area":"Sara","zipcode":"5014"}]},{"city":"Tigbauan","zipcodes":[{"area":"Tigbauan","zipcode":"5021"}]},{"city":"Tubungan","zipcodes":[{"area":"Tubungan","zipcode":"5027"}]},{"city":"Zarraga","zipcodes":[{"area":"Zarraga","zipcode":"5004"}]}]}
