{"province":"Leyte","cities":[{"city":"Baybay","zipcodes":[{"area":"Baybay","zipcode":"6521"}]},{"city":"Ormoc","zipcodes":[{"area":"Ormoc","zipcode":"6541"}]},{"city":"Tacloban","zipcodes":[{"area":"Tacloban","zipcode":"6500"}]},{"city":"Abuyog","zipcodes":[{"area":"Abuyog","zipcode":"6510"}]},{"city":"Alangalang","zipcodes":[{"area":"Alangalang","zipcode":"6517"}]},{"city":"Albuera","zipcodes":[{"area":"Albuera","zipcode":"6542"}]},{"city":"Babatngon","zipcodes":[{"area":"Babatngon","zipcode":"6520"}]},{"city":"Barugo","zipcodes":[{"area":"Barugo","zipcode":"6519"}]},{"city":"Bato","zipcodes":[{"area":"Bato","zipcode":"6525"}]},{"city":"Burauen","zipcodes":[{"area":"Burauen","zipcode":"6516"}]},{"city":"Calubian","zipcodes":[{"area":"Calubian","zipcode":"6534"}]},{"city":"Capoocan","zipcodes":[{"area":"Capoocan","zipcode":"6530"}]},{"city":"Carigara","zipcodes":[{"area":"Carigara","zipcode":"6529"}]},{"city":"Dagami","zipcodes":[{"area":"Dagami","zipcode":"6515"}]},{"city":"Dulag","zipcodes":[{"area":"Dulag","zipcode":"6505"}]},{"city":"Hilongos","zipcodes":[{"area":"Hilongos","zipcode":"6524"}]},{"city":"Hindang","zipcodes":[{"area":"Hindang","zipcode":"6523"}]},{"city":"Inopacan","zipcodes":[{"area":"Inopacan","zipcode":"6522"}]},{"city":"Isabel","zipcodes":[{"area":"Isabel","zipcode":"6539"}]},{"city":"Jaro","zipcodes":[{"area":"Jaro","zipcode":"6527"}]},{"city":"Javier","zipcodes":[{"area":"Javier","zipcode":"6511"}]},{"city":"Julita","zipcodes":[{"area":"Julita","zipcode":"6506"}]},{"city":"Kananga","zipcodes":[{"area":"Kananga","zipcode":"6531"}]},{"city":"La Paz","zipcodes":[{"area":"La Paz","zipcode":"6508"}]},{"city":"Leyte","zipcodes":[{"area":"Leyte","zipcode":"6533"}]},{"city":"Macarthur","zipcodes":[{"area":"Macarthur","zipcode":"6509"}]},{"city":"Mahaplag","zipcodes":[{"area":"Mahaplag","zipcode":"6512"}]},{"city":"Matag-ob","zipcodes":[{"area":"Matag-ob","zipcode":"6532"}]},{"city":"Matalom","zipcodes":[{"area":"Matalom","zipcode":"6526"}]},{"city":"Mayorga","zipcodes":[{"area":"Mayorga","zipcode":"6507"}]},{"city":"Merida","zipcodes":[{"area":"Merida","zipcode":"6540"}]},{"city":"Palo","zipcodes":[{"area":"Palo","zipcode":"6501"}]},{"city":"Palompon","zipcodes":[{"area":"Palompon","zipcode":"6538"}]},{"city":"Pastrana","zipcodes":[{"area":"Pastrana","zipcode":"6514"}]},{"city":"San Isidro","zipcodes":[{"area":"San Isidro","zipcode":"6535"}]},{"city":"San Miguel","zipcodes":[{"area":"San Miguel","zipcode":"6518"}]},{"city":"Sta. Fe","zipcodes":[{"area":"Sta. Fe","zipcode":"6513"}]},{"city":"Tabango","zipcodes":[{"area":"Tabango","zipcode":"6536"}]},{"city":"Tabontabon","zipcodes":[{"area":"Tabontabon","zipcode":"6504"}]},{"city":"Tanauan","zipcodes":[{"area":"Tanauan","zipcode":"6502"}]},{"city":"Tolosa","zipcodes":[{"area":"Tolosa","zipcode":"6503"}]},{"city":"Tunga","zipcodes":[{"area":"Tunga","zipcode":"6528"}]},{"city":"Villaba","zipcodes":[{"area":"Villaba","zipcode":"6537"}]}]}
