{"province":"Metro Manila","cities":[{"city":"Makati","zipcodes":[{"area":"Makati","zipcode":"1228"},{"area":"Ayala-Paseo de Roxas","zipcode":"1226"},{"area":"Bangkal","zipcode":"1233"},{"area":"Bel-air","zipcode":"1209"},{"area":"Cembo","zipcode":"1214"},{"area":"Comembo","zipcode":"1217"},{"area":"Dasmarinas Village North","zipcode":"1221"},{"area":"Dasmarinas Village South","zipcode":"1222"},{"area":"Forbes Park North","zipcode":"1219"},{"area":"Forbes Park South","zipcode":"1220"},{"area":"Fort Bonifacio Naval Stn.","zipcode":"1202"},{"area":"Fort Bonifacio (Camp)","zipcode":"1201"},{"area":"Greenbelt","zipcode":"1228"},{"area":"Guadalupe Nuevo","zipcode":"1212"},{"area":"Guadalupe Viejo","zipcode":"1211"},{"area":"Kasilawan","zipcode":"1206"},{"area":"La Paz-Singkamas-Tejeros","zipcode":"1204"},{"area":"Legaspi Village","zipcode":"1229"},{"area":"Magallanes Village","zipcode":"1232"},{"area":"Makati Commercial Ctr.","zipcode":"1224"},{"area":"Makati CPO & Buendia Ave","zipcode":"1200"},{"area":"Olympia & Carmona","zipcode":"1207"},{"area":"Palanan","zipcode":"1235"},{"area":"Pasong Tamo & Ecology Vill","zipcode":"1231"},{"area":"Pembo","zipcode":"1218"},{"area":"Pinagkaisahan-Pitogo","zipcode":"1213"},{"area":"Pio del Pilar","zipcode":"1230"},{"area":"Poblacion","zipcode":"1210"},{"area":"Rembo (East)","zipcode":"1216"},{"area":"Rembo (West)","zipcode":"1215"},{"area":"Salcedo Village","zipcode":"1227"},{"area":"San Antonio Village","zipcode":"1203"},{"area":"San Isidro","zipcode":"1234"},{"area":"San Lorenzo Village","zipcode":"1223"},{"area":"Sta. Cruz","zipcode":"1205"},{"area":"Urdaneta Village","zipcode":"1225"},{"area":"Valenzuela, Santiago, Rizal","zipcode":"1208"}]},{"city":"Manila","zipcodes":[{"area":"Binondo","zipcode":"1006"},{"area":"Intramuros","zipcode":"1002"},{"area":"Malate","zipcode":"1004"},{"area":"Manila CPO - Ermita","zipcode":"1000"},{"area":"Paco","zipcode":"1007"},{"area":"Pandacan","zipcode":"1011"},{"area":"Port Area (South)","zipcode":"1018"},{"area":"Quiapo","zipcode":"1001"},{"area":"Sampaloc East","zipcode":"1008"},{"area":"Sampaloc West","zipcode":"1015"},{"area":"San Andres Bukid","zipcode":"1017"},{"area":"San Miguel","zipcode":"1005"},{"area":"San Nicolas","zipcode":"1010"},{"area":"Sta. Ana","zipcode":"1009"},{"area":"Sta. Cruz North","zipcode":"1014"},{"area":"Sta. Cruz South","zipcode":"1003"},{"area":"Sta. Mesa","zipcode":"1016"},{"area":"Tondo North","zipcode":"1013"},{"area":"Tondo South","zipcode":"1012"},{"area":"Ermita P.O. Boxes","zipcode":"1045"},{"area":"Sta Cruz P.O. Boxes","zipcode":"1040"},{"area":"Sta. Mesa P.O. Boxes","zipcode":"1035"},{"area":"Big Users Asian Dev’t. Bank","zipcode":"0980"},{"area":"Big Users Ateneo De Mla. Univ.","zipcode":"0917"},{"area":"Big Users Bureau Of Plant Industry","zipcode":"0912"},{"area":"Big Users Caltex (Philippines)","zipcode":"0926"},{"area":"Big Users China Banking Corp.","zipcode":"0925"},{"area":"Big Users De La Salle University","zipcode":"0922"},{"area":"Big Users Dept. Of Justice","zipcode":"0970"},{"area":"Big Users Dept. Of Labor & Emplymt.","zipcode":"0910"},{"area":"Big Users Don Stewart Evangelic Assn.","zipcode":"0923"},{"area":"Big Users Far East Broadcasting Corp.","zipcode":"0902"},{"area":"Big Users Filipino Star","zipcode":"0905"},{"area":"Big Users Fil-japan Shipping Co.","zipcode":"0918"},{"area":"Big Users In-rl. Correspondence Inst.","zipcode":"0915"},{"area":"Big Users Int’l. Rice Research Inst.","zipcode":"0960"},{"area":"Big Users Manila Bulletin","zipcode":"0900"},{"area":"Big Users Manila Hilton","zipcode":"0903"},{"area":"Big Users Manila Hotel","zipcode":"0913"},{"area":"Big Users Manila Medical Center","zipcode":"0906"},{"area":"Big Users Manila Midtown Hotel","zipcode":"0950"},{"area":"Big Users Midland Hotel","zipcode":"0904"},{"area":"Big Users Nat’l. Census & Stat. Off.","zipcode":"0911"},{"area":"Big Users Pan-fil. Shipping","zipcode":"0908"},{"area":"Big Users Phil. Campus Crusade","zipcode":"0928"},{"area":"Big Users Phil. National Bank","zipcode":"0940"},{"area":"Big Users Phil. Plaza Hotel","zipcode":"0921"},{"area":"Big Users Phil. Refining Co.","zipcode":"0914"},{"area":"Big Users Phil. Union College","zipcode":"0901"},{"area":"Big Users Phil. Veterans Affair Off.","zipcode":"0927"},{"area":"Big Users Philamlife","zipcode":"0990"},{"area":"Big Users Radio Veritas","zipcode":"0916"},{"area":"Big Users San Miguel Corp.","zipcode":"0907"},{"area":"Big Users Summer Inst. Of Linguistic","zipcode":"0909"},{"area":"Big Users Sunbursts Publications","zipcode":"0920"},{"area":"Big Users Unilever (Phil. Refining Go.)","zipcode":"0914"},{"area":"Big Users Us Embassy","zipcode":"0930"},{"area":"Big Users Western Police Force","zipcode":"0919"},{"area":"Big Users World Map","zipcode":"0924"}]},{"city":"Caloocan","zipcodes":[{"area":"Amparo Subdivision","zipcode":"1425"},{"area":"Bagong Silang","zipcode":"1428"},{"area":"Bagumbong/Pag-asa","zipcode":"1421"},{"area":"Bankers Village","zipcode":"1426"},{"area":"Capitol Parkland Subd.","zipcode":"1424"},{"area":"Kaybiga/Deparo","zipcode":"1420"},{"area":"Lilles Ville Subd.","zipcode":"1423"},{"area":"Novaliches North","zipcode":"1422"},{"area":"Tala Leprosarium","zipcode":"1427"},{"area":"Victory Heights","zipcode":"1427"},{"area":"1 St Avenue - West","zipcode":"1405"},{"area":"2 St Avenue - West","zipcode":"1405"},{"area":"3 St Avenue - West","zipcode":"1405"},{"area":"4 St Avenue - West","zipcode":"1405"},{"area":"5 St Avenue - West","zipcode":"1405"},{"area":"6 St Avenue - West","zipcode":"1405"},{"area":"7 St Avenue - West","zipcode":"1405"},{"area":"Baesa","zipcode":"1401"},{"area":"Fish Market","zipcode":"1411"},{"area":"Grace Park East","zipcode":"1403"},{"area":"Grace Park West","zipcode":"1406"},{"area":"Isla de Cocomo","zipcode":"1412"},{"area":"Kaloocan City CPO","zipcode":"1400"},{"area":"Kapitbahayan East","zipcode":"1413"},{"area":"Kanluran Village","zipcode":"1409"},{"area":"Maypajo","zipcode":"1410"},{"area":"San Jose","zipcode":"1404"},{"area":"Sangandaan","zipcode":"1408"},{"area":"Sta. Quiteria","zipcode":"1402"},{"area":"University Hills","zipcode":"1407"}]},{"city":"Las Piñas","zipcodes":[{"area":"Almanza","zipcode":"1750"},{"area":"Angela Village","zipcode":"1749"},{"area":"Cut-cut","zipcode":"1743"},{"area":"Gatchalian Subdivision","zipcode":"1745"},{"area":"Las Pinas Cpo","zipcode":"1740"},{"area":"Manila Doctors Village","zipcode":"1748"},{"area":"Manuyo","zipcode":"1744"},{"area":"Pulang Lupa","zipcode":"1742"},{"area":"Remarville Subdivision","zipcode":"1741"},{"area":"Soldiers Hills Subdivision","zipcode":"1752"},{"area":"T.s. Cruz Subdivision","zipcode":"1751"},{"area":"Talon, Moonwalk","zipcode":"1747"},{"area":"Verdant Acres Subdivision","zipcode":"1746"},{"area":"Zapote","zipcode":"1742"}]},{"city":"Mandaluyong","zipcodes":[{"area":"East Edsa","zipcode":"1554"},{"area":"Greenhills South","zipcode":"1556"},{"area":"Cpo","zipcode":"1550"},{"Phil. Natl. Mental Hospital":"1553"},{"area":"Shaw Boulevard","zipcode":"1552"},{"area":"Vergara","zipcode":"1551"},{"area":"Wack Wack Golf","zipcode":"1555"}]},{"city":"Malabon","zipcodes":[{"area":"Acacia","zipcode":"1474"},{"area":"Araneta Subdivision","zipcode":"1476"},{"area":"Dampalit","zipcode":"1480"},{"area":"Flores","zipcode":"1471"},{"area":"Kaunlaran Village","zipcode":"1409"},{"area":"Longos","zipcode":"1472"},{"area":"Malabon","zipcode":"1470"},{"area":"Maysilo","zipcode":"1477"},{"area":"Muzon","zipcode":"1479"},{"area":"Potrero","zipcode":"1475"},{"area":"Santolan","zipcode":"1478"},{"area":"Tonsuya","zipcode":"1473"}]},{"city":"Marikina","zipcodes":[{"area":"Bagong Nayon","zipcode":"1820"},{"area":"Barangka","zipcode":"1803"},{"area":"Cogeo","zipcode":"1820"},{"area":"Concepcion 1","zipcode":"1807"},{"area":"Concepcion 2","zipcode":"1811"},{"area":"Cupang","zipcode":"1820"},{"area":"Industrial Valley","zipcode":"1802"},{"area":"J. De La Pena","zipcode":"1804"},{"area":"Langhaya","zipcode":"1820"},{"area":"Malanday","zipcode":"1805"},{"area":"Mambagat","zipcode":"1820"},{"area":"Marikina Cpo-sta.elena- Sto. N","zipcode":"1800"},{"area":"Marikina Heights","zipcode":"1810"},{"area":"Mayamot","zipcode":"1820"},{"area":"Nangka","zipcode":"1808"},{"area":"North/West Of Marikina River","zipcode":"1806"},{"area":"Parang","zipcode":"1809"},{"area":"San Roque-calumpang","zipcode":"1801"},{"area":"Tanong","zipcode":"1803"}]},{"city":"Muntinlupa","zipcodes":[{"area":"Ayala Alabang","zipcode":"1799"},{"area":"Ayala Alabang Subdivision","zipcode":"1780"},{"area":"Bayanan/Putatan","zipcode":"1772"},{"area":"Bule/Cupang","zipcode":"1771"},{"area":"Muntinlupa:Cpo","zipcode":"1770"},{"area":"Pearl Heights","zipcode":"1775"},{"area":"Pleasant Village","zipcode":"1777"},{"area":"Poblacion","zipcode":"1776"},{"area":"Susana Heights","zipcode":"1774"},{"area":"Tunasan","zipcode":"1773"}]},{"city":"Navotas","zipcodes":[{"area":"Fish Market","zipcode":"1411"},{"area":"Isla De Cocomo","zipcode":"1412"},{"area":"Kapitbahayan East","zipcode":"1413"},{"area":"Kaunlaran Village","zipcode":"1409"},{"area":"Navotas","zipcode":"1485"},{"area":"Tangos","zipcode":"1489"},{"area":"Tanza","zipcode":"1490"}]},{"city":"Parañaque","zipcodes":[{"area":"Aeropark Subdivision","zipcode":"1714"},{"area":"Baclaran","zipcode":"1702"},{"area":"Better Living Subdivision","zipcode":"1711"},{"area":"Bf Homes 1","zipcode":"1720"},{"area":"Bf Homes 2","zipcode":"1718"},{"area":"Executive Heights Subd.","zipcode":"1710"},{"area":"Ireneville Ii","zipcode":"1714"},{"area":"Ireneville Subdivision I & Ii","zipcode":"1719"},{"area":"Manila Memorial Park","zipcode":"1717"},{"area":"Marina Subd. (Reclamation)","zipcode":"1703"},{"area":"Maywood I","zipcode":"1719"},{"area":"Maywood Village Ii","zipcode":"1716"},{"area":"Merville Park","zipcode":"1709"},{"area":"Miramar Subdivision","zipcode":"1712"},{"area":"Moonwalk","zipcode":"1709"},{"area":"Multinational Village","zipcode":"1708"},{"area":"Ninoy Aquino Int’l. Airport","zipcode":"1705"},{"area":"Paranaque:Cpo","zipcode":"1700"},{"area":"Pulo","zipcode":"1706"},{"area":"San Antonio Valley 11 & 12","zipcode":"1707"},{"area":"San Antonio Valley I","zipcode":"1715"},{"area":"South Admiral Village","zipcode":"1709"},{"area":"Sto. Nino","zipcode":"1704"},{"area":"Tambo","zipcode":"1701"},{"area":"United:Paranaque:Subd","zipcode":"1713"}]},{"city":"Pasay","zipcodes":[{"area":"Domestic Airport Port","zipcode":"1301"},{"area":"Manila Bay (Reclamation)","zipcode":"1308"},{"area":"Pasay City Cpo Malibay","zipcode":"1300"},{"area":"Picc (Reclamation Area)","zipcode":"1307"},{"area":"San Isidro","zipcode":"1306"},{"area":"San Jose","zipcode":"1305"},{"area":"San Rafael","zipcode":"1302"},{"area":"San Roque","zipcode":"1303"},{"area":"Santa Clara","zipcode":"1304"},{"area":"Villamor Airbase","zipcode":"1309"}]},{"city":"Pasig","zipcodes":[{"area":"Caniogan","zipcode":"1606"},{"area":"Green Park","zipcode":"1612"},{"area":"Kapitolyo","zipcode":"1603"},{"area":"Manggahan","zipcode":"1611"},{"area":"Maybunga","zipcode":"1607"},{"area":"Ortigas Po","zipcode":"1605"},{"area":"Pasig Cpo","zipcode":"1600"},{"area":"Pinagbuhatan","zipcode":"1602"},{"area":"Rosario","zipcode":"1609"},{"area":"San Joaquin","zipcode":"1601"},{"area":"Santolan","zipcode":"1610"},{"area":"Sta. Lucia","zipcode":"1608"},{"area":"Ugong","zipcode":"1604"}]},{"city":"Pateros","zipcodes":[{"area":"Aguho","zipcode":"1620"},{"area":"Sta. Ana","zipcode":"1621"}]},{"city":"Quezon City","zipcodes":[{"area":"Araneta Center P.O. Boxes","zipcode":"1135"},{"area":"Broadway Center P.O. Boxes","zipcode":"1141"},{"area":"Murphy Dist. P.O. Boxes","zipcode":"1138"},{"area":"Novaliches P.O. Boxes","zipcode":"1147"},{"area":"UP P.O. Boxes","zipcode":"1144"},{"area":"Alicia","zipcode":"1105"},{"area":"Amihan","zipcode":"1102"},{"area":"Apolonio Samson","zipcode":"1106"},{"area":"Baesa","zipcode":"1106"},{"area":"Bagbag","zipcode":"1116"},{"area":"Bagong Bayan","zipcode":"1110"},{"area":"Bagong Buhay","zipcode":"1109"},{"area":"Bagong Lipunan","zipcode":"1111"},{"area":"Bagong Pag-asa","zipcode":"1105"},{"area":"Bagong Silangan","zipcode":"1119"},{"area":"Bahay Toro","zipcode":"1106"},{"area":"Balingasa","zipcode":"1115"},{"area":"Balintawak","zipcode":"1106"},{"area":"Batasan Hills","zipcode":"1126"},{"area":"Bayanihan","zipcode":"1109"},{"area":"Bf Homes","zipcode":"1120"},{"area":"Blue Ridge","zipcode":"1109"},{"area":"Botocan","zipcode":"1101"},{"area":"Bungad","zipcode":"1105"},{"area":"Camp Aguinaldo","zipcode":"1110"},{"area":"Capitol Hills/Park","zipcode":"1126"},{"area":"Capri","zipcode":"1117"},{"area":"Central","zipcode":"1100"},{"area":"Claro","zipcode":"1102"},{"area":"Commonwealth","zipcode":"1121"},{"area":"Crame","zipcode":"1111"},{"area":"Cubao","zipcode":"1109"},{"area":"Culiat","zipcode":"1128"},{"area":"Damar","zipcode":"1115"},{"area":"Damayan","zipcode":"1104"},{"area":"Damayan Lagi","zipcode":"1112"},{"area":"Damong Maliit","zipcode":"1123"},{"area":"Del Monte","zipcode":"1105"},{"area":"Diliman","zipcode":"1101"},{"area":"Dioquino Zobel","zipcode":"1109"},{"area":"Docqa Imelda","zipcode":"1113"},{"area":"Don Manuel","zipcode":"1113"},{"area":"Dona Aurora","zipcode":"1113"},{"area":"Dona Faustina Subd","zipcode":"1125"},{"area":"Dona Jc)Sefa","zipcode":"1113"},{"area":"Duyan-duyan","zipcode":"1102"},{"area":"E. Roe)Riguez.","zipcode":"1102"},{"area":"Escopa","zipcode":"1109"},{"area":"Fairview","zipcode":"1118"},{"area":"Fairview North","zipcode":"1121"},{"area":"Fairview South","zipcode":"1122"},{"area":"Gantol","zipcode":"1113"},{"area":"Gintong Silahis","zipcode":"1114"},{"area":"Gulod","zipcode":"1117"},{"area":"Holy Spirit","zipcode":"1127"},{"area":"Horseshoe","zipcode":"1112"},{"area":"Immaculate Concepcion","zipcode":"1111"},{"area":"Kaligayahan","zipcode":"1124"},{"area":"Kalusugan","zipcode":"1112"},{"area":"Kamias","zipcode":"1102"},{"area":"Kamuning","zipcode":"1103"},{"area":"Katipunan","zipcode":"1105"},{"area":"Kaunlaran","zipcode":"1111"},{"area":"Kristong Hari","zipcode":"1112"},{"area":"Krus Na Ligas","zipcode":"1101"},{"area":"La Loma","zipcode":"1114"},{"area":"Langing Handa","zipcode":"1103"},{"area":"Libis","zipcode":"1110"},{"area":"Lourdes","zipcode":"1114"},{"area":"Loyola Heights","zipcode":"1108"},{"area":"Maharlika","zipcode":"1114"},{"area":"Malaya","zipcode":"1101"},{"area":"Mangga","zipcode":"1109"},{"area":"Manresa","zipcode":"1115"},{"area":"Mariana","zipcode":"1112"},{"area":"Mariblo","zipcode":"1104"},{"area":"Marilag","zipcode":"1109"},{"area":"Masagana","zipcode":"1109"},{"area":"Masambong","zipcode":"1115"},{"area":"Matalahib","zipcode":"1114"},{"area":"Matandang Balara","zipcode":"1119"},{"area":"Milagrosa","zipcode":"1109"},{"area":"Nagkaisang Nayon","zipcode":"1125"},{"area":"Nayon Kaunlaran","zipcode":"1104"},{"area":"New Era","zipcode":"1107"},{"area":"Novaliches Proper","zipcode":"1121"},{"area":"Obrero","zipcode":"1103"},{"area":"Old Capitol Site","zipcode":"1101"},{"area":"Paang Bundok","zipcode":"1114"},{"area":"Pag-ibig Sa Nayon","zipcode":"1115"},{"area":"Paligsahan","zipcode":"1103"},{"area":"Paltok","zipcode":"1105"},{"area":"Pansol","zipcode":"1108"},{"area":"Paraiso","zipcode":"1104"},{"area":"Pasong Putik","zipcode":"1118"},{"area":"Pasong Tamo","zipcode":"1107"},{"area":"Payatas","zipcode":"1119"},{"area":"Phil-am","zipcode":"1104"},{"area":"Pinagkaisahan","zipcode":"1111"},{"area":"Pinahan","zipcode":"1100"},{"area":"Project 4","zipcode":"1109"},{"area":"Project 6","zipcode":"1100"},{"area":"Project 7","zipcode":"1105"},{"area":"Project 8","zipcode":"1106"},{"area":"Quezon:City:Cpo","zipcode":"1100"},{"area":"Quirino:Dist. (Proj. 2 & 3)","zipcode":"1102"},{"area":"R. Magsaysay","zipcode":"1105"},{"area":"Roxas District","zipcode":"1103"},{"area":"Sacred Heart","zipcode":"1103"},{"area":"Salumbato","zipcode":"1106"},{"area":"Salvacion","zipcode":"1114"},{"area":"San Agustin","zipcode":"1117"},{"area":"San Antonio","zipcode":"1105"},{"area":"San Bartolome","zipcode":"1116"},{"area":"San Isidro","zipcode":"1113"},{"area":"San Isidro Labrador","zipcode":"1114"},{"area":"San Jose","zipcode":"1115"},{"area":"San Roque","zipcode":"1109"},{"area":"San Vicente","zipcode":"1101"},{"area":"Sangandaan","zipcode":"1116"},{"area":"Santa Cruz","zipcode":"1104"},{"area":"Santa Lucia","zipcode":"1117"},{"area":"Santa Monica","zipcode":"1117"},{"area":"Santa Teresita","zipcode":"1114"},{"area":"Sauyo","zipcode":"1116"},{"area":"Sienna","zipcode":"1114"},{"area":"Sikatuna Village","zipcode":"1101"},{"area":"Silangan","zipcode":"1102"},{"area":"Socorro","zipcode":"1109"},{"area":"South Triangle","zipcode":"1103"},{"area":"St. Ignatius","zipcode":"1110"},{"area":"St. Martin De Porres","zipcode":"1111"},{"area":"St. Peter","zipcode":"1114"},{"area":"Sto. Cristo","zipcode":"1105"},{"area":"Sto. Nino","zipcode":"1113"},{"area":"Tagumpay","zipcode":"1109"},{"area":"Talampas","zipcode":"1110"},{"area":"Talayan","zipcode":"1104"},{"area":"Talipapa","zipcode":"1116"},{"area":"Tandang Sora","zipcode":"1116"},{"area":"Tatalon","zipcode":"1113"},{"area":"Teachers Village","zipcode":"1101"},{"area":"Ugong Norte","zipcode":"1110"},{"area":"Unang Sigaw","zipcode":"1106"},{"area":"Univ. Of The Phils. Po","zipcode":"1101"},{"area":"Up Village","zipcode":"1101"},{"area":"Valencia","zipcode":"1112"},{"area":"Vasra","zipcode":"1128"},{"area":"Veterans Village","zipcode":"1105"},{"area":"Villa Maria Clara","zipcode":"1109"},{"area":"Violago Homes","zipcode":"1120"},{"area":"West Triangle","zipcode":"1104"},{"area":"White Plains","zipcode":"1110"}]},{"city":"San Juan","zipcodes":[{"area":"Eisenhower-crame","zipcode":"1504"},{"area":"Greenhills North","zipcode":"1503"},{"area":"Greenhills Po","zipcode":"1502"},{"area":"San Juan","zipcode":"1500"}]},{"city":"Taguig","zipcodes":[{"area":"Bay Breeze Exec. Village","zipcode":"1636"},{"area":"Bicutan","zipcode":"1631"},{"area":"Bicutan Lower","zipcode":"1632"},{"area":"Bicutan Upper","zipcode":"1633"},{"area":"Bicutan Western","zipcode":"1630"},{"area":"Ligid","zipcode":"1638"},{"area":"Nichols ? Mckinley","zipcode":"1634"},{"area":"Tuktukan","zipcode":"1637"}]},{"city":"Valenzuela","zipcodes":[{"area":"Arkong Bato-rincon-pasolo-mala","zipcode":"1444"},{"area":"Balangkas-caloong","zipcode":"1445"},{"area":"Dalandan-west Canumay","zipcode":"1443"},{"area":"East Canumay ? Lawang Bato Pun","zipcode":"1447"},{"area":"Fortune Vil. - Paso de Blas-GE","zipcode":"1442"},{"area":"Karuhatan","zipcode":"1441"},{"area":"Lingunan","zipcode":"1446"},{"area":"Mapulang Lupa","zipcode":"1448"},{"area":"Valenzuela CPO-Malinta","zipcode":"1440"},{"area":"Valenzuela P.O. Boxes","zipcode":"1469"},{"area":"Big Users Far East Broadcasting Corp.","zipcode":"560"},{"area":"Big Users Febias Col. of the Bible","zipcode":"550"}]}]}