{"province":"Northern Samar","cities":[{"city":"Allen","zipcodes":[{"area":"Allen","zipcode":"6405"}]},{"city":"Biri","zipcodes":[{"area":"Biri","zipcode":"6410"}]},{"city":"Bobon","zipcodes":[{"area":"Bobon","zipcode":"6401"}]},{"city":"Capul","zipcodes":[{"area":"Capul","zipcode":"6408"}]},{"city":"Catarman","zipcodes":[{"area":"Catarman","zipcode":"6400"}]},{"city":"Catubig","zipcodes":[{"area":"Catubig","zipcode":"6418"}]},{"city":"Gamay","zipcodes":[{"area":"Gamay","zipcode":"6422"}]},{"city":"Laoang","zipcodes":[{"area":"Laoang","zipcode":"6411"}]},{"city":"Lapinig","zipcodes":[{"area":"Lapinig","zipcode":"6423"}]},{"city":"Las Navas","zipcodes":[{"area":"Las Navas","zipcode":"6420"}]},{"city":"Lavezares","zipcodes":[{"area":"Lavezares","zipcode":"6404"}]},{"city":"Lope de Vega","zipcodes":[{"area":"Lope de Vega","zipcode":"6403"}]},{"city":"Mapanas","zipcodes":[{"area":"Mapanas","zipcode":"6412"}]},{"city":"Mondragon","zipcodes":[{"area":"Mondragon","zipcode":"6417"}]},{"city":"Palapag","zipcodes":[{"area":"Palapag","zipcode":"6421"}]},{"city":"Pambujan","zipcodes":[{"area":"Pambujan","zipcode":"6413"}]},{"city":"Rosario","zipcodes":[{"area":"Rosario","zipcode":"6416"}]},{"city":"San Antonio","zipcodes":[{"area":"San Antonio","zipcode":"6407"}]},{"city":"San Isidro","zipcodes":[{"area":"San Isidro","zipcode":"6409"}]},{"city":"San Jose","zipcodes":[{"area":"San Jose","zipcode":"6402"}]},{"city":"San Roque","zipcodes":[{"area":"San Roque","zipcode":"6415"}]},{"city":"San Vicente","zipcodes":[{"area":"San Vicente","zipcode":"6419"}]},{"city":"Silvino Lobos","zipcodes":[{"area":"Silvino Lobos","zipcode":"6414"}]},{"city":"Victoria","zipcodes":[{"area":"Victoria","zipcode":"6406"}]}]}
