{"province":"Southern Leyte","cities":[{"city":"Maasin","zipcodes":[{"area":"Maasin","zipcode":"6600"}]},{"city":"Anahawan","zipcodes":[{"area":"Anahawan","zipcode":"6610"}]},{"city":"Bontoc","zipcodes":[{"area":"Bontoc","zipcode":"6604"}]},{"city":"Hinunangan","zipcodes":[{"area":"Hinunangan","zipcode":"6608"}]},{"city":"Hinundayan","zipcodes":[{"area":"Hinundayan","zipcode":"6609"}]},{"city":"Libagon","zipcodes":[{"area":"Libagon","zipcode":"6615"}]},{"city":"Liloan","zipcodes":[{"area":"Liloan","zipcode":"6612"}]},{"city":"Limasawa","zipcodes":[{"area":"Limasawa","zipcode":"___"}]},{"city":"Macrohon","zipcodes":[{"area":"Macrohon","zipcode":"6601"}]},{"city":"Malitbog","zipcodes":[{"area":"Malitbog","zipcode":"6603"}]},{"city":"Padre Burgos","zipcodes":[{"area":"Padre Burgos","zipcode":"6601"}]},{"city":"Pintuyan","zipcodes":[{"area":"Pintuyan","zipcode":"6614"}]},{"city":"St. Bernard","zipcodes":[{"area":"St. Bernard","zipcode":"6616"}]},{"city":"San Francisco","zipcodes":[{"area":"San Francisco","zipcode":"6613"}]},{"city":"San Juan","zipcodes":[{"area":"San Juan","zipcode":"6611"}]},{"city":"San Ricardo","zipcodes":[{"area":"San Ricardo","zipcode":"6617"}]},{"city":"Silago","zipcodes":[{"area":"Silago","zipcode":"6607"}]},{"city":"Sogod","zipcodes":[{"area":"Sogod","zipcode":"6606"}]},{"city":"Tomas Oppus","zipcodes":[{"area":"Tomas Oppus","zipcode":"6605"}]}]}
