{"province":"Tarlac","cities":[{"city":"Tarlac","zipcodes":[{"area":"Tarlac","zipcode":"2300"}]},{"city":"Anao","zipcodes":[{"area":"Anao","zipcode":"2310"}]},{"city":"Bamban","zipcodes":[{"area":"Bamban","zipcode":"2317"}]},{"city":"Camiling","zipcodes":[{"area":"Camiling","zipcode":"2306"}]},{"city":"Capas","zipcodes":[{"area":"Capas","zipcode":"2315"}]},{"city":"Concepcion","zipcodes":[{"area":"Concepcion","zipcode":"2316"}]},{"city":"Gerona","zipcodes":[{"area":"Gerona","zipcode":"2302"}]},{"city":"La Paz","zipcodes":[{"area":"La Paz","zipcode":"2314"}]},{"city":"Mayantoc","zipcodes":[{"area":"Mayantoc","zipcode":"2304"}]},{"city":"Moncada","zipcodes":[{"area":"Moncada","zipcode":"2308"}]},{"city":"Paniqui","zipcodes":[{"area":"Paniqui","zipcode":"2307"}]},{"city":"Pura","zipcodes":[{"area":"Pura","zipcode":"2312"}]},{"city":"Ramos","zipcodes":[{"area":"Ramos","zipcode":"2311"}]},{"city":"San Clemente","zipcodes":[{"area":"San Clemente","zipcode":"2305"}]},{"city":"San Miguel","zipcodes":[{"area":"San Miguel","zipcode":"2301"}]},{"city":"San Manuel","zipcodes":[{"area":"San Manuel","zipcode":"2309"}]},{"city":"Sta. Ignacia","zipcodes":[{"area":"Sta. Ignacia","zipcode":"2303"}]},{"city":"Victoria","zipcodes":[{"area":"Victoria","zipcode":"2313"}]}]}
