{"province":"Zambales","cities":[{"city":"Olongapo","zipcodes":[{"area":"Olongapo","zipcode":"2200"}]},{"city":"Botolan","zipcodes":[{"area":"Botolan","zipcode":"2202"}]},{"city":"Cabangan","zipcodes":[{"area":"Cabangan","zipcode":"2203"}]},{"city":"Candelaria","zipcodes":[{"area":"Candelaria","zipcode":"2212"}]},{"city":"Castillejos","zipcodes":[{"area":"Castillejos","zipcode":"2208"}]},{"city":"Iba","zipcodes":[{"area":"Iba","zipcode":"2201"}]},{"city":"Masinloc","zipcodes":[{"area":"Masinloc","zipcode":"2211"}]},{"city":"Palauig","zipcodes":[{"area":"Palauig","zipcode":"2210"}]},{"city":"San Antonio","zipcodes":[{"area":"San Antonio","zipcode":"2206"}]},{"city":"San Antonio","zipcodes":[{"area":"San Antonio","zipcode":"2206"}]},{"city":"San Marcelino","zipcodes":[{"area":"San Marcelino","zipcode":"2207"}]},{"city":"San Narciso","zipcodes":[{"area":"San Narciso","zipcode":"2205"}]},{"city":"Sta. Cruz","zipcodes":[{"area":"Sta. Cruz","zipcode":"2213"}]},{"city":"Subic","zipcodes":[{"area":"Subic","zipcode":"2209"}]}]}
