{"province":"Zamboanga Sibugay","cities":[{"city":"Alicia","zipcodes":[{"area":"Alicia","zipcode":"___"}]},{"city":"Buug","zipcodes":[{"area":"Buug","zipcode":"___"}]},{"city":"Diplahan","zipcodes":[{"area":"Diplahan","zipcode":"___"}]},{"city":"Imelda","zipcodes":[{"area":"Imelda","zipcode":"___"}]},{"city":"Ipil","zipcodes":[{"area":"Ipil","zipcode":"___"}]},{"city":"Kabasalan","zipcodes":[{"area":"Kabasalan","zipcode":"___"}]},{"city":"Mabuhay","zipcodes":[{"area":"Mabuhay","zipcode":"___"}]},{"city":"Malangas","zipcodes":[{"area":"Malangas","zipcode":"___"}]},{"city":"Naga","zipcodes":[{"area":"Naga","zipcode":"___"}]},{"city":"Olutanga","zipcodes":[{"area":"Olutanga","zipcode":"___"}]},{"city":"Payao","zipcodes":[{"area":"Payao","zipcode":"___"}]},{"city":"Roseller Lim","zipcodes":[{"area":"Roseller Lim","zipcode":"___"}]},{"city":"Siay","zipcodes":[{"area":"Siay","zipcode":"___"}]},{"city":"Talusan","zipcodes":[{"area":"Talusan","zipcode":"___"}]},{"city":"Titay","zipcodes":[{"area":"Titay","zipcode":"___"}]},{"city":"Tungawan","zipcodes":[{"area":"Tungawan","zipcode":"___"}]}]}
